SLF940,CompID,REFNUM,BATCHID,CUSTID,CustPO,PickLine,ItemNum,Color,Size,Cust-SKU,ItmQty,Ctns,ctn_qty,ctn_cube,ctn_wgt,itm_name,DtlCount,PO-Num,Rel-ID,ReqDt,StartDt,CancelDt,Dept,STORE,ShipToName,ShipToAdd1,ShipToAdd2,City,State,Cntry,ZipCode,Country,HdrNote,ship-via
SLF940,VAND,166551,,BBB,EB9D6FE,1,PL5202,,,,6,1,6,,,,,,,3/28/2019,3/28/2019,4/5/2019,,0768,BB&B #0768 North Cincinnati,5800 Deerfield Road,,Mason,OH,,45040-,,,
SLF940,VAND,166556,,BBB,EC2B2TC,1,PL5202,,,,6,1,6,,,,,,,3/28/2019,3/28/2019,4/5/2019,,1035,BB&B #1035 Turkey Creek,11263 Parkside Drive Suite 612,,Knoxville,TN,,37934-,,,
SLF940,VAND,166557,,BBB,EB9W7MS,1,PL5202,,,,6,1,6,,,,,,,3/28/2019,3/28/2019,4/5/2019,,0119,BB&B #0119 Canton,6725 STRIP AVENUE NW,,NORTH CANTON,OH,,44720-,,,
SLF940,VAND,166558,,BBB,EB9T8QY,1,PL5202,,,,48,8,6,,,,,,,3/28/2019,3/28/2019,4/5/2019,,0051,BB&B #0051 Webster,19801 GULF FREEWAY SUITE 1000,,WEBSTER,TX,,77598-,,,
SLF940,VAND,166559,,BBB,EB9R9DG,1,PL5202,,,,6,1,6,,,,,,,3/28/2019,3/28/2019,4/5/2019,,0165,BB&B #0165 Bloomington,7961 SOUTHTOWN CENTER,,BLOOMINGTON,MN,,55431-,,,
SLF940,VAND,166560,,BBB,EC3D5BH,1,PL5202,,,,6,1,6,,,,,,,3/28/2019,3/28/2019,4/5/2019,,1081,BB&B #1081 Gallery Place,709 7th Street NW,,Washington,DC,,20001-,,,
SLF940,VAND,166561,,BBB,EC3B7SN,1,PL5202,,,,12,2,6,,,,,,,3/28/2019,3/28/2019,4/5/2019,,0405,BB&B #0405 Huntsville,6888 Governors West,,Huntsville,AL,,35806-,,,
SLF940,VAND,166562,,BBB,EC3A3SE,1,PL5202,,,,18,3,6,,,,,,,3/28/2019,3/28/2019,4/5/2019,,1331,BB&B #1331 Lancaster,2350 Lincoln Highway East,Suite 100,Lancaster,PA,,17602-,,,
SLF940,VAND,166563,,BBB,EC2Z4BF,1,PL5202,,,,6,1,6,,,,,,,3/28/2019,3/28/2019,4/5/2019,,0590,BB&B #0590 Mobile,3725 Airport Blvd Suite 100A,,Mobile,AL,,36608-,,,
SLF940,VAND,166564,,BBB,EC2Z3TT,1,PL5202,,,,6,1,6,,,,,,,3/28/2019,3/28/2019,4/5/2019,,1214,BB&B #1214 So. Virginia Beach,3312 Princess Ann Road Suite 807,,Virginia Beach,VA,,23456-,,,
SLF940,VAND,166565,,BBB,EC2Z3LG,1,PL5202,,,,12,2,6,,,,,,,3/28/2019,3/28/2019,4/5/2019,,1126,BB&B #1126 North Greensboro,1618 Highwoods Blvd,,Greensboro,NC,,27410-,,,
SLF940,VAND,166566,,BBB,EC2Z2XK,1,PL5202,,,,12,2,6,,,,,,,3/28/2019,3/28/2019,4/5/2019,,0213,BB&B #0213 Jensen Beach,2450 NW FEDERAL HIGHWAY,,STUART,FL,,34994-,,,
SLF940,VAND,166567,,BBB,EC2Z2MY,1,PL5202,,,,6,1,6,,,,,,,3/28/2019,3/28/2019,4/5/2019,,0517,BB&B #0517 North Little Rock,4122 McCain Blvd,,North Little Rock,AR,,72117-,,,
SLF940,VAND,166568,,BBB,EC2Y7RA,1,PL5202,,,,6,1,6,,,,,,,3/28/2019,3/28/2019,4/5/2019,,0056,BB&B #0056 Fairfax,9666 MAIN STREET,,FAIRFAX,VA,,22031-,,,
SLF940,VAND,166569,,BBB,EC2Y7MX,1,PL5202,,,,6,1,6,,,,,,,3/28/2019,3/28/2019,4/5/2019,,1014,BB&B #1014 Moreland Ave,1235 Caroline Street NE,,Atlanta,GA,,30307-,,,
SLF940,VAND,166570,,BBB,EC2Y7GA,1,PL5202,,,,18,3,6,,,,,,,3/28/2019,3/28/2019,4/5/2019,,0832,BB&B #0832 Raleigh Triangle,3604 Sumner Blvd Suite 104,,Raleigh,NC,,27616-,,,
SLF940,VAND,166571,,BBB,EC2Y4MG,1,PL5202,,,,12,2,6,,,,,,,3/28/2019,3/28/2019,4/5/2019,,0196,BB&B #0196 Towson,1238 PUTTY HILL AVENUE,Suite 1,TOWSON,MD,,21286-,,,
SLF940,VAND,166572,,BBB,EC2X7KU,1,PL5202,,,,12,2,6,,,,,,,3/28/2019,3/28/2019,4/5/2019,,0560,BB&B #0560 Morganton Road,5075 Morganton Road Suite 9C,,Fayetteville,NC,,28314-,,,
SLF940,VAND,166573,,BBB,EC2X5QP,1,PL5202,,,,6,1,6,,,,,,,3/28/2019,3/28/2019,4/5/2019,,0454,BB&B #0454 Fort Lauderdale,2701 N Federal Highway,,Fort Lauderdale,FL,,33306-,,,
SLF940,VAND,166574,,BBB,EC2X4UG,1,PL5202,,,,6,1,6,,,,,,,3/28/2019,3/28/2019,4/5/2019,,0321,BB&B #0321 Lafayette,3617 Ambassador Caffery,,Lafayette,LA,,70503-,,,
SLF940,VAND,166575,,BBB,EC2X3UV,1,PL5202,,,,30,5,6,,,,,,,3/28/2019,3/28/2019,4/5/2019,,1135,BB&B #1135 Mechanicsburg,6416 Carlisle Pike Suite 2700,,Mechanicsburg,PA,,17050-,,,
SLF940,VAND,166576,,BBB,EC2X3QA,1,PL5202,,,,18,3,6,,,,,,,3/28/2019,3/28/2019,4/5/2019,,0069,BB&B #0069 Brandon,320 BRANDON TOWN CENTER DRIVE,,BRANDON,FL,,33511-,,,
SLF940,VAND,166577,,BBB,EC2X2XD,1,PL5202,,,,6,1,6,,,,,,,3/28/2019,3/28/2019,4/5/2019,,0385,BB&B #0385 East Boca,1400C Glades Road,,Boca Raton,FL,,33431-,,,
SLF940,VAND,166578,,BBB,EC2W9JU,1,PL5202,,,,6,1,6,,,,,,,3/28/2019,3/28/2019,4/5/2019,,1048,BB&B #1048 Estero,8020 Mediterranean Dr Bldg 24,,Estero,FL,,33928-,,,
SLF940,VAND,166579,,BBB,EC2W9CR,1,PL5202,,,,12,2,6,,,,,,,3/28/2019,3/28/2019,4/5/2019,,0035,BB&B #0035 Annapolis,200 Harker Place,Suite 200,Annapolis,MD,,21401-,,,
SLF940,VAND,166580,,BBB,EC2W8GL,1,PL5202,,,,6,1,6,,,,,,,3/28/2019,3/28/2019,4/5/2019,,0033,BB&B #0033 Rockville,1519 ROCKVILLE PIKE,,ROCKVILLE,MD,,20852-,,,
SLF940,VAND,166581,,BBB,EC2W7KQ,1,PL5202,,,,12,2,6,,,,,,,3/28/2019,3/28/2019,4/5/2019,,1304,BB&B #1304 Cape Coral,1827 NE Pine Island Road,,Cape Coral,FL,,33909-,,,
SLF940,VAND,166582,,BBB,EC2W4ZF,1,PL5202,,,,6,1,6,,,,,,,3/28/2019,3/28/2019,4/5/2019,,1195,BB&B #1195 Port St Lucie,10856 SW Village Parkway,,Port St Lucie,FL,,34987-,,,
SLF940,VAND,166583,,BBB,EC2W3LB,1,PL5202,,,,12,2,6,,,,,,,3/28/2019,3/28/2019,4/5/2019,,0271,BB&B #0271 Harrisburg,5125 Jonestown Road Suite 425,,Harrisburg,PA,,17112-,,,
SLF940,VAND,166584,,BBB,EC2U9KE,1,PL5202,,,,6,1,6,,,,,,,3/28/2019,3/28/2019,4/5/2019,,1233,BB&B #1233 Johns Creek,2623 Peachtree Pkwy,,Suwanee,GA,,30024-,,,
SLF940,VAND,166585,,BBB,EC2U7ZN,1,PL5202,,,,6,1,6,,,,,,,3/28/2019,3/28/2019,4/5/2019,,0273,BB&B #0273 Palm Beach Gardens,2410 PGA BOULEVARD,,PALM BEACH GARDENS,FL,,33410-,,,
SLF940,VAND,166586,,BBB,EC2T5UT,1,PL5202,,,,12,2,6,,,,,,,3/28/2019,3/28/2019,4/5/2019,,0092,BB&B #0092 Boca Raton,20560 STATE ROAD 7,,BOCA RATON,FL,,33498-,,,
SLF940,VAND,166587,,BBB,EC2T3RT,1,PL5202,,,,6,1,6,,,,,,,3/28/2019,3/28/2019,4/5/2019,,0386,BB&B #0386 Slidell,127 Northshore Blvd Suite 1,,Slidell,LA,,70460-,,,
SLF940,VAND,166588,,BBB,EC2S8MZ,1,PL5202,,,,6,1,6,,,,,,,3/28/2019,3/28/2019,4/5/2019,,1392,BB&B #1392 Denham Springs,10129 Crossing Way Suite 420,,Denham Springs,LA,,70726-,,,
SLF940,VAND,166589,,BBB,EC2S5NV,1,PL5202,,,,6,1,6,,,,,,,3/28/2019,3/28/2019,4/5/2019,,1268,BB&B #1268 University Town Center,111 North Cattlemen Road,,SARASOTA,FL,,34243-,,,
SLF940,VAND,166590,,BBB,EC2Q7RN,1,PL5202,,,,12,2,6,,,,,,,3/28/2019,3/28/2019,4/5/2019,,0440,BB&B #0440 Hickory,1835 Catawba Valley Blvd SE,,Hickory,NC,,28602-,,,
SLF940,VAND,166591,,BBB,EC2P5FV,1,PL5202,,,,6,1,6,,,,,,,3/28/2019,3/28/2019,4/5/2019,,0470,BB&B #0470 Columbus Park,5555 Whittlesey Blvd Ste 1400,,Columbus,GA,,31909-,,,
SLF940,VAND,166592,,BBB,EC2N9FA,1,PL5202,,,,12,2,6,,,,,,,3/28/2019,3/28/2019,4/5/2019,,0245,BB&B #0245 Gainesville,6855 NEWBERRY ROAD,,GAINESVILLE,FL,,32605-,,,
SLF940,VAND,166593,,BBB,EC2N7EZ,1,PL5202,,,,36,6,6,,,,,,,3/28/2019,3/28/2019,4/5/2019,,0051,BB&B #0051 Webster,19801 GULF FREEWAY SUITE 1000,,WEBSTER,TX,,77598-,,,
SLF940,VAND,166594,,BBB,EC2N5MY,1,PL5202,,,,6,1,6,,,,,,,3/28/2019,3/28/2019,4/5/2019,,0525,BB&B #0525 Pensacola,5450 N 9th Avenue,,Pensacola,FL,,32504-,,,
SLF940,VAND,166595,,BBB,EC2N2EF,1,PL5202,,,,12,2,6,,,,,,,3/28/2019,3/28/2019,4/5/2019,,0098,BB&B #0098 Birmingham,1771 MONTGOMERY HIGHWAY,,HOOVER,AL,,35244-,,,
SLF940,VAND,166596,,BBB,EC2M7MV,1,PL5202,,,,6,1,6,,,,,,,3/28/2019,3/28/2019,4/5/2019,,0424,BB&B #0424 Port Charlotte,18700 Veterans Blvd Unit 14,,Port Charlotte,FL,,33954-,,,
SLF940,VAND,166597,,BBB,EC2M4RX,1,PL5202,,,,6,1,6,,,,,,,3/28/2019,3/28/2019,4/5/2019,,0518,BB&B #0518 Vero Beach,6150 20th Street,,Vero Beach,FL,,32966-,,,
SLF940,VAND,166598,,BBB,EC2M2TJ,1,PL5202,,,,18,3,6,,,,,,,3/28/2019,3/28/2019,4/5/2019,,0034,BB&B #0034 Sawgrass,12801 SUNRISE BLVD,,SUNRISE,FL,,33323-,,,
SLF940,VAND,166599,,BBB,EC2L6BU,1,PL5202,,,,6,1,6,,,,,,,3/28/2019,3/28/2019,4/5/2019,,0354,BB&B #0354 Jackson,6370 Ridgewood Court Drive,,Jackson,MS,,39211-,,,
SLF940,VAND,166600,,BBB,EC2L4ZP,1,PL5202,,,,6,1,6,,,,,,,3/28/2019,3/28/2019,4/5/2019,,0480,BB&B #0480 Melbourne,1555 West New Haven Avenue,,West Melbourne,FL,,32904-,,,
