SLF940,CompID,REFNUM,BATCHID,CUSTID,CustPO,PickLine,ItemNum,Color,Size,Cust-SKU,ItmQty,Ctns,ctn_qty,ctn_cube,ctn_wgt,itm_name,DtlCount,PO-Num,Rel-ID,ReqDt,StartDt,CancelDt,Dept,STORE,ShipToName,ShipToAdd1,ShipToAdd2,City,State,ZipCode,Country,HdrNote,ship-via
SLF940,VAND,179104,AMAZON11.2,AMAZON,8UOD9A8R,1,ME9386,,,,2,1,2,,,,,,,11/12/2019,10/25/2019,10/28/2019,,,"AMAZON, TEB3",2651 Oldmans Creek Road,,SWEDESBORO,NJ,08085-,,,
SLF940,VAND,179170,AMAZON11.2,AMAZON,7M1R5X5L,1,ME9386,,,,2,1,2,,,,,,,11/12/2019,10/25/2019,10/28/2019,,,Amazon BOS7,1180 Innovation Way,,Fall River,MA,02722-,,,
SLF940,VAND,179181,AMAZON11.2,AMAZON,59X3RL1O,1,ME9386,,,,2,1,2,,,,,,,11/12/2019,10/25/2019,10/28/2019,,,"AMAZON, TEB3",2651 Oldmans Creek Road,,SWEDESBORO,NJ,08085-,,,
SLF940,VAND,179184,AMAZON11.2,AMAZON,4Z1NY7VK,1,ME9386,,,,2,1,2,,,,,,,11/12/2019,10/25/2019,10/28/2019,,,Amazon BOS7,1180 Innovation Way,,Fall River,MA,02722-,,,
SLF940,VAND,179170,AMAZON11.2,AMAZON,7M1R5X5L,1,ME8433,,,,3,1,3,,,,,,,11/12/2019,10/25/2019,10/28/2019,,,Amazon BOS7,1180 Innovation Way,,Fall River,MA,02722-,,,
SLF940,VAND,179184,AMAZON11.2,AMAZON,4Z1NY7VK,1,ME8433,,,,3,1,3,,,,,,,11/12/2019,10/25/2019,10/28/2019,,,Amazon BOS7,1180 Innovation Way,,Fall River,MA,02722-,,,
SLF940,VAND,177270,AMAZON11.2,AMAZON,41G6N8VR,1,ME9202,,,,4,1,4,,,,,,,11/12/2019,11/25/2019,11/27/2019,,,LGB8,1568 N Linden Avenue,,Rialto,CA,92376-,,,
SLF940,VAND,177272,AMAZON11.2,AMAZON,45WOL4SB,1,ME9218,,,,4,1,4,,,,,,,11/12/2019,11/25/2019,11/27/2019,,,XUSN,4200 Ferry Road,,Aurora,IL,60502-,,,
SLF940,VAND,177273,AMAZON11.2,AMAZON,4IES812Z,1,ME9245,,,,4,1,4,,,,,,,11/12/2019,11/25/2019,11/27/2019,,,AMAZON.COM KYDC LLC,6000 Enterprise Ave,,Schertz,TX,78154-,,,
SLF940,VAND,177276,AMAZON11.2,AMAZON,67G7LW6F,1,1103108-4,,,,4,1,4,,,,,,,11/12/2019,11/25/2019,11/27/2019,,,MDW9,2865 Duke Parkway,,Aurora,IL,60502-,,,
SLF940,VAND,177280,AMAZON11.2,AMAZON,6OET6OCN,1,ME9245,,,,4,1,4,,,,,,,11/12/2019,11/25/2019,11/27/2019,,,"AMAZON, TEB3",2651 Oldmans Creek Road,,SWEDESBORO,NJ,08085-,,,
SLF940,VAND,177609,AMAZON11.2,AMAZON,82M2WLNV,1,1103108-4,,,,4,1,4,,,,,,,11/12/2019,11/25/2019,11/27/2019,,,DEN 2,22205  East 19th Ave,,Aurora,CO,80019-,,,
SLF940,VAND,177616,AMAZON11.2,AMAZON,8RFXHOZO,1,ME9523,,,,4,1,4,,,,,,,11/12/2019,11/25/2019,11/27/2019,,,LAX9 FONTANA,11263 OLEANDER AVE,,FONTANA,CA,92337-7441,,,
SLF940,VAND,179377,AMAZON11.2,AMAZON,2T3KJK5U,1,ME9216,,,,4,1,4,,,,,,,11/12/2019,12/18/2019,12/20/2019,,,Amazon BOS7,1180 Innovation Way,,Fall River,MA,02722-,,,
SLF940,VAND,179378,AMAZON11.2,AMAZON,2UXC5NZJ,1,ME9216,,,,4,1,4,,,,,,,11/12/2019,12/18/2019,12/20/2019,,,"AMAZON, TEB3",2651 Oldmans Creek Road,,SWEDESBORO,NJ,08085-,,,
SLF940,VAND,179378,AMAZON11.2,AMAZON,2UXC5NZJ,1,ME9245,,,,4,1,4,,,,,,,11/12/2019,12/18/2019,12/20/2019,,,"AMAZON, TEB3",2651 Oldmans Creek Road,,SWEDESBORO,NJ,08085-,,,
SLF940,VAND,179379,AMAZON11.2,AMAZON,61SPALRM,1,ME9213,,,,4,1,4,,,,,,,11/12/2019,12/18/2019,12/20/2019,,,AMAZON.COM KYDC LLC,6000 Enterprise Ave,,Schertz,TX,78154-,,,
SLF940,VAND,179384,AMAZON11.2,AMAZON,6BYXHWJP,1,ME9216,,,,4,1,4,,,,,,,11/12/2019,12/18/2019,12/20/2019,,,BW14,165 Business Blvd,,CLEAR BROOK,VA,22624-,,,
SLF940,VAND,179871,AMAZON11.2,AMAZON,7JOWW66L,1,1103108-4,,,,4,1,4,,,,,,,11/12/2019,11/4/2019,11/6/2019,,,Amazon.com dedc. LLC,225 Infinity Dr. NW,,CHARLESTON,TN,37310-,,,
SLF940,VAND,179872,AMAZON11.2,AMAZON,3KM6ONEG,1,1103108-4,,,,4,1,4,,,,,,,11/12/2019,11/4/2019,11/6/2019,,,"Amazon.com.DEDC, LLC",2 Ames Drive,,Carlisle,pa,17015-,,,
SLF940,VAND,177221,AMAZON11.2,AMAZON,1VY4HK7Z,1,ME9244,,,,4,1,4,,,,,,,11/12/2019,9/25/2019,9/29/2019,,,LAX9 FONTANA,11263 OLEANDER AVE,,FONTANA,CA,92337-7441,,,
SLF940,VAND,177240,AMAZON11.2,AMAZON,43LPE57J,1,ME9523,,,,4,1,4,,,,,,,11/12/2019,10/25/2019,10/29/2019,,,LAX9 FONTANA,11263 OLEANDER AVE,,FONTANA,CA,92337-7441,,,
SLF940,VAND,177244,AMAZON11.2,AMAZON,4RNL8KCW,1,1103108-4,,,,4,1,4,,,,,,,11/12/2019,10/28/2019,10/29/2019,,,LGB4,27517 Pioneer Avenue,,Redlands,CA,92374-,,,
SLF940,VAND,177251,AMAZON11.2,AMAZON,6Q9KRS7C,1,1103108-4,,,,4,1,4,,,,,,,11/12/2019,10/25/2019,10/29/2019,,,"AMAZON, TEB3",2651 Oldmans Creek Road,,SWEDESBORO,NJ,08085-,,,
SLF940,VAND,177265,AMAZON11.2,AMAZON,5TLH8LBG,1,ME9523,,,,4,1,4,,,,,,,11/12/2019,10/25/2019,10/29/2019,,,SMF3,3923 S B ST,,STOCKTON,CA,95206-,,,
SLF940,VAND,178798,AMAZON11.2,AMAZON,4ZYXMZCG,1,1103108-4,,,,4,1,4,,,,,,,11/12/2019,10/7/2019,10/11/2019,,,Amazon .com DEDC LLC,2700 Center Drive,,DUPONT,WA,98327-,,,
SLF940,VAND,179553,AMAZON11.2,AMAZON,447A4MKQ,1,ME9385,,,,4,1,4,,,,,,,11/12/2019,10/29/2019,10/30/2019,,,Amazon.com azdc LLC,800 n 75th ave,,Phoenix,AZ,85043-,,,
SLF940,VAND,179554,AMAZON11.2,AMAZON,4BAJEAJV,1,ME9385,,,,4,1,4,,,,,,,11/12/2019,10/29/2019,10/30/2019,,,Amazon.com.indc LLC,715 Airtech Pkwy,,PLAINFIELD,IN,46168-,,,
SLF940,VAND,179563,AMAZON11.2,AMAZON,67QFC8JX,1,ME9385,,,,4,1,4,,,,,,,11/12/2019,10/29/2019,10/30/2019,,,AMAZON.COM PDX7,PDX7,4775 DEPOT CT SE,SALEM,OR,97317-,,,
SLF940,VAND,179563,AMAZON11.2,AMAZON,67QFC8JX,1,ME9216,,,,4,1,4,,,,,,,11/12/2019,10/29/2019,10/30/2019,,,AMAZON.COM PDX7,PDX7,4775 DEPOT CT SE,SALEM,OR,97317-,,,
SLF940,VAND,179571,AMAZON11.2,AMAZON,6OP1VZPF,1,ME9216,,,,4,1,4,,,,,,,11/12/2019,10/29/2019,10/30/2019,,,"amazon .com DEDC, LLC",1760 County Line Rd,,Lakeland,FL,33811-,,,
SLF940,VAND,179573,AMAZON11.2,AMAZON,6SEK48FJ,1,1103108-4,,,,4,1,4,,,,,,,11/12/2019,10/29/2019,10/30/2019,,,Amazon Golden State FC LLC,255 Park Center Drive,,PATTERSON,CA,95363-,,,
SLF940,VAND,179575,AMAZON11.2,AMAZON,6UPJB81B,1,1103108-4,,,,4,1,4,,,,,,,11/12/2019,10/29/2019,10/30/2019,,,LGB6,20901 Krameria Ave,,MARCH AIR FORCE BASE,CA,92518-,,,
SLF940,VAND,177608,AMAZON11.2,AMAZON,6V1UUGKP,1,ME9202,,,,8,2,4,,,,,,,11/12/2019,11/25/2019,11/27/2019,,,GOLDEN STATE FC LLC,24300 Nandina Ave,,Moreno Valley,CA,92551-,,,
SLF940,VAND,177616,AMAZON11.2,AMAZON,8RFXHOZO,1,ME9202,,,,8,2,4,,,,,,,11/12/2019,11/25/2019,11/27/2019,,,LAX9 FONTANA,11263 OLEANDER AVE,,FONTANA,CA,92337-7441,,,
SLF940,VAND,179379,AMAZON11.2,AMAZON,61SPALRM,1,ME9216,,,,8,2,4,,,,,,,11/12/2019,12/18/2019,12/20/2019,,,AMAZON.COM KYDC LLC,6000 Enterprise Ave,,Schertz,TX,78154-,,,
SLF940,VAND,177240,AMAZON11.2,AMAZON,43LPE57J,1,ME9202,,,,8,2,4,,,,,,,11/12/2019,10/25/2019,10/29/2019,,,LAX9 FONTANA,11263 OLEANDER AVE,,FONTANA,CA,92337-7441,,,
SLF940,VAND,177265,AMAZON11.2,AMAZON,5TLH8LBG,1,ME9198,,,,8,2,4,,,,,,,11/12/2019,10/25/2019,10/29/2019,,,SMF3,3923 S B ST,,STOCKTON,CA,95206-,,,
SLF940,VAND,177265,AMAZON11.2,AMAZON,5TLH8LBG,1,ME9202,,,,8,2,4,,,,,,,11/12/2019,10/25/2019,10/29/2019,,,SMF3,3923 S B ST,,STOCKTON,CA,95206-,,,
SLF940,VAND,179553,AMAZON11.2,AMAZON,447A4MKQ,1,ME9216,,,,8,2,4,,,,,,,11/12/2019,10/29/2019,10/30/2019,,,Amazon.com azdc LLC,800 n 75th ave,,Phoenix,AZ,85043-,,,
SLF940,VAND,179579,AMAZON11.2,AMAZON,7IVKDZTW,1,ME9216,,,,8,2,4,,,,,,,11/12/2019,10/29/2019,10/30/2019,,,CLT 3,6500 Davidson Hway,,Concord,NC,28027-,,,
SLF940,VAND,177240,AMAZON11.2,AMAZON,43LPE57J,1,ME9198,,,,12,3,4,,,,,,,11/12/2019,10/25/2019,10/29/2019,,,LAX9 FONTANA,11263 OLEANDER AVE,,FONTANA,CA,92337-7441,,,
SLF940,VAND,177259,AMAZON11.2,AMAZON,8J9WCLDA,1,ME9198,,,,12,3,4,,,,,,,11/12/2019,10/25/2019,10/29/2019,,,LGB8,1568 N Linden Avenue,,Rialto,CA,92376-,,,
SLF940,VAND,179386,AMAZON11.2,AMAZON,6X9MJHCH,1,ME9200,,,,16,4,4,,,,,,,11/12/2019,12/18/2019,12/20/2019,,,SMF3,3923 S B ST,,STOCKTON,CA,95206-,,,
SLF940,VAND,177221,AMAZON11.2,AMAZON,1VY4HK7Z,1,ME9198,,,,20,5,4,,,,,,,11/12/2019,9/25/2019,9/29/2019,,,LAX9 FONTANA,11263 OLEANDER AVE,,FONTANA,CA,92337-7441,,,
SLF940,VAND,177221,AMAZON11.2,AMAZON,1VY4HK7Z,1,ME9202,,,,20,5,4,,,,,,,11/12/2019,9/25/2019,9/29/2019,,,LAX9 FONTANA,11263 OLEANDER AVE,,FONTANA,CA,92337-7441,,,
SLF940,VAND,177050,AMAZON11.2,AMAZON,6J8TFQGU,1,V01481,,,,6,1,6,,,,,,,11/12/2019,8/26/2019,8/28/2019,,,Amazon .com DEDC LLC,2700 Center Drive,,DUPONT,WA,98327-,,,
SLF940,VAND,177271,AMAZON11.2,AMAZON,455OUGLV,1,V05682,,,,6,1,6,,,,,,,11/12/2019,11/25/2019,11/27/2019,,,AMAZON.COM SAV3,7001 SKIPPER ROD,,MACON,GA,31216-,,,
SLF940,VAND,177273,AMAZON11.2,AMAZON,4IES812Z,1,V01481,,,,6,1,6,,,,,,,11/12/2019,11/25/2019,11/27/2019,,,AMAZON.COM KYDC LLC,6000 Enterprise Ave,,Schertz,TX,78154-,,,
SLF940,VAND,177275,AMAZON11.2,AMAZON,4WFVB8PJ,1,V05682,,,,6,1,6,,,,,,,11/12/2019,11/25/2019,11/27/2019,,,LGB4,27517 Pioneer Avenue,,Redlands,CA,92374-,,,
SLF940,VAND,177278,AMAZON11.2,AMAZON,6FWZVS9W,1,V05682,,,,6,1,6,,,,,,,11/12/2019,11/25/2019,11/27/2019,,,AMAZON DET 2,50500 MOUND ROAD,,SHELBY TOWNSHIP,MI,48317-,,,
SLF940,VAND,177279,AMAZON11.2,AMAZON,6KPATGMJ,1,V01481,,,,6,1,6,,,,,,,11/12/2019,11/25/2019,11/27/2019,,,CLT 3,6500 Davidson Hway,,Concord,NC,28027-,,,
SLF940,VAND,177280,AMAZON11.2,AMAZON,6OET6OCN,1,V05682,,,,6,1,6,,,,,,,11/12/2019,11/25/2019,11/27/2019,,,"AMAZON, TEB3",2651 Oldmans Creek Road,,SWEDESBORO,NJ,08085-,,,
SLF940,VAND,177614,AMAZON11.2,AMAZON,8GN5ZTBF,1,V01481,,,,6,1,6,,,,,,,11/12/2019,11/25/2019,11/27/2019,,,Amazon BOS7,1180 Innovation Way,,Fall River,MA,02722-,,,
SLF940,VAND,177614,AMAZON11.2,AMAZON,8GN5ZTBF,1,V05682,,,,6,1,6,,,,,,,11/12/2019,11/25/2019,11/27/2019,,,Amazon BOS7,1180 Innovation Way,,Fall River,MA,02722-,,,
SLF940,VAND,179377,AMAZON11.2,AMAZON,2T3KJK5U,1,V05605,,,,6,1,6,,,,,,,11/12/2019,12/18/2019,12/20/2019,,,Amazon BOS7,1180 Innovation Way,,Fall River,MA,02722-,,,
SLF940,VAND,179377,AMAZON11.2,AMAZON,2T3KJK5U,1,V01480,,,,6,1,6,,,,,,,11/12/2019,12/18/2019,12/20/2019,,,Amazon BOS7,1180 Innovation Way,,Fall River,MA,02722-,,,
SLF940,VAND,179377,AMAZON11.2,AMAZON,2T3KJK5U,1,ME9318,,,,6,1,6,,,,,,,11/12/2019,12/18/2019,12/20/2019,,,Amazon BOS7,1180 Innovation Way,,Fall River,MA,02722-,,,
SLF940,VAND,179377,AMAZON11.2,AMAZON,2T3KJK5U,1,V05570-BLUSH,,,,6,1,6,,,,,,,11/12/2019,12/18/2019,12/20/2019,,,Amazon BOS7,1180 Innovation Way,,Fall River,MA,02722-,,,
SLF940,VAND,179378,AMAZON11.2,AMAZON,2UXC5NZJ,1,V05570-BLUSH,,,,6,1,6,,,,,,,11/12/2019,12/18/2019,12/20/2019,,,"AMAZON, TEB3",2651 Oldmans Creek Road,,SWEDESBORO,NJ,08085-,,,
SLF940,VAND,179379,AMAZON11.2,AMAZON,61SPALRM,1,V05567,,,,6,1,6,,,,,,,11/12/2019,12/18/2019,12/20/2019,,,AMAZON.COM KYDC LLC,6000 Enterprise Ave,,Schertz,TX,78154-,,,
SLF940,VAND,179379,AMAZON11.2,AMAZON,61SPALRM,1,V05682,,,,6,1,6,,,,,,,11/12/2019,12/18/2019,12/20/2019,,,AMAZON.COM KYDC LLC,6000 Enterprise Ave,,Schertz,TX,78154-,,,
SLF940,VAND,179379,AMAZON11.2,AMAZON,61SPALRM,1,V05570-BLUSH,,,,6,1,6,,,,,,,11/12/2019,12/18/2019,12/20/2019,,,AMAZON.COM KYDC LLC,6000 Enterprise Ave,,Schertz,TX,78154-,,,
SLF940,VAND,179380,AMAZON11.2,AMAZON,64VO89KK,1,V05570-BLUSH,,,,6,1,6,,,,,,,11/12/2019,12/18/2019,12/20/2019,,,Amazon.com dedc LLC,500 Duke Dr,,Lebanon,TN,37090-,,,
SLF940,VAND,179383,AMAZON11.2,AMAZON,6D2PDD7Y,1,V01481,,,,6,1,6,,,,,,,11/12/2019,12/18/2019,12/20/2019,,,DEN 2,22205  East 19th Ave,,Aurora,CO,80019-,,,
SLF940,VAND,179385,AMAZON11.2,AMAZON,6AFY1L5D,1,V01481,,,,6,1,6,,,,,,,11/12/2019,12/18/2019,12/20/2019,,,AMAZON.COMDEDC LLC,39000 AMRHEIN ROAD,,LIVONIA,MI,48150-,,,
SLF940,VAND,179551,AMAZON11.2,AMAZON,3W7MZDBH,1,V05567,,,,6,1,6,,,,,,,11/12/2019,10/29/2019,10/30/2019,,,STL 4,3050 gateway Commerce Ctr DR S,,EDWARDSVILLE,IL,62025-2815,,,
SLF940,VAND,179876,AMAZON11.2,AMAZON,7A5CQTFL,1,V05567,,,,6,1,6,,,,,,,11/12/2019,11/4/2019,11/6/2019,,,Amazon.com azdc LLC,800 n 75th ave,,Phoenix,AZ,85043-,,,
SLF940,VAND,180009,AMAZON11.2,AMAZON,3AWJYH3B,1,ME9290,,,,6,1,6,,,,,,,11/12/2019,11/11/2019,11/15/2019,,,"amazon .com DEDC, LLC",1760 County Line Rd,,Lakeland,FL,33811-,,,
SLF940,VAND,177221,AMAZON11.2,AMAZON,1VY4HK7Z,1,V05573,,,,6,1,6,,,,,,,11/12/2019,9/25/2019,9/29/2019,,,LAX9 FONTANA,11263 OLEANDER AVE,,FONTANA,CA,92337-7441,,,
SLF940,VAND,177240,AMAZON11.2,AMAZON,43LPE57J,1,V05573,,,,6,1,6,,,,,,,11/12/2019,10/25/2019,10/29/2019,,,LAX9 FONTANA,11263 OLEANDER AVE,,FONTANA,CA,92337-7441,,,
SLF940,VAND,177245,AMAZON11.2,AMAZON,4YAMWCKY,1,V01481,,,,6,1,6,,,,,,,11/12/2019,10/25/2019,10/29/2019,,,Amazon.com azdc LLC,800 n 75th ave,,Phoenix,AZ,85043-,,,
SLF940,VAND,177245,AMAZON11.2,AMAZON,4YAMWCKY,1,ME9290,,,,6,1,6,,,,,,,11/12/2019,10/25/2019,10/29/2019,,,Amazon.com azdc LLC,800 n 75th ave,,Phoenix,AZ,85043-,,,
SLF940,VAND,177245,AMAZON11.2,AMAZON,4YAMWCKY,1,ME9414,,,,6,1,6,,,,,,,11/12/2019,10/25/2019,10/29/2019,,,Amazon.com azdc LLC,800 n 75th ave,,Phoenix,AZ,85043-,,,
SLF940,VAND,177250,AMAZON11.2,AMAZON,6JMJ3ZYA,1,V05682,,,,6,1,6,,,,,,,11/12/2019,10/25/2019,10/29/2019,,,AMAZON DET 2,50500 MOUND ROAD,,SHELBY TOWNSHIP,MI,48317-,,,
SLF940,VAND,177250,AMAZON11.2,AMAZON,6JMJ3ZYA,1,V05550,,,,6,1,6,,,,,,,11/12/2019,10/25/2019,10/29/2019,,,AMAZON DET 2,50500 MOUND ROAD,,SHELBY TOWNSHIP,MI,48317-,,,
SLF940,VAND,177250,AMAZON11.2,AMAZON,6JMJ3ZYA,1,ME9290,,,,6,1,6,,,,,,,11/12/2019,10/25/2019,10/29/2019,,,AMAZON DET 2,50500 MOUND ROAD,,SHELBY TOWNSHIP,MI,48317-,,,
SLF940,VAND,177251,AMAZON11.2,AMAZON,6Q9KRS7C,1,V05682,,,,6,1,6,,,,,,,11/12/2019,10/25/2019,10/29/2019,,,"AMAZON, TEB3",2651 Oldmans Creek Road,,SWEDESBORO,NJ,08085-,,,
SLF940,VAND,177255,AMAZON11.2,AMAZON,86RSPP4C,1,V01481,,,,6,1,6,,,,,,,11/12/2019,10/25/2019,10/29/2019,,,"Amazon.com.DEDC, LLC",2 Ames Drive,,Carlisle,pa,17015-,,,
SLF940,VAND,177255,AMAZON11.2,AMAZON,86RSPP4C,1,ME9290,,,,6,1,6,,,,,,,11/12/2019,10/25/2019,10/29/2019,,,"Amazon.com.DEDC, LLC",2 Ames Drive,,Carlisle,pa,17015-,,,
SLF940,VAND,177255,AMAZON11.2,AMAZON,86RSPP4C,1,ME9414,,,,6,1,6,,,,,,,11/12/2019,10/25/2019,10/29/2019,,,"Amazon.com.DEDC, LLC",2 Ames Drive,,Carlisle,pa,17015-,,,
SLF940,VAND,177258,AMAZON11.2,AMAZON,8IHWLX6U,1,V05550,,,,6,1,6,,,,,,,11/12/2019,10/25/2019,10/29/2019,,,Amazon BOS7,1180 Innovation Way,,Fall River,MA,02722-,,,
SLF940,VAND,177258,AMAZON11.2,AMAZON,8IHWLX6U,1,ME9414,,,,6,1,6,,,,,,,11/12/2019,10/25/2019,10/29/2019,,,Amazon BOS7,1180 Innovation Way,,Fall River,MA,02722-,,,
SLF940,VAND,177259,AMAZON11.2,AMAZON,8J9WCLDA,1,V05573,,,,6,1,6,,,,,,,11/12/2019,10/25/2019,10/29/2019,,,LGB8,1568 N Linden Avenue,,Rialto,CA,92376-,,,
SLF940,VAND,179554,AMAZON11.2,AMAZON,4BAJEAJV,1,ME9290,,,,6,1,6,,,,,,,11/12/2019,10/29/2019,10/30/2019,,,Amazon.com.indc LLC,715 Airtech Pkwy,,PLAINFIELD,IN,46168-,,,
SLF940,VAND,179571,AMAZON11.2,AMAZON,6OP1VZPF,1,ME9290,,,,6,1,6,,,,,,,11/12/2019,10/29/2019,10/30/2019,,,"amazon .com DEDC, LLC",1760 County Line Rd,,Lakeland,FL,33811-,,,
SLF940,VAND,177273,AMAZON11.2,AMAZON,4IES812Z,1,V05682,,,,12,2,6,,,,,,,11/12/2019,11/25/2019,11/27/2019,,,AMAZON.COM KYDC LLC,6000 Enterprise Ave,,Schertz,TX,78154-,,,
SLF940,VAND,179382,AMAZON11.2,AMAZON,6ER1IDRN,1,V01481,,,,12,2,6,,,,,,,11/12/2019,12/18/2019,12/20/2019,,,Amazon .com DEDC LLC,2700 Center Drive,,DUPONT,WA,98327-,,,
SLF940,VAND,179877,AMAZON11.2,AMAZON,11Y5DLYY,1,V01481,,,,12,2,6,,,,,,,11/12/2019,11/4/2019,9/25/2019,,,AMAZOM.COM,700 GATEWAY BLVD,,MONROE,OH,45050-1848,,,
SLF940,VAND,179878,AMAZON11.2,AMAZON,16FNBHVI,1,V01481,,,,12,2,6,,,,,,,11/12/2019,11/4/2019,11/6/2019,,,Amazon BOS7,1180 Innovation Way,,Fall River,MA,02722-,,,
SLF940,VAND,179879,AMAZON11.2,AMAZON,DET2,1,V01481,,,,12,2,6,,,,,,,11/12/2019,11/4/2019,11/6/2019,,,AMAZON DET 2,50500 MOUND ROAD,,SHELBY TOWNSHIP,MI,48317-,,,
SLF940,VAND,180001,AMAZON11.2,AMAZON,33IIK1NT,1,ME9290,,,,12,2,6,,,,,,,11/12/2019,11/11/2019,11/15/2019,,,AMAZON.COM PDX7,4775 DEPOT CT SE,,SALEM,OR,97317-,,,
SLF940,VAND,177244,AMAZON11.2,AMAZON,4RNL8KCW,1,ME9290,,,,12,2,6,,,,,,,11/12/2019,10/28/2019,10/29/2019,,,LGB4,27517 Pioneer Avenue,,Redlands,CA,92374-,,,
SLF940,VAND,177250,AMAZON11.2,AMAZON,6JMJ3ZYA,1,ME9414,,,,12,2,6,,,,,,,11/12/2019,10/25/2019,10/29/2019,,,AMAZON DET 2,50500 MOUND ROAD,,SHELBY TOWNSHIP,MI,48317-,,,
SLF940,VAND,179104,AMAZON11.2,AMAZON,8UOD9A8R,1,ME9290,,,,12,2,6,,,,,,,11/12/2019,10/25/2019,10/28/2019,,,"AMAZON, TEB3",2651 Oldmans Creek Road,,SWEDESBORO,NJ,08085-,,,
SLF940,VAND,179181,AMAZON11.2,AMAZON,59X3RL1O,1,ME9290,,,,12,2,6,,,,,,,11/12/2019,10/25/2019,10/28/2019,,,"AMAZON, TEB3",2651 Oldmans Creek Road,,SWEDESBORO,NJ,08085-,,,
SLF940,VAND,179380,AMAZON11.2,AMAZON,64VO89KK,1,ME9318,,,,18,3,6,,,,,,,11/12/2019,12/18/2019,12/20/2019,,,Amazon.com dedc LLC,500 Duke Dr,,Lebanon,TN,37090-,,,
SLF940,VAND,179170,AMAZON11.2,AMAZON,7M1R5X5L,1,ME9290,,,,18,3,6,,,,,,,11/12/2019,10/25/2019,10/28/2019,,,Amazon BOS7,1180 Innovation Way,,Fall River,MA,02722-,,,
SLF940,VAND,179184,AMAZON11.2,AMAZON,4Z1NY7VK,1,ME9290,,,,18,3,6,,,,,,,11/12/2019,10/25/2019,10/28/2019,,,Amazon BOS7,1180 Innovation Way,,Fall River,MA,02722-,,,
SLF940,VAND,179377,AMAZON11.2,AMAZON,2T3KJK5U,1,ME9290,,,,36,6,6,,,,,,,11/12/2019,12/18/2019,12/20/2019,,,Amazon BOS7,1180 Innovation Way,,Fall River,MA,02722-,,,
SLF940,VAND,179378,AMAZON11.2,AMAZON,2UXC5NZJ,1,V05682,,,,42,7,6,,,,,,,11/12/2019,12/18/2019,12/20/2019,,,"AMAZON, TEB3",2651 Oldmans Creek Road,,SWEDESBORO,NJ,08085-,,,
SLF940,VAND,179377,AMAZON11.2,AMAZON,2T3KJK5U,1,V01481,,,,66,11,6,,,,,,,11/12/2019,12/18/2019,12/20/2019,,,Amazon BOS7,1180 Innovation Way,,Fall River,MA,02722-,,,
SLF940,VAND,177270,AMAZON11.2,AMAZON,41G6N8VR,1,V09492-PCBLK,,,,8,1,8,,,,,,,11/12/2019,11/25/2019,11/27/2019,,,LGB8,1568 N Linden Avenue,,Rialto,CA,92376-,,,
SLF940,VAND,177277,AMAZON11.2,AMAZON,69AY811U,1,V09492-PCBLK,,,,8,1,8,,,,,,,11/12/2019,11/25/2019,11/27/2019,,,SMF3,3923 S B ST,,STOCKTON,CA,95206-,,,
SLF940,VAND,177278,AMAZON11.2,AMAZON,6FWZVS9W,1,V09499-PCWHT,,,,8,1,8,,,,,,,11/12/2019,11/25/2019,11/27/2019,,,AMAZON DET 2,50500 MOUND ROAD,,SHELBY TOWNSHIP,MI,48317-,,,
SLF940,VAND,177608,AMAZON11.2,AMAZON,6V1UUGKP,1,V09492-PCBLK,,,,8,1,8,,,,,,,11/12/2019,11/25/2019,11/27/2019,,,GOLDEN STATE FC LLC,24300 Nandina Ave,,Moreno Valley,CA,92551-,,,
SLF940,VAND,177611,AMAZON11.2,AMAZON,8BUUX5XS,1,V09499-PCWHT,,,,8,1,8,,,,,,,11/12/2019,11/25/2019,11/27/2019,,,"Amazon.com.DEDC, LLC",2 Ames Drive,,Carlisle,pa,17015-,,,
SLF940,VAND,177614,AMAZON11.2,AMAZON,8GN5ZTBF,1,V09499-PCWHT,,,,8,1,8,,,,,,,11/12/2019,11/25/2019,11/27/2019,,,Amazon BOS7,1180 Innovation Way,,Fall River,MA,02722-,,,
SLF940,VAND,177616,AMAZON11.2,AMAZON,8RFXHOZO,1,V09492-PCBLK,,,,8,1,8,,,,,,,11/12/2019,11/25/2019,11/27/2019,,,LAX9 FONTANA,11263 OLEANDER AVE,,FONTANA,CA,92337-7441,,,
SLF940,VAND,177617,AMAZON11.2,AMAZON,8UO941YP,1,V09499-PCWHT,,,,8,1,8,,,,,,,11/12/2019,11/25/2019,11/27/2019,,,AMAZON.COMDEDC LLC,39000 AMRHEIN ROAD,,LIVONIA,MI,48150-,,,
SLF940,VAND,177618,AMAZON11.2,AMAZON,8ZWQRL3F,1,V09499-PCWHT,,,,8,1,8,,,,,,,11/12/2019,11/25/2019,11/27/2019,,,Amazon.com.indc LLC,715 Airtech Pkwy,,PLAINFIELD,IN,46168-,,,
SLF940,VAND,179386,AMAZON11.2,AMAZON,6X9MJHCH,1,ME9565,,,,8,1,8,,,,,,,11/12/2019,12/18/2019,12/20/2019,,,SMF3,3923 S B ST,,STOCKTON,CA,95206-,,,
SLF940,VAND,177240,AMAZON11.2,AMAZON,43LPE57J,1,V09492-PCBLK,,,,8,1,8,,,,,,,11/12/2019,10/25/2019,10/29/2019,,,LAX9 FONTANA,11263 OLEANDER AVE,,FONTANA,CA,92337-7441,,,
SLF940,VAND,177259,AMAZON11.2,AMAZON,8J9WCLDA,1,V09492-PCBLK,,,,8,1,8,,,,,,,11/12/2019,10/25/2019,10/29/2019,,,LGB8,1568 N Linden Avenue,,Rialto,CA,92376-,,,
SLF940,VAND,177271,AMAZON11.2,AMAZON,455OUGLV,1,PL5202,,,,16,2,8,,,,,,,11/12/2019,11/25/2019,11/27/2019,,,AMAZON.COM SAV3,7001 SKIPPER ROD,,MACON,GA,31216-,,,
SLF940,VAND,177273,AMAZON11.2,AMAZON,4IES812Z,1,PL5202,,,,16,2,8,,,,,,,11/12/2019,11/25/2019,11/27/2019,,,AMAZON.COM KYDC LLC,6000 Enterprise Ave,,Schertz,TX,78154-,,,
SLF940,VAND,177278,AMAZON11.2,AMAZON,6FWZVS9W,1,PL5202,,,,16,2,8,,,,,,,11/12/2019,11/25/2019,11/27/2019,,,AMAZON DET 2,50500 MOUND ROAD,,SHELBY TOWNSHIP,MI,48317-,,,
SLF940,VAND,177615,AMAZON11.2,AMAZON,8CXMSLLB,1,PL5202,,,,16,2,8,,,,,,,11/12/2019,11/25/2019,11/27/2019,,,Amazon.com dedc. LLC,225 Infinity Dr. NW,,CHARLESTON,TN,37310-,,,
SLF940,VAND,179386,AMAZON11.2,AMAZON,6X9MJHCH,1,ME9563,,,,8,1,8,,,,,,,11/12/2019,12/18/2019,12/20/2019,,,SMF3,3923 S B ST,,STOCKTON,CA,95206-,,,
SLF940,VAND,177240,AMAZON11.2,AMAZON,43LPE57J,1,ME9564,,,,8,1,8,,,,,,,11/12/2019,10/25/2019,10/29/2019,,,LAX9 FONTANA,11263 OLEANDER AVE,,FONTANA,CA,92337-7441,,,
SLF940,VAND,179188,AMAZON11.2,AMAZON,4HLTSJYZ,1,ME9564,,,,8,1,8,,,,,,,11/12/2019,10/25/2019,10/28/2019,,,SMF3,3923 S B ST,,STOCKTON,CA,95206-,,,
SLF940,VAND,179580,AMAZON11.2,AMAZON,8ZJ6XF4L,1,ME9564,,,,8,1,8,,,,,,,11/12/2019,10/29/2019,10/30/2019,,,SMF3,3923 S B ST,,STOCKTON,CA,95206-,,,
SLF940,VAND,177250,AMAZON11.2,AMAZON,6JMJ3ZYA,1,PL5202,,,,24,3,8,,,,,,,11/12/2019,10/25/2019,10/29/2019,,,AMAZON DET 2,50500 MOUND ROAD,,SHELBY TOWNSHIP,MI,48317-,,,
SLF940,VAND,179562,AMAZON11.2,AMAZON,5U9QJ6JQ,1,ME9564,,,,16,2,8,,,,,,,11/12/2019,10/29/2019,10/30/2019,,,LAX9 FONTANA,11263 OLEANDER AVE,,FONTANA,CA,92337-7441,,,
SLF940,VAND,179577,AMAZON11.2,AMAZON,6WEUG8LQ,1,ME9564,,,,16,2,8,,,,,,,11/12/2019,10/29/2019,10/30/2019,,,LGB8,1568 N Linden Avenue,,Rialto,CA,92376-,,,
SLF940,VAND,177616,AMAZON11.2,AMAZON,8RFXHOZO,1,ME9564,,,,24,3,8,,,,,,,11/12/2019,11/25/2019,11/27/2019,,,LAX9 FONTANA,11263 OLEANDER AVE,,FONTANA,CA,92337-7441,,,
SLF940,VAND,179386,AMAZON11.2,AMAZON,6X9MJHCH,1,ME9564,,,,40,5,8,,,,,,,11/12/2019,12/18/2019,12/20/2019,,,SMF3,3923 S B ST,,STOCKTON,CA,95206-,,,
SLF940,VAND,177273,AMAZON11.2,AMAZON,4IES812Z,1,ME9582,,,,9,1,9,,,,,,,11/12/2019,11/25/2019,11/27/2019,,,AMAZON.COM KYDC LLC,6000 Enterprise Ave,,Schertz,TX,78154-,,,
SLF940,VAND,177278,AMAZON11.2,AMAZON,6FWZVS9W,1,ME9582,,,,9,1,9,,,,,,,11/12/2019,11/25/2019,11/27/2019,,,AMAZON DET 2,50500 MOUND ROAD,,SHELBY TOWNSHIP,MI,48317-,,,
SLF940,VAND,177279,AMAZON11.2,AMAZON,6KPATGMJ,1,ME9582,,,,9,1,9,,,,,,,11/12/2019,11/25/2019,11/27/2019,,,CLT 3,6500 Davidson Hway,,Concord,NC,28027-,,,
SLF940,VAND,177608,AMAZON11.2,AMAZON,6V1UUGKP,1,ME9573,,,,9,1,9,,,,,,,11/12/2019,11/25/2019,11/27/2019,,,GOLDEN STATE FC LLC,24300 Nandina Ave,,Moreno Valley,CA,92551-,,,
SLF940,VAND,177612,AMAZON11.2,AMAZON,8CC3J1OV,1,ME9582,,,,9,1,9,,,,,,,11/12/2019,11/25/2019,11/27/2019,,,Amazon.com dedc LLC,500 Duke Dr,,Lebanon,TN,37090-,,,
SLF940,VAND,177616,AMAZON11.2,AMAZON,8RFXHOZO,1,ME9578,,,,9,1,9,,,,,,,11/12/2019,11/25/2019,11/27/2019,,,LAX9 FONTANA,11263 OLEANDER AVE,,FONTANA,CA,92337-7441,,,
SLF940,VAND,179378,AMAZON11.2,AMAZON,2UXC5NZJ,1,ME9604-CGRYDRKGRY,,,,9,1,9,,,,,,,11/12/2019,12/18/2019,12/20/2019,,,"AMAZON, TEB3",2651 Oldmans Creek Road,,SWEDESBORO,NJ,08085-,,,
SLF940,VAND,179379,AMAZON11.2,AMAZON,61SPALRM,1,S2311,,,,9,1,9,,,,,,,11/12/2019,12/18/2019,12/20/2019,,,AMAZON.COM KYDC LLC,6000 Enterprise Ave,,Schertz,TX,78154-,,,
SLF940,VAND,179379,AMAZON11.2,AMAZON,61SPALRM,1,ME9604-CGRYDRKGRY,,,,9,1,9,,,,,,,11/12/2019,12/18/2019,12/20/2019,,,AMAZON.COM KYDC LLC,6000 Enterprise Ave,,Schertz,TX,78154-,,,
SLF940,VAND,179381,AMAZON11.2,AMAZON,6HTZG1KL,1,ME9605-GRYBLK,,,,9,1,9,,,,,,,11/12/2019,12/18/2019,12/20/2019,,,AMAZON DET 2,50500 MOUND ROAD,,SHELBY TOWNSHIP,MI,48317-,,,
SLF940,VAND,179386,AMAZON11.2,AMAZON,6X9MJHCH,1,S8250-AMZN,,,,9,1,9,,,,,,,11/12/2019,12/18/2019,12/20/2019,,,SMF3,3923 S B ST,,STOCKTON,CA,95206-,,,
SLF940,VAND,179870,AMAZON11.2,AMAZON,7YHZQ21B,1,ME9603-NVYLTBLU,,,,9,1,9,,,,,,,11/12/2019,11/4/2019,11/6/2019,,,GOLDEN STATE FC LLC,24300 Nandina Ave,,Moreno Valley,CA,92551-,,,
SLF940,VAND,179874,AMAZON11.2,AMAZON,6FZOVLTP,1,ME9580,,,,9,1,9,,,,,,,11/12/2019,11/4/2019,11/6/2019,,,LGB8,1568 N Linden Avenue,,Rialto,CA,92376-,,,
SLF940,VAND,179963,AMAZON11.2,AMAZON,7IM61PIC,1,ME9574,,,,9,1,9,,,,,,,11/12/2019,11/7/2019,11/9/2019,,,AMAZON.COM PDX7,4775 DEPOT CT SE,,SALEM,OR,97317-,,,
SLF940,VAND,179976,AMAZON11.2,AMAZON,2WXROR1X,1,ME9574,,,,9,1,9,,,,,,,11/12/2019,11/7/2019,11/9/2019,,,Amazon - XIX5,11211 Burlington Road,,Kenosha,WI,53144-7449,,,
SLF940,VAND,180008,AMAZON11.2,AMAZON,37ISW1TA,1,ME9575,,,,9,1,9,,,,,,,11/12/2019,11/11/2019,11/15/2019,,,CLT 3,6500 Davidson Hway,,Concord,NC,28027-,,,
SLF940,VAND,180011,AMAZON11.2,AMAZON,3NENLDCZ,1,ME9603-WHTBLK,,,,9,1,9,,,,,,,11/12/2019,11/11/2019,11/15/2019,,,GOLDEN STATE FC LLC,24300 Nandina Ave,,Moreno Valley,CA,92551-,,,
SLF940,VAND,180016,AMAZON11.2,AMAZON,3YSZCSXO,1,ME9574,,,,9,1,9,,,,,,,11/12/2019,11/11/2019,11/15/2019,,,AMAZOM.COM,700 GATEWAY BLVD,,MONROE,OH,45050-1848,,,
SLF940,VAND,180018,AMAZON11.2,AMAZON,6JRZ7XRA,1,ME9603-WHTBLK,,,,9,1,9,,,,,,,11/12/2019,11/11/2019,11/15/2019,,,Amazon.com.dedc LLC,560 Merrimac ave,,middletown,DE,19709-,,,
SLF940,VAND,180020,AMAZON11.2,AMAZON,6T1S8I2X,1,ME9605-GRYBLK,,,,9,1,9,,,,,,,11/12/2019,11/11/2019,11/15/2019,,,Amazon .com DEDC LLC,2700 Center Drive,,DUPONT,WA,98327-,,,
SLF940,VAND,180020,AMAZON11.2,AMAZON,6T1S8I2X,1,ME9574,,,,9,1,9,,,,,,,11/12/2019,11/11/2019,11/15/2019,,,Amazon .com DEDC LLC,2700 Center Drive,,DUPONT,WA,98327-,,,
SLF940,VAND,180024,AMAZON11.2,AMAZON,6AJ77EHD,1,ME9603-WHTBLK,,,,9,1,9,,,,,,,11/12/2019,11/11/2019,11/15/2019,,,Amazon.com - CMHI,11999 National Road SW,,Etna,OH,43062-7793,,,
SLF940,VAND,180026,AMAZON11.2,AMAZON,6YVU6M3T,1,ME9603-WHTBLK,,,,9,1,9,,,,,,,11/12/2019,11/11/2019,11/15/2019,,,Amazon.com - BLD2,200 Old Iron Ore Road,,Windsor,CT,06095-2144,,,
SLF940,VAND,177250,AMAZON11.2,AMAZON,6JMJ3ZYA,1,ME9582,,,,9,1,9,,,,,,,11/12/2019,10/25/2019,10/29/2019,,,AMAZON DET 2,50500 MOUND ROAD,,SHELBY TOWNSHIP,MI,48317-,,,
SLF940,VAND,177251,AMAZON11.2,AMAZON,6Q9KRS7C,1,ME9582,,,,9,1,9,,,,,,,11/12/2019,10/25/2019,10/29/2019,,,"AMAZON, TEB3",2651 Oldmans Creek Road,,SWEDESBORO,NJ,08085-,,,
SLF940,VAND,177259,AMAZON11.2,AMAZON,8J9WCLDA,1,ME9573,,,,9,1,9,,,,,,,11/12/2019,10/25/2019,10/29/2019,,,LGB8,1568 N Linden Avenue,,Rialto,CA,92376-,,,
SLF940,VAND,179187,AMAZON11.2,AMAZON,4LJE9JPJ,1,S8251-AMZN,,,,9,1,9,,,,,,,11/12/2019,10/25/2019,10/28/2019,,,"AMAZON, TEB3",2651 Oldmans Creek Road,,SWEDESBORO,NJ,08085-,,,
SLF940,VAND,179550,AMAZON11.2,AMAZON,3GRZVWJL,1,ME9605-GRYBLK,,,,9,1,9,,,,,,,11/12/2019,10/29/2019,10/30/2019,,,"Amazon.com.DEDC, LLC",2 Ames Drive,,Carlisle,pa,17015-,,,
SLF940,VAND,179552,AMAZON11.2,AMAZON,3HURRD7U,1,ME9605-BLKGRY,,,,9,1,9,,,,,,,11/12/2019,10/29/2019,10/30/2019,,,Amazon .com DEDC LLC,2700 Center Drive,,DUPONT,WA,98327-,,,
SLF940,VAND,179552,AMAZON11.2,AMAZON,3HURRD7U,1,S2130,,,,9,1,9,,,,,,,11/12/2019,10/29/2019,10/30/2019,,,Amazon .com DEDC LLC,2700 Center Drive,,DUPONT,WA,98327-,,,
SLF940,VAND,179553,AMAZON11.2,AMAZON,447A4MKQ,1,ME9605-BLKGRY,,,,9,1,9,,,,,,,11/12/2019,10/29/2019,10/30/2019,,,Amazon.com azdc LLC,800 n 75th ave,,Phoenix,AZ,85043-,,,
SLF940,VAND,179553,AMAZON11.2,AMAZON,447A4MKQ,1,ME9605-GRYBLK,,,,9,1,9,,,,,,,11/12/2019,10/29/2019,10/30/2019,,,Amazon.com azdc LLC,800 n 75th ave,,Phoenix,AZ,85043-,,,
SLF940,VAND,179553,AMAZON11.2,AMAZON,447A4MKQ,1,S8248,,,,9,1,9,,,,,,,11/12/2019,10/29/2019,10/30/2019,,,Amazon.com azdc LLC,800 n 75th ave,,Phoenix,AZ,85043-,,,
SLF940,VAND,179553,AMAZON11.2,AMAZON,447A4MKQ,1,ME9604-CGRYDRKGRY,,,,9,1,9,,,,,,,11/12/2019,10/29/2019,10/30/2019,,,Amazon.com azdc LLC,800 n 75th ave,,Phoenix,AZ,85043-,,,
SLF940,VAND,179554,AMAZON11.2,AMAZON,4BAJEAJV,1,ME9605-RDBLK,,,,9,1,9,,,,,,,11/12/2019,10/29/2019,10/30/2019,,,Amazon.com.indc LLC,715 Airtech Pkwy,,PLAINFIELD,IN,46168-,,,
SLF940,VAND,179554,AMAZON11.2,AMAZON,4BAJEAJV,1,S8248,,,,9,1,9,,,,,,,11/12/2019,10/29/2019,10/30/2019,,,Amazon.com.indc LLC,715 Airtech Pkwy,,PLAINFIELD,IN,46168-,,,
SLF940,VAND,179554,AMAZON11.2,AMAZON,4BAJEAJV,1,ME9604-CGRYDRKGRY,,,,9,1,9,,,,,,,11/12/2019,10/29/2019,10/30/2019,,,Amazon.com.indc LLC,715 Airtech Pkwy,,PLAINFIELD,IN,46168-,,,
SLF940,VAND,179554,AMAZON11.2,AMAZON,4BAJEAJV,1,ME9574,,,,9,1,9,,,,,,,11/12/2019,10/29/2019,10/30/2019,,,Amazon.com.indc LLC,715 Airtech Pkwy,,PLAINFIELD,IN,46168-,,,
SLF940,VAND,179555,AMAZON11.2,AMAZON,4EZ2LI9Z,1,ME9605-GRYBLK,,,,9,1,9,,,,,,,11/12/2019,10/29/2019,10/30/2019,,,AMAZON.COMDEDC LLC,39000 AMRHEIN ROAD,,LIVONIA,MI,48150-,,,
SLF940,VAND,179555,AMAZON11.2,AMAZON,4EZ2LI9Z,1,ME9605-RDBLK,,,,9,1,9,,,,,,,11/12/2019,10/29/2019,10/30/2019,,,AMAZON.COMDEDC LLC,39000 AMRHEIN ROAD,,LIVONIA,MI,48150-,,,
SLF940,VAND,179555,AMAZON11.2,AMAZON,4EZ2LI9Z,1,S8248,,,,9,1,9,,,,,,,11/12/2019,10/29/2019,10/30/2019,,,AMAZON.COMDEDC LLC,39000 AMRHEIN ROAD,,LIVONIA,MI,48150-,,,
SLF940,VAND,179556,AMAZON11.2,AMAZON,4J5SELPG,1,ME9605-RDBLK,,,,9,1,9,,,,,,,11/12/2019,10/29/2019,10/30/2019,,,Amazon.com dedc. LLC,225 Infinity Dr. NW,,CHARLESTON,TN,37310-,,,
SLF940,VAND,179556,AMAZON11.2,AMAZON,4J5SELPG,1,ME9604-CGRYDRKGRY,,,,9,1,9,,,,,,,11/12/2019,10/29/2019,10/30/2019,,,Amazon.com dedc. LLC,225 Infinity Dr. NW,,CHARLESTON,TN,37310-,,,
SLF940,VAND,179556,AMAZON11.2,AMAZON,4J5SELPG,1,S2311,,,,9,1,9,,,,,,,11/12/2019,10/29/2019,10/30/2019,,,Amazon.com dedc. LLC,225 Infinity Dr. NW,,CHARLESTON,TN,37310-,,,
SLF940,VAND,179557,AMAZON11.2,AMAZON,4KJCETTS,1,ME9605-RDBLK,,,,9,1,9,,,,,,,11/12/2019,10/29/2019,10/30/2019,,,AMAZOM.COM,700 GATEWAY BLVD,,MONROE,OH,45050-1848,,,
SLF940,VAND,179558,AMAZON11.2,AMAZON,4LM4AAHB,1,ME9605-BLKGRY,,,,9,1,9,,,,,,,11/12/2019,10/29/2019,10/30/2019,,,Amazon BOS7,1180 Innovation Way,,Fall River,MA,02722-,,,
SLF940,VAND,179558,AMAZON11.2,AMAZON,4LM4AAHB,1,ME9605-GRYBLK,,,,9,1,9,,,,,,,11/12/2019,10/29/2019,10/30/2019,,,Amazon BOS7,1180 Innovation Way,,Fall River,MA,02722-,,,
SLF940,VAND,179559,AMAZON11.2,AMAZON,4SUP8MMJ,1,ME9605-GRYBLK,,,,9,1,9,,,,,,,11/12/2019,10/29/2019,10/30/2019,,,BW14,165 Business Blvd,,CLEAR BROOK,VA,22624-,,,
SLF940,VAND,179559,AMAZON11.2,AMAZON,4SUP8MMJ,1,ME9605-RDBLK,,,,9,1,9,,,,,,,11/12/2019,10/29/2019,10/30/2019,,,BW14,165 Business Blvd,,CLEAR BROOK,VA,22624-,,,
SLF940,VAND,179559,AMAZON11.2,AMAZON,4SUP8MMJ,1,S2130,,,,9,1,9,,,,,,,11/12/2019,10/29/2019,10/30/2019,,,BW14,165 Business Blvd,,CLEAR BROOK,VA,22624-,,,
SLF940,VAND,179559,AMAZON11.2,AMAZON,4SUP8MMJ,1,S8248,,,,9,1,9,,,,,,,11/12/2019,10/29/2019,10/30/2019,,,BW14,165 Business Blvd,,CLEAR BROOK,VA,22624-,,,
SLF940,VAND,179560,AMAZON11.2,AMAZON,4U3WK6KS,1,ME9605-GRYBLK,,,,9,1,9,,,,,,,11/12/2019,10/29/2019,10/30/2019,,,AMAZON.COM KYDC LLC,6000 Enterprise Ave,,Schertz,TX,78154-,,,
SLF940,VAND,179561,AMAZON11.2,AMAZON,4WPNVXMN,1,S2130,,,,9,1,9,,,,,,,11/12/2019,10/29/2019,10/30/2019,,,Amazon,PO BOX 80387,,Seattle,WA,98108-,,,
SLF940,VAND,179563,AMAZON11.2,AMAZON,67QFC8JX,1,ME9605-GRYBLK,,,,9,1,9,,,,,,,11/12/2019,10/29/2019,10/30/2019,,,AMAZON.COM PDX7,4775 DEPOT CT SE,,SALEM,OR,97317-,,,
SLF940,VAND,179563,AMAZON11.2,AMAZON,67QFC8JX,1,ME9605-RDBLK,,,,9,1,9,,,,,,,11/12/2019,10/29/2019,10/30/2019,,,AMAZON.COM PDX7,4775 DEPOT CT SE,,SALEM,OR,97317-,,,
SLF940,VAND,179565,AMAZON11.2,AMAZON,6F5GQNYF,1,S2130,,,,9,1,9,,,,,,,11/12/2019,10/29/2019,10/30/2019,,,AMAZON.COM SAV3,7001 SKIPPER ROD,,MACON,GA,31216-,,,
SLF940,VAND,179569,AMAZON11.2,AMAZON, 6KZIORZB ,1,ME9605-BLKGRY,,,,9,1,9,,,,,,,11/12/2019,10/29/2019,10/30/2019,,,Amazon.com indc LLC,800 Perry Road,,PLAINFIELD,IN,46168-,,,
SLF940,VAND,179569,AMAZON11.2,AMAZON, 6KZIORZB ,1,S8248,,,,9,1,9,,,,,,,11/12/2019,10/29/2019,10/30/2019,,,Amazon.com indc LLC,800 Perry Road,,PLAINFIELD,IN,46168-,,,
SLF940,VAND,179571,AMAZON11.2,AMAZON,6OP1VZPF,1,S2130,,,,9,1,9,,,,,,,11/12/2019,10/29/2019,10/30/2019,,,"amazon .com DEDC, LLC",1760 County Line Rd,,Lakeland,FL,33811-,,,
SLF940,VAND,179577,AMAZON11.2,AMAZON,6WEUG8LQ,1,ME9575,,,,9,1,9,,,,,,,11/12/2019,10/29/2019,10/30/2019,,,LGB8,1568 N Linden Avenue,,Rialto,CA,92376-,,,
SLF940,VAND,179578,AMAZON11.2,AMAZON,6WV324CT,1,ME9605-GRYBLK,,,,9,1,9,,,,,,,11/12/2019,10/29/2019,10/30/2019,,,XUSN,4200 Ferry Road,,Aurora,IL,60502-,,,
SLF940,VAND,179579,AMAZON11.2,AMAZON,7IVKDZTW,1,ME9605-RDBLK,,,,9,1,9,,,,,,,11/12/2019,10/29/2019,10/30/2019,,,CLT 3,6500 Davidson Hway,,Concord,NC,28027-,,,
SLF940,VAND,179579,AMAZON11.2,AMAZON,7IVKDZTW,1,S8248,,,,9,1,9,,,,,,,11/12/2019,10/29/2019,10/30/2019,,,CLT 3,6500 Davidson Hway,,Concord,NC,28027-,,,
SLF940,VAND,179579,AMAZON11.2,AMAZON,7IVKDZTW,1,ME9574,,,,9,1,9,,,,,,,11/12/2019,10/29/2019,10/30/2019,,,CLT 3,6500 Davidson Hway,,Concord,NC,28027-,,,
SLF940,VAND,179579,AMAZON11.2,AMAZON,7IVKDZTW,1,ME9581,,,,9,1,9,,,,,,,11/12/2019,10/29/2019,10/30/2019,,,CLT 3,6500 Davidson Hway,,Concord,NC,28027-,,,
SLF940,VAND,179580,AMAZON11.2,AMAZON,8ZJ6XF4L,1,ME9575,,,,9,1,9,,,,,,,11/12/2019,10/29/2019,10/30/2019,,,SMF3,3923 S B ST,,STOCKTON,CA,95206-,,,
SLF940,VAND,179580,AMAZON11.2,AMAZON,8ZJ6XF4L,1,ME9580,,,,9,1,9,,,,,,,11/12/2019,10/29/2019,10/30/2019,,,SMF3,3923 S B ST,,STOCKTON,CA,95206-,,,
SLF940,VAND,179580,AMAZON11.2,AMAZON,8ZJ6XF4L,1,ME9603-WHTBLK,,,,9,1,9,,,,,,,11/12/2019,10/29/2019,10/30/2019,,,SMF3,3923 S B ST,,STOCKTON,CA,95206-,,,
SLF940,VAND,179223,AMAZON11.2,AMAZON,269QC1SQ,1,S8251-AMZN,,,,18,2,9,,,,,,,11/12/2019,10/25/2019,10/28/2019,,,AMAZON DET 2,50500 MOUND ROAD,,SHELBY TOWNSHIP,MI,48317-,,,
SLF940,VAND,179555,AMAZON11.2,AMAZON,4EZ2LI9Z,1,S2130,,,,18,2,9,,,,,,,11/12/2019,10/29/2019,10/30/2019,,,AMAZON.COMDEDC LLC,39000 AMRHEIN ROAD,,LIVONIA,MI,48150-,,,
SLF940,VAND,179556,AMAZON11.2,AMAZON,4J5SELPG,1,ME9605-GRYBLK,,,,18,2,9,,,,,,,11/12/2019,10/29/2019,10/30/2019,,,Amazon.com dedc. LLC,225 Infinity Dr. NW,,CHARLESTON,TN,37310-,,,
SLF940,VAND,179563,AMAZON11.2,AMAZON,67QFC8JX,1,S2130,,,,18,2,9,,,,,,,11/12/2019,10/29/2019,10/30/2019,,,AMAZON.COM PDX7,PDX7,4775 DEPOT CT SE,SALEM,OR,97317-,,,
SLF940,VAND,179563,AMAZON11.2,AMAZON,67QFC8JX,1,S8251-AMZN,,,,18,2,9,,,,,,,11/12/2019,10/29/2019,10/30/2019,,,AMAZON.COM PDX7,PDX7,4775 DEPOT CT SE,SALEM,OR,97317-,,,
SLF940,VAND,179569,AMAZON11.2,AMAZON, 6KZIORZB ,1,ME9605-GRYBLK,,,,18,2,9,,,,,,,11/12/2019,10/29/2019,10/30/2019,,,Amazon.com indc LLC,800 Perry Road,,PLAINFIELD,IN,46168-,,,
SLF940,VAND,179570,AMAZON11.2,AMAZON,6MUAAVUQ,1,S2130,,,,18,2,9,,,,,,,11/12/2019,10/29/2019,10/30/2019,,,AMAZON.COM DEDC,1101 E PEARL STREET,,BURLINGTON,NJ,08016-1934,,,
SLF940,VAND,177270,AMAZON11.2,AMAZON,41G6N8VR,1,ME9573,,,,27,3,9,,,,,,,11/12/2019,11/25/2019,11/27/2019,,,LGB8,1568 N Linden Avenue,,Rialto,CA,92376-,,,
SLF940,VAND,179377,AMAZON11.2,AMAZON,2T3KJK5U,1,ME9605-GRYBLK,,,,27,3,9,,,,,,,11/12/2019,12/18/2019,12/20/2019,,,Amazon BOS7,1180 Innovation Way,,Fall River,MA,02722-,,,
SLF940,VAND,179380,AMAZON11.2,AMAZON,64VO89KK,1,ME9605-GRYBLK,,,,27,3,9,,,,,,,11/12/2019,12/18/2019,12/20/2019,,,Amazon.com dedc LLC,500 Duke Dr,,Lebanon,TN,37090-,,,
SLF940,VAND,179558,AMAZON11.2,AMAZON,4LM4AAHB,1,S2130,,,,27,3,9,,,,,,,11/12/2019,10/29/2019,10/30/2019,,,Amazon BOS7,1180 Innovation Way,,Fall River,MA,02722-,,,
SLF940,VAND,179569,AMAZON11.2,AMAZON, 6KZIORZB ,1,S2130,,,,27,3,9,,,,,,,11/12/2019,10/29/2019,10/30/2019,,,Amazon.com indc LLC,800 Perry Road,,PLAINFIELD,IN,46168-,,,
SLF940,VAND,179577,AMAZON11.2,AMAZON,6WEUG8LQ,1,ME9603-NVYLTBLU,,,,27,3,9,,,,,,,11/12/2019,10/29/2019,10/30/2019,,,LGB8,1568 N Linden Avenue,,Rialto,CA,92376-,,,
SLF940,VAND,179579,AMAZON11.2,AMAZON,7IVKDZTW,1,ME9605-GRYBLK,,,,27,3,9,,,,,,,11/12/2019,10/29/2019,10/30/2019,,,CLT 3,6500 Davidson Hway,,Concord,NC,28027-,,,
SLF940,VAND,179580,AMAZON11.2,AMAZON,8ZJ6XF4L,1,ME9603-NVYLTBLU,,,,27,3,9,,,,,,,11/12/2019,10/29/2019,10/30/2019,,,SMF3,3923 S B ST,,STOCKTON,CA,95206-,,,
SLF940,VAND,177277,AMAZON11.2,AMAZON,69AY811U,1,ME9573,,,,36,4,9,,,,,,,11/12/2019,11/25/2019,11/27/2019,,,SMF3,3923 S B ST,,STOCKTON,CA,95206-,,,
SLF940,VAND,177240,AMAZON11.2,AMAZON,43LPE57J,1,ME9578,,,,36,4,9,,,,,,,11/12/2019,10/25/2019,10/29/2019,,,LAX9 FONTANA,11263 OLEANDER AVE,,FONTANA,CA,92337-7441,,,
SLF940,VAND,179553,AMAZON11.2,AMAZON,447A4MKQ,1,S2130,,,,36,4,9,,,,,,,11/12/2019,10/29/2019,10/30/2019,,,Amazon.com azdc LLC,800 n 75th ave,,Phoenix,AZ,85043-,,,
SLF940,VAND,179554,AMAZON11.2,AMAZON,4BAJEAJV,1,S2130,,,,36,4,9,,,,,,,11/12/2019,10/29/2019,10/30/2019,,,Amazon.com.indc LLC,715 Airtech Pkwy,,PLAINFIELD,IN,46168-,,,
SLF940,VAND,179560,AMAZON11.2,AMAZON,4U3WK6KS,1,S2130,,,,36,4,9,,,,,,,11/12/2019,10/29/2019,10/30/2019,,,AMAZON.COM KYDC LLC,6000 Enterprise Ave,,Schertz,TX,78154-,,,
SLF940,VAND,179577,AMAZON11.2,AMAZON,6WEUG8LQ,1,ME9578,,,,36,4,9,,,,,,,11/12/2019,10/29/2019,10/30/2019,,,LGB8,1568 N Linden Avenue,,Rialto,CA,92376-,,,
SLF940,VAND,177616,AMAZON11.2,AMAZON,8RFXHOZO,1,ME9573,,,,45,5,9,,,,,,,11/12/2019,11/25/2019,11/27/2019,,,LAX9 FONTANA,11263 OLEANDER AVE,,FONTANA,CA,92337-7441,,,
SLF940,VAND,177240,AMAZON11.2,AMAZON,43LPE57J,1,ME9573,,,,45,5,9,,,,,,,11/12/2019,10/25/2019,10/29/2019,,,LAX9 FONTANA,11263 OLEANDER AVE,,FONTANA,CA,92337-7441,,,
SLF940,VAND,179377,AMAZON11.2,AMAZON,2T3KJK5U,1,ME9605-BLKGRY,,,,54,6,9,,,,,,,11/12/2019,12/18/2019,12/20/2019,,,Amazon BOS7,1180 Innovation Way,,Fall River,MA,02722-,,,
SLF940,VAND,179378,AMAZON11.2,AMAZON,2UXC5NZJ,1,ME9605-GRYBLK,,,,54,6,9,,,,,,,11/12/2019,12/18/2019,12/20/2019,,,"AMAZON, TEB3",2651 Oldmans Creek Road,,SWEDESBORO,NJ,08085-,,,
SLF940,VAND,179579,AMAZON11.2,AMAZON,7IVKDZTW,1,S2130,,,,63,7,9,,,,,,,11/12/2019,10/29/2019,10/30/2019,,,CLT 3,6500 Davidson Hway,,Concord,NC,28027-,,,
SLF940,VAND,179379,AMAZON11.2,AMAZON,61SPALRM,1,ME9605-BLKGRY,,,,72,8,9,,,,,,,11/12/2019,12/18/2019,12/20/2019,,,AMAZON.COM KYDC LLC,6000 Enterprise Ave,,Schertz,TX,78154-,,,
SLF940,VAND,179580,AMAZON11.2,AMAZON,8ZJ6XF4L,1,ME9578,,,,72,8,9,,,,,,,11/12/2019,10/29/2019,10/30/2019,,,SMF3,3923 S B ST,,STOCKTON,CA,95206-,,,
SLF940,VAND,179378,AMAZON11.2,AMAZON,2UXC5NZJ,1,ME9605-BLKGRY,,,,99,11,9,,,,,,,11/12/2019,12/18/2019,12/20/2019,,,"AMAZON, TEB3",2651 Oldmans Creek Road,,SWEDESBORO,NJ,08085-,,,
SLF940,VAND,179377,AMAZON11.2,AMAZON,2T3KJK5U,1,ME9544,,,,12,1,12,,,,,,,11/12/2019,12/18/2019,12/20/2019,,,Amazon BOS7,1180 Innovation Way,,Fall River,MA,02722-,,,
SLF940,VAND,179386,AMAZON11.2,AMAZON,6X9MJHCH,1,ME9272,,,,12,1,12,,,,,,,11/12/2019,12/18/2019,12/20/2019,,,SMF3,3923 S B ST,,STOCKTON,CA,95206-,,,
SLF940,VAND,179386,AMAZON11.2,AMAZON,6X9MJHCH,1,ME9287,,,,12,1,12,,,,,,,11/12/2019,12/18/2019,12/20/2019,,,SMF3,3923 S B ST,,STOCKTON,CA,95206-,,,
SLF940,VAND,177062,AMAZON11.2,AMAZON,1ISAJFRX,1,S8242,,,,12,1,12,,,,,,,11/12/2019,8/26/2019,8/28/2019,,,AMAZON DET 2,50500 MOUND ROAD,,SHELBY TOWNSHIP,MI,48317-,,,
SLF940,VAND,179580,AMAZON11.2,AMAZON,8ZJ6XF4L,1,V05425,,,,12,1,12,,,,,,,11/12/2019,10/29/2019,10/30/2019,,,SMF3,3923 S B ST,,STOCKTON,CA,95206-,,,
SLF940,VAND,177270,AMAZON11.2,AMAZON,41G6N8VR,1,V05451,,,,12,1,12,,,,,,,11/12/2019,11/25/2019,11/27/2019,,,LGB8,1568 N Linden Avenue,,Rialto,CA,92376-,,,
SLF940,VAND,177270,AMAZON11.2,AMAZON,41G6N8VR,1,V05452,,,,12,1,12,,,,,,,11/12/2019,11/25/2019,11/27/2019,,,LGB8,1568 N Linden Avenue,,Rialto,CA,92376-,,,
SLF940,VAND,177270,AMAZON11.2,AMAZON,41G6N8VR,1,V05427,,,,12,1,12,,,,,,,11/12/2019,11/25/2019,11/27/2019,,,LGB8,1568 N Linden Avenue,,Rialto,CA,92376-,,,
SLF940,VAND,177273,AMAZON11.2,AMAZON,4IES812Z,1,V05588,,,,12,1,12,,,,,,,11/12/2019,11/25/2019,11/27/2019,,,AMAZON.COM KYDC LLC,6000 Enterprise Ave,,Schertz,TX,78154-,,,
SLF940,VAND,177277,AMAZON11.2,AMAZON,69AY811U,1,V05451,,,,12,1,12,,,,,,,11/12/2019,11/25/2019,11/27/2019,,,SMF3,3923 S B ST,,STOCKTON,CA,95206-,,,
SLF940,VAND,177277,AMAZON11.2,AMAZON,69AY811U,1,V05452,,,,12,1,12,,,,,,,11/12/2019,11/25/2019,11/27/2019,,,SMF3,3923 S B ST,,STOCKTON,CA,95206-,,,
SLF940,VAND,177277,AMAZON11.2,AMAZON,69AY811U,1,ME9267,,,,12,1,12,,,,,,,11/12/2019,11/25/2019,11/27/2019,,,SMF3,3923 S B ST,,STOCKTON,CA,95206-,,,
SLF940,VAND,177277,AMAZON11.2,AMAZON,69AY811U,1,ME9359-WHTBL,,,,12,1,12,,,,,,,11/12/2019,11/25/2019,11/27/2019,,,SMF3,3923 S B ST,,STOCKTON,CA,95206-,,,
SLF940,VAND,177277,AMAZON11.2,AMAZON,69AY811U,1,V05427,,,,12,1,12,,,,,,,11/12/2019,11/25/2019,11/27/2019,,,SMF3,3923 S B ST,,STOCKTON,CA,95206-,,,
SLF940,VAND,177277,AMAZON11.2,AMAZON,69AY811U,1,ME9359-CGRYDRKGRY,,,,12,1,12,,,,,,,11/12/2019,11/25/2019,11/27/2019,,,SMF3,3923 S B ST,,STOCKTON,CA,95206-,,,
SLF940,VAND,177608,AMAZON11.2,AMAZON,6V1UUGKP,1,ME9359-WHTBL,,,,12,1,12,,,,,,,11/12/2019,11/25/2019,11/27/2019,,,GOLDEN STATE FC LLC,24300 Nandina Ave,,Moreno Valley,CA,92551-,,,
SLF940,VAND,177611,AMAZON11.2,AMAZON,8BUUX5XS,1,V05510,,,,12,1,12,,,,,,,11/12/2019,11/25/2019,11/27/2019,,,"Amazon.com.DEDC, LLC",2 Ames Drive,,Carlisle,pa,17015-,,,
SLF940,VAND,177613,AMAZON11.2,AMAZON,8CMUNT5Y,1,V05533,,,,12,1,12,,,,,,,11/12/2019,11/25/2019,11/27/2019,,,Amazon.com indc LLC,800 Perry Road,,PLAINFIELD,IN,46168-,,,
SLF940,VAND,177616,AMAZON11.2,AMAZON,8RFXHOZO,1,ME9267,,,,12,1,12,,,,,,,11/12/2019,11/25/2019,11/27/2019,,,LAX9 FONTANA,11263 OLEANDER AVE,,FONTANA,CA,92337-7441,,,
SLF940,VAND,179377,AMAZON11.2,AMAZON,2T3KJK5U,1,V05546,,,,12,1,12,,,,,,,11/12/2019,12/18/2019,12/20/2019,,,Amazon BOS7,1180 Innovation Way,,Fall River,MA,02722-,,,
SLF940,VAND,179378,AMAZON11.2,AMAZON,2UXC5NZJ,1,V05546,,,,12,1,12,,,,,,,11/12/2019,12/18/2019,12/20/2019,,,"AMAZON, TEB3",2651 Oldmans Creek Road,,SWEDESBORO,NJ,08085-,,,
SLF940,VAND,179379,AMAZON11.2,AMAZON,61SPALRM,1,V05546,,,,12,1,12,,,,,,,11/12/2019,12/18/2019,12/20/2019,,,AMAZON.COM KYDC LLC,6000 Enterprise Ave,,Schertz,TX,78154-,,,
SLF940,VAND,179386,AMAZON11.2,AMAZON,6X9MJHCH,1,ME9359-BLKGR,,,,12,1,12,,,,,,,11/12/2019,12/18/2019,12/20/2019,,,SMF3,3923 S B ST,,STOCKTON,CA,95206-,,,
SLF940,VAND,179386,AMAZON11.2,AMAZON,6X9MJHCH,1,ME9276,,,,12,1,12,,,,,,,11/12/2019,12/18/2019,12/20/2019,,,SMF3,3923 S B ST,,STOCKTON,CA,95206-,,,
SLF940,VAND,179386,AMAZON11.2,AMAZON,6X9MJHCH,1,S2308-AMZN,,,,12,1,12,,,,,,,11/12/2019,12/18/2019,12/20/2019,,,SMF3,3923 S B ST,,STOCKTON,CA,95206-,,,
SLF940,VAND,179386,AMAZON11.2,AMAZON,6X9MJHCH,1,S2307-AMZN,,,,12,1,12,,,,,,,11/12/2019,12/18/2019,12/20/2019,,,SMF3,3923 S B ST,,STOCKTON,CA,95206-,,,
SLF940,VAND,179386,AMAZON11.2,AMAZON,6X9MJHCH,1,ME9359-CGRYDRKGRY,,,,12,1,12,,,,,,,11/12/2019,12/18/2019,12/20/2019,,,SMF3,3923 S B ST,,STOCKTON,CA,95206-,,,
SLF940,VAND,179873,AMAZON11.2,AMAZON,637PCIZR,1,V05451,,,,12,1,12,,,,,,,11/12/2019,11/4/2019,11/6/2019,,,LAX9 FONTANA,11263 OLEANDER AVE,,FONTANA,CA,92337-7441,,,
SLF940,VAND,179873,AMAZON11.2,AMAZON,637PCIZR,1,ME9359-BLUSH,,,,12,1,12,,,,,,,11/12/2019,11/4/2019,11/6/2019,,,LAX9 FONTANA,11263 OLEANDER AVE,,FONTANA,CA,92337-7441,,,
SLF940,VAND,179873,AMAZON11.2,AMAZON,637PCIZR,1,ME9287,,,,12,1,12,,,,,,,11/12/2019,11/4/2019,11/6/2019,,,LAX9 FONTANA,11263 OLEANDER AVE,,FONTANA,CA,92337-7441,,,
SLF940,VAND,179874,AMAZON11.2,AMAZON,6FZOVLTP,1,S2307-AMZN,,,,12,1,12,,,,,,,11/12/2019,11/4/2019,11/6/2019,,,LGB8,1568 N Linden Avenue,,Rialto,CA,92376-,,,
SLF940,VAND,180008,AMAZON11.2,AMAZON,37ISW1TA,1,V05640,,,,12,1,12,,,,,,,11/12/2019,11/11/2019,11/15/2019,,,CLT 3,6500 Davidson Hway,,Concord,NC,28027-,,,
SLF940,VAND,180011,AMAZON11.2,AMAZON,3NENLDCZ,1,ME9359-BLUSH,,,,12,1,12,,,,,,,11/12/2019,11/11/2019,11/15/2019,,,GOLDEN STATE FC LLC,24300 Nandina Ave,,Moreno Valley,CA,92551-,,,
SLF940,VAND,180014,AMAZON11.2,AMAZON,3S6XO1PM,1,ME9359-BLUSH,,,,12,1,12,,,,,,,11/12/2019,11/11/2019,11/15/2019,,,LGB8,1568 N Linden Avenue,,Rialto,CA,92376-,,,
SLF940,VAND,177221,AMAZON11.2,AMAZON,1VY4HK7Z,1,ME9194,,,,12,1,12,,,,,,,11/12/2019,9/25/2019,9/29/2019,,,LAX9 FONTANA,11263 OLEANDER AVE,,FONTANA,CA,92337-7441,,,
SLF940,VAND,177221,AMAZON11.2,AMAZON,1VY4HK7Z,1,V05516,,,,12,1,12,,,,,,,11/12/2019,9/25/2019,9/29/2019,,,LAX9 FONTANA,11263 OLEANDER AVE,,FONTANA,CA,92337-7441,,,
SLF940,VAND,177221,AMAZON11.2,AMAZON,1VY4HK7Z,1,ME9359-CGRYDRKGRY,,,,12,1,12,,,,,,,11/12/2019,9/25/2019,9/29/2019,,,LAX9 FONTANA,11263 OLEANDER AVE,,FONTANA,CA,92337-7441,,,
SLF940,VAND,177240,AMAZON11.2,AMAZON,43LPE57J,1,ME9267,,,,12,1,12,,,,,,,11/12/2019,10/25/2019,10/29/2019,,,LAX9 FONTANA,11263 OLEANDER AVE,,FONTANA,CA,92337-7441,,,
SLF940,VAND,177240,AMAZON11.2,AMAZON,43LPE57J,1,ME9288,,,,12,1,12,,,,,,,11/12/2019,10/25/2019,10/29/2019,,,LAX9 FONTANA,11263 OLEANDER AVE,,FONTANA,CA,92337-7441,,,
SLF940,VAND,177240,AMAZON11.2,AMAZON,43LPE57J,1,ME9359-GRYBL,,,,12,1,12,,,,,,,11/12/2019,10/25/2019,10/29/2019,,,LAX9 FONTANA,11263 OLEANDER AVE,,FONTANA,CA,92337-7441,,,
SLF940,VAND,177240,AMAZON11.2,AMAZON,43LPE57J,1,V05617,,,,12,1,12,,,,,,,11/12/2019,10/25/2019,10/29/2019,,,LAX9 FONTANA,11263 OLEANDER AVE,,FONTANA,CA,92337-7441,,,
SLF940,VAND,177240,AMAZON11.2,AMAZON,43LPE57J,1,ME9359-WHTBL,,,,12,1,12,,,,,,,11/12/2019,10/25/2019,10/29/2019,,,LAX9 FONTANA,11263 OLEANDER AVE,,FONTANA,CA,92337-7441,,,
SLF940,VAND,177240,AMAZON11.2,AMAZON,43LPE57J,1,V05427,,,,12,1,12,,,,,,,11/12/2019,10/25/2019,10/29/2019,,,LAX9 FONTANA,11263 OLEANDER AVE,,FONTANA,CA,92337-7441,,,
SLF940,VAND,177240,AMAZON11.2,AMAZON,43LPE57J,1,V05516,,,,12,1,12,,,,,,,11/12/2019,10/25/2019,10/29/2019,,,LAX9 FONTANA,11263 OLEANDER AVE,,FONTANA,CA,92337-7441,,,
SLF940,VAND,177240,AMAZON11.2,AMAZON,43LPE57J,1,ME9359-CGRYDRKGRY,,,,12,1,12,,,,,,,11/12/2019,10/25/2019,10/29/2019,,,LAX9 FONTANA,11263 OLEANDER AVE,,FONTANA,CA,92337-7441,,,
SLF940,VAND,177243,AMAZON11.2,AMAZON,4M4BF8RD,1,V05534,,,,12,1,12,,,,,,,11/12/2019,10/25/2019,10/29/2019,,,Amazon.com.dedc LLC,21 Roadway Drive,,Carlisle,PA,17015-,,,
SLF940,VAND,177250,AMAZON11.2,AMAZON,6JMJ3ZYA,1,V05533,,,,12,1,12,,,,,,,11/12/2019,10/25/2019,10/29/2019,,,AMAZON DET 2,50500 MOUND ROAD,,SHELBY TOWNSHIP,MI,48317-,,,
SLF940,VAND,177250,AMAZON11.2,AMAZON,6JMJ3ZYA,1,V05534,,,,12,1,12,,,,,,,11/12/2019,10/25/2019,10/29/2019,,,AMAZON DET 2,50500 MOUND ROAD,,SHELBY TOWNSHIP,MI,48317-,,,
SLF940,VAND,177250,AMAZON11.2,AMAZON,6JMJ3ZYA,1,V05510,,,,12,1,12,,,,,,,11/12/2019,10/25/2019,10/29/2019,,,AMAZON DET 2,50500 MOUND ROAD,,SHELBY TOWNSHIP,MI,48317-,,,
SLF940,VAND,177255,AMAZON11.2,AMAZON,86RSPP4C,1,V05588,,,,12,1,12,,,,,,,11/12/2019,10/25/2019,10/29/2019,,,"Amazon.com.DEDC, LLC",2 Ames Drive,,Carlisle,pa,17015-,,,
SLF940,VAND,177255,AMAZON11.2,AMAZON,86RSPP4C,1,V05534,,,,12,1,12,,,,,,,11/12/2019,10/25/2019,10/29/2019,,,"Amazon.com.DEDC, LLC",2 Ames Drive,,Carlisle,pa,17015-,,,
SLF940,VAND,177259,AMAZON11.2,AMAZON,8J9WCLDA,1,ME9267,,,,12,1,12,,,,,,,11/12/2019,10/25/2019,10/29/2019,,,LGB8,1568 N Linden Avenue,,Rialto,CA,92376-,,,
SLF940,VAND,177259,AMAZON11.2,AMAZON,8J9WCLDA,1,ME9269,,,,12,1,12,,,,,,,11/12/2019,10/25/2019,10/29/2019,,,LGB8,1568 N Linden Avenue,,Rialto,CA,92376-,,,
SLF940,VAND,177265,AMAZON11.2,AMAZON,5TLH8LBG,1,V05427,,,,12,1,12,,,,,,,11/12/2019,10/25/2019,10/29/2019,,,SMF3,3923 S B ST,,STOCKTON,CA,95206-,,,
SLF940,VAND,177265,AMAZON11.2,AMAZON,5TLH8LBG,1,V05516,,,,12,1,12,,,,,,,11/12/2019,10/25/2019,10/29/2019,,,SMF3,3923 S B ST,,STOCKTON,CA,95206-,,,
SLF940,VAND,179179,AMAZON11.2,AMAZON,5QA62SAQ,1,V05533,,,,12,1,12,,,,,,,11/12/2019,10/25/2019,10/28/2019,,,Amazon BOS7,1180 Innovation Way,,Fall River,MA,02722-,,,
SLF940,VAND,179301,AMAZON11.2,AMAZON,1F1MFD3Z,1,S8242,,,,12,1,12,,,,,,,11/12/2019,10/21/2019,10/23/2019,,,GOLDEN STATE FC LLC,24300 Nandina Ave,,Moreno Valley,CA,92551-,,,
SLF940,VAND,179562,AMAZON11.2,AMAZON,5U9QJ6JQ,1,V05452,,,,12,1,12,,,,,,,11/12/2019,10/29/2019,10/30/2019,,,LAX9 FONTANA,11263 OLEANDER AVE,,FONTANA,CA,92337-7441,,,
SLF940,VAND,179562,AMAZON11.2,AMAZON,5U9QJ6JQ,1,V05517,,,,12,1,12,,,,,,,11/12/2019,10/29/2019,10/30/2019,,,LAX9 FONTANA,11263 OLEANDER AVE,,FONTANA,CA,92337-7441,,,
SLF940,VAND,179562,AMAZON11.2,AMAZON,5U9QJ6JQ,1,V05664,,,,12,1,12,,,,,,,11/12/2019,10/29/2019,10/30/2019,,,LAX9 FONTANA,11263 OLEANDER AVE,,FONTANA,CA,92337-7441,,,
SLF940,VAND,179563,AMAZON11.2,AMAZON,67QFC8JX,1,V05533,,,,12,1,12,,,,,,,11/12/2019,10/29/2019,10/30/2019,,,AMAZON.COM PDX7,4775 DEPOT CT SE,,SALEM,OR,97317-,,,
SLF940,VAND,179577,AMAZON11.2,AMAZON,6WEUG8LQ,1,ME9359-LILAC,,,,12,1,12,,,,,,,11/12/2019,10/29/2019,10/30/2019,,,LGB8,1568 N Linden Avenue,,Rialto,CA,92376-,,,
SLF940,VAND,179579,AMAZON11.2,AMAZON,7IVKDZTW,1,V05018,,,,12,1,12,,,,,,,11/12/2019,10/29/2019,10/30/2019,,,CLT 3,6500 Davidson Hway,,Concord,NC,28027-,,,
SLF940,VAND,179580,AMAZON11.2,AMAZON,8ZJ6XF4L,1,S2309-AMZN,,,,12,1,12,,,,,,,11/12/2019,10/29/2019,10/30/2019,,,SMF3,3923 S B ST,,STOCKTON,CA,95206-,,,
SLF940,VAND,177270,AMAZON11.2,AMAZON,41G6N8VR,1,ME9359-WHTBL,,,,24,2,12,,,,,,,11/12/2019,11/25/2019,11/27/2019,,,LGB8,1568 N Linden Avenue,,Rialto,CA,92376-,,,
SLF940,VAND,177616,AMAZON11.2,AMAZON,8RFXHOZO,1,V05451,,,,12,1,12,,,,,,,11/12/2019,11/25/2019,11/27/2019,,,LAX9 FONTANA,11263 OLEANDER AVE,,FONTANA,CA,92337-7441,,,
SLF940,VAND,177616,AMAZON11.2,AMAZON,8RFXHOZO,1,V05452,,,,12,1,12,,,,,,,11/12/2019,11/25/2019,11/27/2019,,,LAX9 FONTANA,11263 OLEANDER AVE,,FONTANA,CA,92337-7441,,,
SLF940,VAND,177616,AMAZON11.2,AMAZON,8RFXHOZO,1,V05427,,,,24,2,12,,,,,,,11/12/2019,11/25/2019,11/27/2019,,,LAX9 FONTANA,11263 OLEANDER AVE,,FONTANA,CA,92337-7441,,,
SLF940,VAND,179377,AMAZON11.2,AMAZON,2T3KJK5U,1,V05534,,,,24,2,12,,,,,,,11/12/2019,12/18/2019,12/20/2019,,,Amazon BOS7,1180 Innovation Way,,Fall River,MA,02722-,,,
SLF940,VAND,179386,AMAZON11.2,AMAZON,6X9MJHCH,1,V05451,,,,12,1,12,,,,,,,11/12/2019,12/18/2019,12/20/2019,,,SMF3,3923 S B ST,,STOCKTON,CA,95206-,,,
SLF940,VAND,177221,AMAZON11.2,AMAZON,1VY4HK7Z,1,ME9359-BLKGR,,,,24,2,12,,,,,,,11/12/2019,9/25/2019,9/29/2019,,,LAX9 FONTANA,11263 OLEANDER AVE,,FONTANA,CA,92337-7441,,,
SLF940,VAND,177259,AMAZON11.2,AMAZON,8J9WCLDA,1,ME9359-GRYBL,,,,24,2,12,,,,,,,11/12/2019,10/25/2019,10/29/2019,,,LGB8,1568 N Linden Avenue,,Rialto,CA,92376-,,,
SLF940,VAND,177259,AMAZON11.2,AMAZON,8J9WCLDA,1,V05427,,,,24,2,12,,,,,,,11/12/2019,10/25/2019,10/29/2019,,,LGB8,1568 N Linden Avenue,,Rialto,CA,92376-,,,
SLF940,VAND,177265,AMAZON11.2,AMAZON,5TLH8LBG,1,ME9359-BLKGR,,,,24,2,12,,,,,,,11/12/2019,10/25/2019,10/29/2019,,,SMF3,3923 S B ST,,STOCKTON,CA,95206-,,,
SLF940,VAND,177265,AMAZON11.2,AMAZON,5TLH8LBG,1,ME9359-GRYBL,,,,24,2,12,,,,,,,11/12/2019,10/25/2019,10/29/2019,,,SMF3,3923 S B ST,,STOCKTON,CA,95206-,,,
SLF940,VAND,177265,AMAZON11.2,AMAZON,5TLH8LBG,1,ME9359-WHTBL,,,,24,2,12,,,,,,,11/12/2019,10/25/2019,10/29/2019,,,SMF3,3923 S B ST,,STOCKTON,CA,95206-,,,
SLF940,VAND,179557,AMAZON11.2,AMAZON,4KJCETTS,1,V05533,,,,24,2,12,,,,,,,11/12/2019,10/29/2019,10/30/2019,,,AMAZOM.COM,700 GATEWAY BLVD,,MONROE,OH,45050-1848,,,
SLF940,VAND,179580,AMAZON11.2,AMAZON,8ZJ6XF4L,1,V05451,,,,12,1,12,,,,,,,11/12/2019,10/29/2019,10/30/2019,,,SMF3,3923 S B ST,,STOCKTON,CA,95206-,,,
SLF940,VAND,179580,AMAZON11.2,AMAZON,8ZJ6XF4L,1,ME9359-RYLNVY,,,,24,2,12,,,,,,,11/12/2019,10/29/2019,10/30/2019,,,SMF3,3923 S B ST,,STOCKTON,CA,95206-,,,
SLF940,VAND,177270,AMAZON11.2,AMAZON,41G6N8VR,1,ME9359-GRYBL,,,,36,3,12,,,,,,,11/12/2019,11/25/2019,11/27/2019,,,LGB8,1568 N Linden Avenue,,Rialto,CA,92376-,,,
SLF940,VAND,177270,AMAZON11.2,AMAZON,41G6N8VR,1,ME9359-BLEGG,,,,36,3,12,,,,,,,11/12/2019,11/25/2019,11/27/2019,,,LGB8,1568 N Linden Avenue,,Rialto,CA,92376-,,,
SLF940,VAND,177277,AMAZON11.2,AMAZON,69AY811U,1,ME9359-BLEGG,,,,36,3,12,,,,,,,11/12/2019,11/25/2019,11/27/2019,,,SMF3,3923 S B ST,,STOCKTON,CA,95206-,,,
SLF940,VAND,177616,AMAZON11.2,AMAZON,8RFXHOZO,1,ME9359-GRYBL,,,,36,3,12,,,,,,,11/12/2019,11/25/2019,11/27/2019,,,LAX9 FONTANA,11263 OLEANDER AVE,,FONTANA,CA,92337-7441,,,
SLF940,VAND,177616,AMAZON11.2,AMAZON,8RFXHOZO,1,V05617,,,,36,3,12,,,,,,,11/12/2019,11/25/2019,11/27/2019,,,LAX9 FONTANA,11263 OLEANDER AVE,,FONTANA,CA,92337-7441,,,
SLF940,VAND,177616,AMAZON11.2,AMAZON,8RFXHOZO,1,ME9359-WHTBL,,,,36,3,12,,,,,,,11/12/2019,11/25/2019,11/27/2019,,,LAX9 FONTANA,11263 OLEANDER AVE,,FONTANA,CA,92337-7441,,,
SLF940,VAND,179377,AMAZON11.2,AMAZON,2T3KJK5U,1,V01458,,,,36,3,12,,,,,,,11/12/2019,12/18/2019,12/20/2019,,,Amazon BOS7,1180 Innovation Way,,Fall River,MA,02722-,,,
SLF940,VAND,179379,AMAZON11.2,AMAZON,61SPALRM,1,V01458,,,,36,3,12,,,,,,,11/12/2019,12/18/2019,12/20/2019,,,AMAZON.COM KYDC LLC,6000 Enterprise Ave,,Schertz,TX,78154-,,,
SLF940,VAND,179380,AMAZON11.2,AMAZON,64VO89KK,1,V01458,,,,36,3,12,,,,,,,11/12/2019,12/18/2019,12/20/2019,,,Amazon.com dedc LLC,500 Duke Dr,,Lebanon,TN,37090-,,,
SLF940,VAND,179386,AMAZON11.2,AMAZON,6X9MJHCH,1,S1530-AMZN,,,,36,3,12,,,,,,,11/12/2019,12/18/2019,12/20/2019,,,SMF3,3923 S B ST,,STOCKTON,CA,95206-,,,
SLF940,VAND,179562,AMAZON11.2,AMAZON,5U9QJ6JQ,1,ME9473,,,,48,4,12,,,,,,,11/12/2019,10/29/2019,10/30/2019,,,LAX9 FONTANA,11263 OLEANDER AVE,,FONTANA,CA,92337-7441,,,
SLF940,VAND,179378,AMAZON11.2,AMAZON,2UXC5NZJ,1,V01458,,,,48,4,12,,,,,,,11/12/2019,12/18/2019,12/20/2019,,,"AMAZON, TEB3",2651 Oldmans Creek Road,,SWEDESBORO,NJ,08085-,,,
SLF940,VAND,177240,AMAZON11.2,AMAZON,43LPE57J,1,ME9359-BLEGG,,,,48,4,12,,,,,,,11/12/2019,10/25/2019,10/29/2019,,,LAX9 FONTANA,11263 OLEANDER AVE,,FONTANA,CA,92337-7441,,,
SLF940,VAND,177259,AMAZON11.2,AMAZON,8J9WCLDA,1,ME9359-WHTBL,,,,48,4,12,,,,,,,11/12/2019,10/25/2019,10/29/2019,,,LGB8,1568 N Linden Avenue,,Rialto,CA,92376-,,,
SLF940,VAND,179562,AMAZON11.2,AMAZON,5U9QJ6JQ,1,ME9359-BLKGR,,,,48,4,12,,,,,,,11/12/2019,10/29/2019,10/30/2019,,,LAX9 FONTANA,11263 OLEANDER AVE,,FONTANA,CA,92337-7441,,,
SLF940,VAND,177616,AMAZON11.2,AMAZON,8RFXHOZO,1,ME9359-BLEGG,,,,60,5,12,,,,,,,11/12/2019,11/25/2019,11/27/2019,,,LAX9 FONTANA,11263 OLEANDER AVE,,FONTANA,CA,92337-7441,,,
SLF940,VAND,177240,AMAZON11.2,AMAZON,43LPE57J,1,ME9359-BLKGR,,,,60,5,12,,,,,,,11/12/2019,10/25/2019,10/29/2019,,,LAX9 FONTANA,11263 OLEANDER AVE,,FONTANA,CA,92337-7441,,,
SLF940,VAND,177258,AMAZON11.2,AMAZON,8IHWLX6U,1,V05534,,,,60,5,12,,,,,,,11/12/2019,10/25/2019,10/29/2019,,,Amazon BOS7,1180 Innovation Way,,Fall River,MA,02722-,,,
SLF940,VAND,179386,AMAZON11.2,AMAZON,6X9MJHCH,1,ME9359-GRYBL,,,,84,7,12,,,,,,,11/12/2019,12/18/2019,12/20/2019,,,SMF3,3923 S B ST,,STOCKTON,CA,95206-,,,
SLF940,VAND,179386,AMAZON11.2,AMAZON,6X9MJHCH,1,V05896,,,,24,1,24,,,,,,,11/12/2019,12/18/2019,12/20/2019,,,SMF3,3923 S B ST,,STOCKTON,CA,95206-,,,
SLF940,VAND,179386,AMAZON11.2,AMAZON,6X9MJHCH,1,ME9389,,,,24,1,24,,,,,,,11/12/2019,12/18/2019,12/20/2019,,,SMF3,3923 S B ST,,STOCKTON,CA,95206-,,,
SLF940,VAND,180022,AMAZON11.2,AMAZON,32QITDGN,1,ME9094,,,,24,1,24,,,,,,,11/12/2019,11/11/2019,11/15/2019,,,Amazon.com - BF14,21005 64th Ave S,,Kent,WA,98032-2423,,,
SLF940,VAND,179188,AMAZON11.2,AMAZON,4HLTSJYZ,1,ME9094,,,,24,1,24,,,,,,,11/12/2019,10/25/2019,10/28/2019,,,SMF3,3923 S B ST,,STOCKTON,CA,95206-,,,
SLF940,VAND,179564,AMAZON11.2,AMAZON,6DQWQFUT,1,ME9094,,,,24,1,24,,,,,,,11/12/2019,10/29/2019,10/30/2019,,,GOLDEN STATE FC LLC,24300 Nandina Ave,,Moreno Valley,CA,92551-,,,
SLF940,VAND,179577,AMAZON11.2,AMAZON,6WEUG8LQ,1,ME9094,,,,96,4,24,,,,,,,11/12/2019,10/29/2019,10/30/2019,,,LGB8,1568 N Linden Avenue,,Rialto,CA,92376-,,,
SLF940,VAND,179580,AMAZON11.2,AMAZON,8ZJ6XF4L,1,ME9094,,,,96,4,24,,,,,,,11/12/2019,10/29/2019,10/30/2019,,,SMF3,3923 S B ST,,STOCKTON,CA,95206-,,,
SLF940,VAND,179377,AMAZON11.2,AMAZON,2T3KJK5U,1,V05748,,,,4,1,4,,,,,,,11/12/2019,12/18/2019,12/20/2019,,,Amazon BOS7,1180 Innovation Way,,Fall River,MA,02722-,,,
SLF940,VAND,179380,AMAZON11.2,AMAZON,64VO89KK,1,V05748,,,,4,1,4,,,,,,,11/12/2019,12/18/2019,12/20/2019,,,Amazon.com dedc LLC,500 Duke Dr,,Lebanon,TN,37090-,,,
SLF940,VAND,177221,AMAZON11.2,AMAZON,1VY4HK7Z,1,V09491-CHROM,,,,4,1,4,,,,,,,11/12/2019,9/25/2019,9/29/2019,,,LAX9 FONTANA,11263 OLEANDER AVE,,FONTANA,CA,92337-7441,,,
SLF940,VAND,177259,AMAZON11.2,AMAZON,8J9WCLDA,1,V09491-CHROM,,,,4,1,4,,,,,,,11/12/2019,10/25/2019,10/29/2019,,,LGB8,1568 N Linden Avenue,,Rialto,CA,92376-,,,
SLF940,VAND,177265,AMAZON11.2,AMAZON,5TLH8LBG,1,V09491-CHROM,,,,4,1,4,,,,,,,11/12/2019,10/25/2019,10/29/2019,,,SMF3,3923 S B ST,,STOCKTON,CA,95206-,,,
SLF940,VAND,179553,AMAZON11.2,AMAZON,447A4MKQ,1,V05748,,,,4,1,4,,,,,,,11/12/2019,10/29/2019,10/30/2019,,,Amazon.com azdc LLC,800 n 75th ave,,Phoenix,AZ,85043-,,,
SLF940,VAND,179555,AMAZON11.2,AMAZON,4EZ2LI9Z,1,V05748,,,,4,1,4,,,,,,,11/12/2019,10/29/2019,10/30/2019,,,AMAZON.COMDEDC LLC,39000 AMRHEIN ROAD,,LIVONIA,MI,48150-,,,
SLF940,VAND,179558,AMAZON11.2,AMAZON,4LM4AAHB,1,V05748,,,,4,1,4,,,,,,,11/12/2019,10/29/2019,10/30/2019,,,Amazon BOS7,1180 Innovation Way,,Fall River,MA,02722-,,,
SLF940,VAND,179559,AMAZON11.2,AMAZON,4SUP8MMJ,1,V05748,,,,4,1,4,,,,,,,11/12/2019,10/29/2019,10/30/2019,,,BW14,165 Business Blvd,,CLEAR BROOK,VA,22624-,,,
SLF940,VAND,179563,AMAZON11.2,AMAZON,67QFC8JX,1,V05748,,,,4,1,4,,,,,,,11/12/2019,10/29/2019,10/30/2019,,,AMAZON.COM PDX7,4775 DEPOT CT SE,,SALEM,OR,97317-,,,
SLF940,VAND,179224,AMAZON11.2,AMAZON,269IR8KW,1,HH5707,,,,16,1,16,,,,,,,11/12/2019,10/25/2019,10/28/2019,,,"AMAZON, TEB3",2651 Oldmans Creek Road,,SWEDESBORO,NJ,08085-,,,
SLF940,VAND,179554,AMAZON11.2,AMAZON,4BAJEAJV,1,V05502,,,,6,1,6,,,,,,,11/12/2019,10/29/2019,10/30/2019,,,Amazon.com.indc LLC,715 Airtech Pkwy,,PLAINFIELD,IN,46168-,,,
SLF940,VAND,179379,AMAZON11.2,AMAZON,61SPALRM,1,98481248,,,,8,1,8,,,,,,,11/12/2019,12/18/2019,12/20/2019,,,AMAZON.COM KYDC LLC,6000 Enterprise Ave,,Schertz,TX,78154-,,,
SLF940,VAND,179379,AMAZON11.2,AMAZON,61SPALRM,1,V05748,,,,8,2,4,,,,,,,11/12/2019,12/18/2019,12/20/2019,,,AMAZON.COM KYDC LLC,6000 Enterprise Ave,,Schertz,TX,78154-,,,
SLF940,VAND,179378,AMAZON11.2,AMAZON,2UXC5NZJ,1,V05748,,,,12,3,4,,,,,,,11/12/2019,12/18/2019,12/20/2019,,,"AMAZON, TEB3",2651 Oldmans Creek Road,,SWEDESBORO,NJ,08085-,,,
SLF940,VAND,179871,AMAZON11.2,AMAZON,7JOWW66L,1,V05683-BLOSS,,,,12,1,12,,,,,,,11/12/2019,11/4/2019,11/6/2019,,,Amazon.com dedc. LLC,225 Infinity Dr. NW,,CHARLESTON,TN,37310-,,,
SLF940,VAND,179579,AMAZON11.2,AMAZON,7IVKDZTW,1,V05748,,,,12,3,4,,,,,,,11/12/2019,10/29/2019,10/30/2019,,,CLT 3,6500 Davidson Hway,,Concord,NC,28027-,,,
SLF940,VAND,177273,AMAZON11.2,AMAZON,4IES812Z,1,PL5708,,,,16,1,16,,,,,,,11/12/2019,11/25/2019,11/27/2019,,,AMAZON.COM KYDC LLC,6000 Enterprise Ave,,Schertz,TX,78154-,,,
SLF940,VAND,177274,AMAZON11.2,AMAZON,4K9JT4WO,1,PL5708,,,,16,1,16,,,,,,,11/12/2019,11/25/2019,11/27/2019,,,ABE4,1610 VAN BUREN ROAD,,EASTON,PA,18045-,,,
SLF940,VAND,177275,AMAZON11.2,AMAZON,4WFVB8PJ,1,PL5708,,,,16,1,16,,,,,,,11/12/2019,11/25/2019,11/27/2019,,,LGB4,27517 Pioneer Avenue,,Redlands,CA,92374-,,,
SLF940,VAND,177278,AMAZON11.2,AMAZON,6FWZVS9W,1,PL5708,,,,16,1,16,,,,,,,11/12/2019,11/25/2019,11/27/2019,,,AMAZON DET 2,50500 MOUND ROAD,,SHELBY TOWNSHIP,MI,48317-,,,
SLF940,VAND,177278,AMAZON11.2,AMAZON,6FWZVS9W,1,PL5724,,,,16,1,16,,,,,,,11/12/2019,11/25/2019,11/27/2019,,,AMAZON DET 2,50500 MOUND ROAD,,SHELBY TOWNSHIP,MI,48317-,,,
SLF940,VAND,177279,AMAZON11.2,AMAZON,6KPATGMJ,1,PL5708,,,,16,1,16,,,,,,,11/12/2019,11/25/2019,11/27/2019,,,CLT 3,6500 Davidson Hway,,Concord,NC,28027-,,,
SLF940,VAND,177610,AMAZON11.2,AMAZON,8462DX2H,1,PL5708,,,,16,1,16,,,,,,,11/12/2019,11/25/2019,11/27/2019,,,"amazon .com DEDC, LLC",1760 County Line Rd,,Lakeland,FL,33811-,,,
SLF940,VAND,179873,AMAZON11.2,AMAZON,637PCIZR,1,PL5732,,,,16,1,16,,,,,,,11/12/2019,11/4/2019,11/6/2019,,,LAX9 FONTANA,11263 OLEANDER AVE,,FONTANA,CA,92337-7441,,,
SLF940,VAND,179874,AMAZON11.2,AMAZON,6FZOVLTP,1,PL5730,,,,16,1,16,,,,,,,11/12/2019,11/4/2019,11/6/2019,,,LGB8,1568 N Linden Avenue,,Rialto,CA,92376-,,,
SLF940,VAND,179875,AMAZON11.2,AMAZON,6KRYYA7C,1,PL5732,,,,16,1,16,,,,,,,11/12/2019,11/4/2019,11/6/2019,,,SMF3,3923 S B ST,,STOCKTON,CA,95206-,,,
SLF940,VAND,179960,AMAZON11.2,AMAZON,2HD3DVPI,1,PL5730,,,,16,1,16,,,,,,,11/12/2019,11/7/2019,10/28/2019,,,LAX9 FONTANA,11263 OLEANDER AVE,,FONTANA,CA,92337-7441,,,
SLF940,VAND,179962,AMAZON11.2,AMAZON,7PCV4R3M,1,HH5707,,,,16,1,16,,,,,,,11/12/2019,11/7/2019,11/9/2019,,,Amazon,PO BOX 80387,,Seattle,WA,98108-,,,
SLF940,VAND,180017,AMAZON11.2,AMAZON,6IZZHAKU,1,HH5707,,,,16,1,16,,,,,,,11/12/2019,11/11/2019,11/15/2019,,,Amazon.com azdc LLC,800 n 75th ave,,Phoenix,AZ,85043-,,,
SLF940,VAND,177250,AMAZON11.2,AMAZON,6JMJ3ZYA,1,HH5708,,,,16,1,16,,,,,,,11/12/2019,10/25/2019,10/29/2019,,,AMAZON DET 2,50500 MOUND ROAD,,SHELBY TOWNSHIP,MI,48317-,,,
SLF940,VAND,177255,AMAZON11.2,AMAZON,86RSPP4C,1,PL5708,,,,16,1,16,,,,,,,11/12/2019,10/25/2019,10/29/2019,,,"Amazon.com.DEDC, LLC",2 Ames Drive,,Carlisle,pa,17015-,,,
SLF940,VAND,179114,AMAZON11.2,AMAZON,7VYWSJBO,1,98481248,,,,16,2,8,,,,,,,11/12/2019,10/25/2019,10/28/2019,,,Amazon BOS7,1180 Innovation Way,,Fall River,MA,02722-,,,
SLF940,VAND,179377,AMAZON11.2,AMAZON,2T3KJK5U,1,HH5707,,,,32,2,16,,,,,,,11/12/2019,12/18/2019,12/20/2019,,,Amazon BOS7,1180 Innovation Way,,Fall River,MA,02722-,,,
SLF940,VAND,179222,AMAZON11.2,AMAZON,2FT3WKBK,1,HH5707,,,,32,2,16,,,,,,,11/12/2019,10/25/2019,10/28/2019,,,AMAZON.COMDEDC LLC,39000 AMRHEIN ROAD,,LIVONIA,MI,48150-,,,
SLF940,VAND,179379,AMAZON11.2,AMAZON,61SPALRM,1,HH5707,,,,32,2,16,,,,,,,11/12/2019,12/18/2019,12/20/2019,,,AMAZON.COM KYDC LLC,6000 Enterprise Ave,,Schertz,TX,78154-,,,
SLF940,VAND,177250,AMAZON11.2,AMAZON,6JMJ3ZYA,1,PL5708,,,,32,2,16,,,,,,,11/12/2019,10/25/2019,10/29/2019,,,AMAZON DET 2,50500 MOUND ROAD,,SHELBY TOWNSHIP,MI,48317-,,,
