SLF940,COMPID,REFNUM,BATCHID,CUSTID,CUSTPO,PICKLINE,ITEMNUM,COLOR,SIZE,CUST_SKU,ITMQTY,CTNS,CTN_QTY,CTN_CUBE,CTN_WGT,ITM_NAME,DTLCOUNT,PONUM,RELID,REQDT,STARTDT,CANCELDT,DEPT,STORE,SHIPTONAME,SHIPTOADD1,SHIPTOADD2,CITY,STATE,ZIPCODE,COUNTRY,HDRNOTE,SHIP_VIA
SLF940,JF2015,BE96311-001,JF394-20200128,23011,1059352925,1,JF68357WMFL,,,555503652,8,2,4,0.812,7,MICKEY STRIPES HOODED TOWEL,7,,1,1/28/2020,1/31/2020,1/31/2020,20,6069,WAL-MART DC 6006A-ASM DIS,2200 7TH AVENUE SOUTHWEST,,CULLMAN,AL,35055,USA,,J B HUNT
SLF940,JF2015,BE96311-001,JF394-20200128,23011,1059352925,2,JF35672WMFL,,,564331438,8,2,4,0.226,10,MICKEY CLASSIC HAND TOWEL,7,,3,1/28/2020,1/31/2020,1/31/2020,20,6069,WAL-MART DC 6006A-ASM DIS,2200 7TH AVENUE SOUTHWEST,,CULLMAN,AL,35055,USA,,J B HUNT
SLF940,JF2015,BE96311-001,JF394-20200128,23011,1059352925,3,JF35671WMFL,,,564334102,24,4,6,2.076,20,MICKEY CLASSIC BATH TOWEL,7,,4,1/28/2020,1/31/2020,1/31/2020,20,6069,WAL-MART DC 6006A-ASM DIS,2200 7TH AVENUE SOUTHWEST,,CULLMAN,AL,35055,USA,,J B HUNT
SLF940,JF2015,BE96311-001,JF394-20200128,23011,1059352925,4,JF31984WMFL,,,566073660,48,12,4,5.1,48.12,SPIDERMAN 2PC BATH SET,7,,5,1/28/2020,1/31/2020,1/31/2020,20,6069,WAL-MART DC 6006A-ASM DIS,2200 7TH AVENUE SOUTHWEST,,CULLMAN,AL,35055,USA,,J B HUNT
SLF940,JF2015,BE96311-001,JF394-20200128,23011,1059352925,5,JF37262WMFL,,,575950672,60,15,4,6.375,59.85,FROZEN MODDULAR 2PC BATH SET,7,,6,1/28/2020,1/31/2020,1/31/2020,20,6069,WAL-MART DC 6006A-ASM DIS,2200 7TH AVENUE SOUTHWEST,,CULLMAN,AL,35055,USA,,J B HUNT
SLF940,JF2015,BE96311-001,JF394-20200128,23011,1059352925,6,JF68484WMFL,,,575950675,12,3,4,1.257,9.72,FROZEN 2 OLAF HOODED BATH TOWE,7,,7,1/28/2020,1/31/2020,1/31/2020,20,6069,WAL-MART DC 6006A-ASM DIS,2200 7TH AVENUE SOUTHWEST,,CULLMAN,AL,35055,USA,,J B HUNT
SLF940,JF2015,BE96311-001,JF394-20200128,23011,1059352925,7,JF68486WMFL,,,575950677,80,20,4,8.38,64.8,FROZEN 2 ELSA HOODED BATH TOWE,7,,8,1/28/2020,1/31/2020,1/31/2020,20,6069,WAL-MART DC 6006A-ASM DIS,2200 7TH AVENUE SOUTHWEST,,CULLMAN,AL,35055,USA,,J B HUNT
SLF940,JF2015,BE96312-001,JF394-20200128,23011,6266060823,1,JF68357WMFL,,,555503652,8,2,4,0.812,7,MICKEY STRIPES HOODED TOWEL,8,,1,1/28/2020,1/31/2020,1/31/2020,20,6099,WAL-MART DC 6009A-ASM DIS,1501 MAPLE LEAF ROAD,,MOUNT PLEASANT,IA,52641,USA,,J B HUNT
SLF940,JF2015,BE96312-001,JF394-20200128,23011,6266060823,2,JF35672WMFL,,,564331438,8,2,4,0.226,10,MICKEY CLASSIC HAND TOWEL,8,,2,1/28/2020,1/31/2020,1/31/2020,20,6099,WAL-MART DC 6009A-ASM DIS,1501 MAPLE LEAF ROAD,,MOUNT PLEASANT,IA,52641,USA,,J B HUNT
SLF940,JF2015,BE96312-001,JF394-20200128,23011,6266060823,3,JF35671WMFL,,,564334102,12,2,6,1.038,10,MICKEY CLASSIC BATH TOWEL,8,,3,1/28/2020,1/31/2020,1/31/2020,20,6099,WAL-MART DC 6009A-ASM DIS,1501 MAPLE LEAF ROAD,,MOUNT PLEASANT,IA,52641,USA,,J B HUNT
SLF940,JF2015,BE96312-001,JF394-20200128,23011,6266060823,4,JF68745WMFL,,,568575459,28,7,4,3.206,21.56,JOJO WOW UNICORN HOODED TOWEL,8,,4,1/28/2020,1/31/2020,1/31/2020,20,6099,WAL-MART DC 6009A-ASM DIS,1501 MAPLE LEAF ROAD,,MOUNT PLEASANT,IA,52641,USA,,J B HUNT
SLF940,JF2015,BE96312-001,JF394-20200128,23011,6266060823,5,JF37262WMFL,,,575950672,24,6,4,2.55,23.94,FROZEN MODDULAR 2PC BATH SET,8,,5,1/28/2020,1/31/2020,1/31/2020,20,6099,WAL-MART DC 6009A-ASM DIS,1501 MAPLE LEAF ROAD,,MOUNT PLEASANT,IA,52641,USA,,J B HUNT
SLF940,JF2015,BE96312-001,JF394-20200128,23011,6266060823,6,JF68484WMFL,,,575950675,32,8,4,3.352,25.92,FROZEN 2 OLAF HOODED BATH TOWE,8,,6,1/28/2020,1/31/2020,1/31/2020,20,6099,WAL-MART DC 6009A-ASM DIS,1501 MAPLE LEAF ROAD,,MOUNT PLEASANT,IA,52641,USA,,J B HUNT
SLF940,JF2015,BE96312-001,JF394-20200128,23011,6266060823,7,JF68486WMFL,,,575950677,80,20,4,8.38,64.8,FROZEN 2 ELSA HOODED BATH TOWE,8,,7,1/28/2020,1/31/2020,1/31/2020,20,6099,WAL-MART DC 6009A-ASM DIS,1501 MAPLE LEAF ROAD,,MOUNT PLEASANT,IA,52641,USA,,J B HUNT
SLF940,JF2015,BE96312-001,JF394-20200128,23011,6266060823,8,JF68485WMFL,,,575950678,20,5,4,2.095,16.2,FROZEN 2 ANNA HOODED BATH TOWE,8,,8,1/28/2020,1/31/2020,1/31/2020,20,6099,WAL-MART DC 6009A-ASM DIS,1501 MAPLE LEAF ROAD,,MOUNT PLEASANT,IA,52641,USA,,J B HUNT
SLF940,JF2015,BE96313-001,JF394-20200128,23011,6959162793,1,JF35672WMFL,,,564331438,8,2,4,0.226,10,MICKEY CLASSIC HAND TOWEL,7,,1,1/28/2020,1/31/2020,1/31/2020,20,6109,WAL-MART DC 6010A-ASM DIS,1401 BAKER HWY,,DOUGLAS,GA,31533,USA,,J B HUNT
SLF940,JF2015,BE96313-001,JF394-20200128,23011,6959162793,2,JF31984WMFL,,,566073660,88,22,4,9.35,88.22,SPIDERMAN 2PC BATH SET,7,,2,1/28/2020,1/31/2020,1/31/2020,20,6109,WAL-MART DC 6010A-ASM DIS,1401 BAKER HWY,,DOUGLAS,GA,31533,USA,,J B HUNT
SLF940,JF2015,BE96313-001,JF394-20200128,23011,6959162793,3,JF68054WMFL,,,573492459,12,3,4,1.257,4.32,LION KING HOODED TOWEL,7,,3,1/28/2020,1/31/2020,1/31/2020,20,6109,WAL-MART DC 6010A-ASM DIS,1401 BAKER HWY,,DOUGLAS,GA,31533,USA,,J B HUNT
SLF940,JF2015,BE96313-001,JF394-20200128,23011,6959162793,4,JF68471WMFL,,,575499141,8,2,4,0.838,2.88,TOY STORY HOODED TOWEL,7,,4,1/28/2020,1/31/2020,1/31/2020,20,6109,WAL-MART DC 6010A-ASM DIS,1401 BAKER HWY,,DOUGLAS,GA,31533,USA,,J B HUNT
SLF940,JF2015,BE96313-001,JF394-20200128,23011,6959162793,5,JF37262WMFL,,,575950672,32,8,4,3.4,31.92,FROZEN MODDULAR 2PC BATH SET,7,,5,1/28/2020,1/31/2020,1/31/2020,20,6109,WAL-MART DC 6010A-ASM DIS,1401 BAKER HWY,,DOUGLAS,GA,31533,USA,,J B HUNT
SLF940,JF2015,BE96313-001,JF394-20200128,23011,6959162793,6,JF68486WMFL,,,575950677,80,20,4,8.38,64.8,FROZEN 2 ELSA HOODED BATH TOWE,7,,6,1/28/2020,1/31/2020,1/31/2020,20,6109,WAL-MART DC 6010A-ASM DIS,1401 BAKER HWY,,DOUGLAS,GA,31533,USA,,J B HUNT
SLF940,JF2015,BE96313-001,JF394-20200128,23011,6959162793,7,JF68485WMFL,,,575950678,20,5,4,2.095,16.2,FROZEN 2 ANNA HOODED BATH TOWE,7,,7,1/28/2020,1/31/2020,1/31/2020,20,6109,WAL-MART DC 6010A-ASM DIS,1401 BAKER HWY,,DOUGLAS,GA,31533,USA,,J B HUNT
SLF940,JF2015,BE96314-001,JF394-20200128,23011,4909382799,1,JF68357WMFL,,,555503652,8,2,4,0.812,7,MICKEY STRIPES HOODED TOWEL,9,,1,1/28/2020,1/31/2020,1/31/2020,20,6119,WAL-MART DC 6011A-ASM DIS,2200 MANUFACTURERS BOULEVARD,,BROOKHAVEN,MS,39601,USA,,J B HUNT
SLF940,JF2015,BE96314-001,JF394-20200128,23011,4909382799,2,JF35672WMFL,,,564331438,4,1,4,0.113,5,MICKEY CLASSIC HAND TOWEL,9,,3,1/28/2020,1/31/2020,1/31/2020,20,6119,WAL-MART DC 6011A-ASM DIS,2200 MANUFACTURERS BOULEVARD,,BROOKHAVEN,MS,39601,USA,,J B HUNT
SLF940,JF2015,BE96314-001,JF394-20200128,23011,4909382799,3,JF35671WMFL,,,564334102,12,2,6,1.038,10,MICKEY CLASSIC BATH TOWEL,9,,4,1/28/2020,1/31/2020,1/31/2020,20,6119,WAL-MART DC 6011A-ASM DIS,2200 MANUFACTURERS BOULEVARD,,BROOKHAVEN,MS,39601,USA,,J B HUNT
SLF940,JF2015,BE96314-001,JF394-20200128,23011,4909382799,4,JF31984WMFL,,,566073660,48,12,4,5.1,48.12,SPIDERMAN 2PC BATH SET,9,,5,1/28/2020,1/31/2020,1/31/2020,20,6119,WAL-MART DC 6011A-ASM DIS,2200 MANUFACTURERS BOULEVARD,,BROOKHAVEN,MS,39601,USA,,J B HUNT
SLF940,JF2015,BE96314-001,JF394-20200128,23011,4909382799,5,JF68471WMFL,,,575499141,32,8,4,3.352,11.52,TOY STORY HOODED TOWEL,9,,6,1/28/2020,1/31/2020,1/31/2020,20,6119,WAL-MART DC 6011A-ASM DIS,2200 MANUFACTURERS BOULEVARD,,BROOKHAVEN,MS,39601,USA,,J B HUNT
SLF940,JF2015,BE96314-001,JF394-20200128,23011,4909382799,6,JF37262WMFL,,,575950672,16,4,4,1.7,15.96,FROZEN MODDULAR 2PC BATH SET,9,,7,1/28/2020,1/31/2020,1/31/2020,20,6119,WAL-MART DC 6011A-ASM DIS,2200 MANUFACTURERS BOULEVARD,,BROOKHAVEN,MS,39601,USA,,J B HUNT
SLF940,JF2015,BE96314-001,JF394-20200128,23011,4909382799,7,JF68484WMFL,,,575950675,28,7,4,2.933,22.68,FROZEN 2 OLAF HOODED BATH TOWE,9,,8,1/28/2020,1/31/2020,1/31/2020,20,6119,WAL-MART DC 6011A-ASM DIS,2200 MANUFACTURERS BOULEVARD,,BROOKHAVEN,MS,39601,USA,,J B HUNT
SLF940,JF2015,BE96314-001,JF394-20200128,23011,4909382799,8,JF68486WMFL,,,575950677,44,11,4,4.609,35.64,FROZEN 2 ELSA HOODED BATH TOWE,9,,9,1/28/2020,1/31/2020,1/31/2020,20,6119,WAL-MART DC 6011A-ASM DIS,2200 MANUFACTURERS BOULEVARD,,BROOKHAVEN,MS,39601,USA,,J B HUNT
SLF940,JF2015,BE96314-001,JF394-20200128,23011,4909382799,9,JF68485WMFL,,,575950678,16,4,4,1.676,12.96,FROZEN 2 ANNA HOODED BATH TOWE,9,,10,1/28/2020,1/31/2020,1/31/2020,20,6119,WAL-MART DC 6011A-ASM DIS,2200 MANUFACTURERS BOULEVARD,,BROOKHAVEN,MS,39601,USA,,J B HUNT
SLF940,JF2015,BE96315-001,JF394-20200128,23011,4559382830,1,JF68357WMFL,,,555503652,16,4,4,1.624,14,MICKEY STRIPES HOODED TOWEL,11,,1,1/28/2020,1/31/2020,1/31/2020,20,6129,WAL-MART DC 6012A-ASM DIS,3100 NORTH I-27,,PLAINVIEW,TX,79072,USA,,J B HUNT
SLF940,JF2015,BE96315-001,JF394-20200128,23011,4559382830,2,JF35668WMFL,,,564331437,40,10,4,4.06,50,MINNIE CLASSIC HOODED TOWEL,11,,3,1/28/2020,1/31/2020,1/31/2020,20,6129,WAL-MART DC 6012A-ASM DIS,3100 NORTH I-27,,PLAINVIEW,TX,79072,USA,,J B HUNT
SLF940,JF2015,BE96315-001,JF394-20200128,23011,4559382830,3,JF35672WMFL,,,564331438,16,4,4,0.452,20,MICKEY CLASSIC HAND TOWEL,11,,4,1/28/2020,1/31/2020,1/31/2020,20,6129,WAL-MART DC 6012A-ASM DIS,3100 NORTH I-27,,PLAINVIEW,TX,79072,USA,,J B HUNT
SLF940,JF2015,BE96315-001,JF394-20200128,23011,4559382830,4,JF35671WMFL,,,564334102,42,7,6,3.633,35,MICKEY CLASSIC BATH TOWEL,11,,5,1/28/2020,1/31/2020,1/31/2020,20,6129,WAL-MART DC 6012A-ASM DIS,3100 NORTH I-27,,PLAINVIEW,TX,79072,USA,,J B HUNT
SLF940,JF2015,BE96315-001,JF394-20200128,23011,4559382830,5,JF31984WMFL,,,566073660,88,22,4,9.35,88.22,SPIDERMAN 2PC BATH SET,11,,6,1/28/2020,1/31/2020,1/31/2020,20,6129,WAL-MART DC 6012A-ASM DIS,3100 NORTH I-27,,PLAINVIEW,TX,79072,USA,,J B HUNT
SLF940,JF2015,BE96315-001,JF394-20200128,23011,4559382830,6,JF68745WMFL,,,568575459,64,16,4,7.328,49.28,JOJO WOW UNICORN HOODED TOWEL,11,,7,1/28/2020,1/31/2020,1/31/2020,20,6129,WAL-MART DC 6012A-ASM DIS,3100 NORTH I-27,,PLAINVIEW,TX,79072,USA,,J B HUNT
SLF940,JF2015,BE96315-001,JF394-20200128,23011,4559382830,7,JF68471WMFL,,,575499141,40,10,4,4.19,14.4,TOY STORY HOODED TOWEL,11,,8,1/28/2020,1/31/2020,1/31/2020,20,6129,WAL-MART DC 6012A-ASM DIS,3100 NORTH I-27,,PLAINVIEW,TX,79072,USA,,J B HUNT
SLF940,JF2015,BE96315-001,JF394-20200128,23011,4559382830,8,JF37262WMFL,,,575950672,60,15,4,6.375,59.85,FROZEN MODDULAR 2PC BATH SET,11,,9,1/28/2020,1/31/2020,1/31/2020,20,6129,WAL-MART DC 6012A-ASM DIS,3100 NORTH I-27,,PLAINVIEW,TX,79072,USA,,J B HUNT
SLF940,JF2015,BE96315-001,JF394-20200128,23011,4559382830,9,JF68484WMFL,,,575950675,40,10,4,4.19,32.4,FROZEN 2 OLAF HOODED BATH TOWE,11,,10,1/28/2020,1/31/2020,1/31/2020,20,6129,WAL-MART DC 6012A-ASM DIS,3100 NORTH I-27,,PLAINVIEW,TX,79072,USA,,J B HUNT
SLF940,JF2015,BE96315-001,JF394-20200128,23011,4559382830,10,JF68486WMFL,,,575950677,240,60,4,25.14,194.4,FROZEN 2 ELSA HOODED BATH TOWE,11,,11,1/28/2020,1/31/2020,1/31/2020,20,6129,WAL-MART DC 6012A-ASM DIS,3100 NORTH I-27,,PLAINVIEW,TX,79072,USA,,J B HUNT
SLF940,JF2015,BE96315-001,JF394-20200128,23011,4559382830,11,JF68485WMFL,,,575950678,40,10,4,4.19,32.4,FROZEN 2 ANNA HOODED BATH TOWE,11,,12,1/28/2020,1/31/2020,1/31/2020,20,6129,WAL-MART DC 6012A-ASM DIS,3100 NORTH I-27,,PLAINVIEW,TX,79072,USA,,J B HUNT
SLF940,JF2015,BE96316-001,JF394-20200128,23011,7409042910,1,JF35668WMFL,,,564331437,80,20,4,8.12,100,MINNIE CLASSIC HOODED TOWEL,9,,2,1/28/2020,1/31/2020,1/31/2020,20,6169,WAL-MART DC 6016A-ASM DIS,N 3920 IH 35,,NEW BRAUNFELS,TX,78130,USA,,J B HUNT
SLF940,JF2015,BE96316-001,JF394-20200128,23011,7409042910,2,JF35671WMFL,,,564334102,48,8,6,4.152,40,MICKEY CLASSIC BATH TOWEL,9,,3,1/28/2020,1/31/2020,1/31/2020,20,6169,WAL-MART DC 6016A-ASM DIS,N 3920 IH 35,,NEW BRAUNFELS,TX,78130,USA,,J B HUNT
SLF940,JF2015,BE96316-001,JF394-20200128,23011,7409042910,3,JF31984WMFL,,,566073660,88,22,4,9.35,88.22,SPIDERMAN 2PC BATH SET,9,,4,1/28/2020,1/31/2020,1/31/2020,20,6169,WAL-MART DC 6016A-ASM DIS,N 3920 IH 35,,NEW BRAUNFELS,TX,78130,USA,,J B HUNT
SLF940,JF2015,BE96316-001,JF394-20200128,23011,7409042910,4,JF68745WMFL,,,568575459,124,31,4,14.198,95.48,JOJO WOW UNICORN HOODED TOWEL,9,,5,1/28/2020,1/31/2020,1/31/2020,20,6169,WAL-MART DC 6016A-ASM DIS,N 3920 IH 35,,NEW BRAUNFELS,TX,78130,USA,,J B HUNT
SLF940,JF2015,BE96316-001,JF394-20200128,23011,7409042910,5,JF68471WMFL,,,575499141,80,20,4,8.38,28.8,TOY STORY HOODED TOWEL,9,,6,1/28/2020,1/31/2020,1/31/2020,20,6169,WAL-MART DC 6016A-ASM DIS,N 3920 IH 35,,NEW BRAUNFELS,TX,78130,USA,,J B HUNT
SLF940,JF2015,BE96316-001,JF394-20200128,23011,7409042910,6,JF37262WMFL,,,575950672,88,22,4,9.35,87.78,FROZEN MODDULAR 2PC BATH SET,9,,7,1/28/2020,1/31/2020,1/31/2020,20,6169,WAL-MART DC 6016A-ASM DIS,N 3920 IH 35,,NEW BRAUNFELS,TX,78130,USA,,J B HUNT
SLF940,JF2015,BE96316-001,JF394-20200128,23011,7409042910,7,JF68484WMFL,,,575950675,40,10,4,4.19,32.4,FROZEN 2 OLAF HOODED BATH TOWE,9,,8,1/28/2020,1/31/2020,1/31/2020,20,6169,WAL-MART DC 6016A-ASM DIS,N 3920 IH 35,,NEW BRAUNFELS,TX,78130,USA,,J B HUNT
SLF940,JF2015,BE96316-001,JF394-20200128,23011,7409042910,8,JF68486WMFL,,,575950677,240,60,4,25.14,194.4,FROZEN 2 ELSA HOODED BATH TOWE,9,,9,1/28/2020,1/31/2020,1/31/2020,20,6169,WAL-MART DC 6016A-ASM DIS,N 3920 IH 35,,NEW BRAUNFELS,TX,78130,USA,,J B HUNT
SLF940,JF2015,BE96316-001,JF394-20200128,23011,7409042910,9,JF68485WMFL,,,575950678,40,10,4,4.19,32.4,FROZEN 2 ANNA HOODED BATH TOWE,9,,10,1/28/2020,1/31/2020,1/31/2020,20,6169,WAL-MART DC 6016A-ASM DIS,N 3920 IH 35,,NEW BRAUNFELS,TX,78130,USA,,J B HUNT
SLF940,JF2015,BE96318-001,JF394-20200128,23011,7113962827,1,JF68357WMFL,,,555503652,20,5,4,2.03,17.5,MICKEY STRIPES HOODED TOWEL,8,,1,1/28/2020,1/31/2020,1/31/2020,20,6179,WAL-MART DC 6017A-ASM DIS,2108 EAST TIPTON STREET,,SEYMOUR,IN,47274,USA,,J B HUNT
SLF940,JF2015,BE96318-001,JF394-20200128,23011,7113962827,2,JF35668WMFL,,,564331437,80,20,4,8.12,100,MINNIE CLASSIC HOODED TOWEL,8,,3,1/28/2020,1/31/2020,1/31/2020,20,6179,WAL-MART DC 6017A-ASM DIS,2108 EAST TIPTON STREET,,SEYMOUR,IN,47274,USA,,J B HUNT
SLF940,JF2015,BE96318-001,JF394-20200128,23011,7113962827,3,JF35671WMFL,,,564334102,24,4,6,2.076,20,MICKEY CLASSIC BATH TOWEL,8,,4,1/28/2020,1/31/2020,1/31/2020,20,6179,WAL-MART DC 6017A-ASM DIS,2108 EAST TIPTON STREET,,SEYMOUR,IN,47274,USA,,J B HUNT
SLF940,JF2015,BE96318-001,JF394-20200128,23011,7113962827,4,JF31984WMFL,,,566073660,84,21,4,8.925,84.21,SPIDERMAN 2PC BATH SET,8,,5,1/28/2020,1/31/2020,1/31/2020,20,6179,WAL-MART DC 6017A-ASM DIS,2108 EAST TIPTON STREET,,SEYMOUR,IN,47274,USA,,J B HUNT
SLF940,JF2015,BE96318-001,JF394-20200128,23011,7113962827,5,JF68470WMFL,,,575499142,8,2,4,0.838,2.88,LM PRINCESS ARIEL HOODED TOWEL,8,,6,1/28/2020,1/31/2020,1/31/2020,20,6179,WAL-MART DC 6017A-ASM DIS,2108 EAST TIPTON STREET,,SEYMOUR,IN,47274,USA,,J B HUNT
SLF940,JF2015,BE96318-001,JF394-20200128,23011,7113962827,6,JF37262WMFL,,,575950672,40,10,4,4.25,39.9,FROZEN MODDULAR 2PC BATH SET,8,,7,1/28/2020,1/31/2020,1/31/2020,20,6179,WAL-MART DC 6017A-ASM DIS,2108 EAST TIPTON STREET,,SEYMOUR,IN,47274,USA,,J B HUNT
SLF940,JF2015,BE96318-001,JF394-20200128,23011,7113962827,7,JF68484WMFL,,,575950675,40,10,4,4.19,32.4,FROZEN 2 OLAF HOODED BATH TOWE,8,,8,1/28/2020,1/31/2020,1/31/2020,20,6179,WAL-MART DC 6017A-ASM DIS,2108 EAST TIPTON STREET,,SEYMOUR,IN,47274,USA,,J B HUNT
SLF940,JF2015,BE96318-001,JF394-20200128,23011,7113962827,8,JF68486WMFL,,,575950677,240,60,4,25.14,194.4,FROZEN 2 ELSA HOODED BATH TOWE,8,,9,1/28/2020,1/31/2020,1/31/2020,20,6179,WAL-MART DC 6017A-ASM DIS,2108 EAST TIPTON STREET,,SEYMOUR,IN,47274,USA,,J B HUNT
SLF940,JF2015,BE96320-001,JF394-20200128,23011,5309382787,1,JF68357WMFL,,,555503652,12,3,4,1.218,10.5,MICKEY STRIPES HOODED TOWEL,9,,1,1/28/2020,1/31/2020,1/31/2020,20,6189,WAL-MART DC 6018A-ASM DIS,2103 SOUTH MAIN,,SEARCY,AR,72143,USA,,J B HUNT
SLF940,JF2015,BE96320-001,JF394-20200128,23011,5309382787,2,JF35668WMFL,,,564331437,32,8,4,3.248,40,MINNIE CLASSIC HOODED TOWEL,9,,2,1/28/2020,1/31/2020,1/31/2020,20,6189,WAL-MART DC 6018A-ASM DIS,2103 SOUTH MAIN,,SEARCY,AR,72143,USA,,J B HUNT
SLF940,JF2015,BE96320-001,JF394-20200128,23011,5309382787,3,JF35671WMFL,,,564334102,12,2,6,1.038,10,MICKEY CLASSIC BATH TOWEL,9,,3,1/28/2020,1/31/2020,1/31/2020,20,6189,WAL-MART DC 6018A-ASM DIS,2103 SOUTH MAIN,,SEARCY,AR,72143,USA,,J B HUNT
SLF940,JF2015,BE96320-001,JF394-20200128,23011,5309382787,4,JF31984WMFL,,,566073660,112,28,4,11.9,112.28,SPIDERMAN 2PC BATH SET,9,,4,1/28/2020,1/31/2020,1/31/2020,20,6189,WAL-MART DC 6018A-ASM DIS,2103 SOUTH MAIN,,SEARCY,AR,72143,USA,,J B HUNT
SLF940,JF2015,BE96320-001,JF394-20200128,23011,5309382787,5,JF68745WMFL,,,568575459,40,10,4,4.58,30.8,JOJO WOW UNICORN HOODED TOWEL,9,,5,1/28/2020,1/31/2020,1/31/2020,20,6189,WAL-MART DC 6018A-ASM DIS,2103 SOUTH MAIN,,SEARCY,AR,72143,USA,,J B HUNT
SLF940,JF2015,BE96320-001,JF394-20200128,23011,5309382787,6,JF68471WMFL,,,575499141,16,4,4,1.676,5.76,TOY STORY HOODED TOWEL,9,,6,1/28/2020,1/31/2020,1/31/2020,20,6189,WAL-MART DC 6018A-ASM DIS,2103 SOUTH MAIN,,SEARCY,AR,72143,USA,,J B HUNT
SLF940,JF2015,BE96320-001,JF394-20200128,23011,5309382787,7,JF68470WMFL,,,575499142,4,1,4,0.419,1.44,LM PRINCESS ARIEL HOODED TOWEL,9,,7,1/28/2020,1/31/2020,1/31/2020,20,6189,WAL-MART DC 6018A-ASM DIS,2103 SOUTH MAIN,,SEARCY,AR,72143,USA,,J B HUNT
SLF940,JF2015,BE96320-001,JF394-20200128,23011,5309382787,8,JF68484WMFL,,,575950675,24,6,4,2.514,19.44,FROZEN 2 OLAF HOODED BATH TOWE,9,,8,1/28/2020,1/31/2020,1/31/2020,20,6189,WAL-MART DC 6018A-ASM DIS,2103 SOUTH MAIN,,SEARCY,AR,72143,USA,,J B HUNT
SLF940,JF2015,BE96320-001,JF394-20200128,23011,5309382787,9,JF68486WMFL,,,575950677,80,20,4,8.38,64.8,FROZEN 2 ELSA HOODED BATH TOWE,9,,9,1/28/2020,1/31/2020,1/31/2020,20,6189,WAL-MART DC 6018A-ASM DIS,2103 SOUTH MAIN,,SEARCY,AR,72143,USA,,J B HUNT
SLF940,JF2015,BE96322-001,JF394-20200128,23011,1109392850,1,JF68357WMFL,,,555503652,16,4,4,1.624,14,MICKEY STRIPES HOODED TOWEL,8,,1,1/28/2020,1/31/2020,1/31/2020,20,6199,WAL-MART DC 6019A-ASM DIS,7504 EAST CROSSROADS BOULEVARD,,LOVELAND,CO,80538,USA,,J B HUNT
SLF940,JF2015,BE96322-001,JF394-20200128,23011,1109392850,2,JF35668WMFL,,,564331437,40,10,4,4.06,50,MINNIE CLASSIC HOODED TOWEL,8,,3,1/28/2020,1/31/2020,1/31/2020,20,6199,WAL-MART DC 6019A-ASM DIS,7504 EAST CROSSROADS BOULEVARD,,LOVELAND,CO,80538,USA,,J B HUNT
SLF940,JF2015,BE96322-001,JF394-20200128,23011,1109392850,3,JF35672WMFL,,,564331438,16,4,4,0.452,20,MICKEY CLASSIC HAND TOWEL,8,,4,1/28/2020,1/31/2020,1/31/2020,20,6199,WAL-MART DC 6019A-ASM DIS,7504 EAST CROSSROADS BOULEVARD,,LOVELAND,CO,80538,USA,,J B HUNT
SLF940,JF2015,BE96322-001,JF394-20200128,23011,1109392850,4,JF68745WMFL,,,568575459,32,8,4,3.664,24.64,JOJO WOW UNICORN HOODED TOWEL,8,,5,1/28/2020,1/31/2020,1/31/2020,20,6199,WAL-MART DC 6019A-ASM DIS,7504 EAST CROSSROADS BOULEVARD,,LOVELAND,CO,80538,USA,,J B HUNT
SLF940,JF2015,BE96322-001,JF394-20200128,23011,1109392850,5,JF37262WMFL,,,575950672,48,12,4,5.1,47.88,FROZEN MODDULAR 2PC BATH SET,8,,6,1/28/2020,1/31/2020,1/31/2020,20,6199,WAL-MART DC 6019A-ASM DIS,7504 EAST CROSSROADS BOULEVARD,,LOVELAND,CO,80538,USA,,J B HUNT
SLF940,JF2015,BE96322-001,JF394-20200128,23011,1109392850,6,JF68484WMFL,,,575950675,40,10,4,4.19,32.4,FROZEN 2 OLAF HOODED BATH TOWE,8,,7,1/28/2020,1/31/2020,1/31/2020,20,6199,WAL-MART DC 6019A-ASM DIS,7504 EAST CROSSROADS BOULEVARD,,LOVELAND,CO,80538,USA,,J B HUNT
SLF940,JF2015,BE96322-001,JF394-20200128,23011,1109392850,7,JF68486WMFL,,,575950677,240,60,4,25.14,194.4,FROZEN 2 ELSA HOODED BATH TOWE,8,,8,1/28/2020,1/31/2020,1/31/2020,20,6199,WAL-MART DC 6019A-ASM DIS,7504 EAST CROSSROADS BOULEVARD,,LOVELAND,CO,80538,USA,,J B HUNT
SLF940,JF2015,BE96322-001,JF394-20200128,23011,1109392850,8,JF68485WMFL,,,575950678,20,5,4,2.095,16.2,FROZEN 2 ANNA HOODED BATH TOWE,8,,9,1/28/2020,1/31/2020,1/31/2020,20,6199,WAL-MART DC 6019A-ASM DIS,7504 EAST CROSSROADS BOULEVARD,,LOVELAND,CO,80538,USA,,J B HUNT
SLF940,JF2015,BE96323-001,JF394-20200128,23011,5009382960,1,JF68357WMFL,,,555503652,72,18,4,7.308,63,MICKEY STRIPES HOODED TOWEL,9,,1,1/28/2020,1/31/2020,1/31/2020,20,6209,WAL-MART DC 6020A-ASM DIS,4224 KETTERING ROAD,,BROOKSVILLE,FL,34602,USA,,J B HUNT
SLF940,JF2015,BE96323-001,JF394-20200128,23011,5009382960,2,JF35668WMFL,,,564331437,80,20,4,8.12,100,MINNIE CLASSIC HOODED TOWEL,9,,3,1/28/2020,1/31/2020,1/31/2020,20,6209,WAL-MART DC 6020A-ASM DIS,4224 KETTERING ROAD,,BROOKSVILLE,FL,34602,USA,,J B HUNT
SLF940,JF2015,BE96323-001,JF394-20200128,23011,5009382960,3,JF35672WMFL,,,564331438,72,18,4,2.034,90,MICKEY CLASSIC HAND TOWEL,9,,4,1/28/2020,1/31/2020,1/31/2020,20,6209,WAL-MART DC 6020A-ASM DIS,4224 KETTERING ROAD,,BROOKSVILLE,FL,34602,USA,,J B HUNT
SLF940,JF2015,BE96323-001,JF394-20200128,23011,5009382960,4,JF35671WMFL,,,564334102,84,14,6,7.266,70,MICKEY CLASSIC BATH TOWEL,9,,5,1/28/2020,1/31/2020,1/31/2020,20,6209,WAL-MART DC 6020A-ASM DIS,4224 KETTERING ROAD,,BROOKSVILLE,FL,34602,USA,,J B HUNT
SLF940,JF2015,BE96323-001,JF394-20200128,23011,5009382960,5,JF31984WMFL,,,566073660,88,22,4,9.35,88.22,SPIDERMAN 2PC BATH SET,9,,6,1/28/2020,1/31/2020,1/31/2020,20,6209,WAL-MART DC 6020A-ASM DIS,4224 KETTERING ROAD,,BROOKSVILLE,FL,34602,USA,,J B HUNT
SLF940,JF2015,BE96323-001,JF394-20200128,23011,5009382960,6,JF68054WMFL,,,573492459,20,5,4,2.095,7.2,LION KING HOODED TOWEL,9,,7,1/28/2020,1/31/2020,1/31/2020,20,6209,WAL-MART DC 6020A-ASM DIS,4224 KETTERING ROAD,,BROOKSVILLE,FL,34602,USA,,J B HUNT
SLF940,JF2015,BE96323-001,JF394-20200128,23011,5009382960,7,JF37262WMFL,,,575950672,136,34,4,14.45,135.66,FROZEN MODDULAR 2PC BATH SET,9,,8,1/28/2020,1/31/2020,1/31/2020,20,6209,WAL-MART DC 6020A-ASM DIS,4224 KETTERING ROAD,,BROOKSVILLE,FL,34602,USA,,J B HUNT
SLF940,JF2015,BE96323-001,JF394-20200128,23011,5009382960,8,JF68484WMFL,,,575950675,40,10,4,4.19,32.4,FROZEN 2 OLAF HOODED BATH TOWE,9,,9,1/28/2020,1/31/2020,1/31/2020,20,6209,WAL-MART DC 6020A-ASM DIS,4224 KETTERING ROAD,,BROOKSVILLE,FL,34602,USA,,J B HUNT
SLF940,JF2015,BE96323-001,JF394-20200128,23011,5009382960,9,JF68486WMFL,,,575950677,160,40,4,16.76,129.6,FROZEN 2 ELSA HOODED BATH TOWE,9,,10,1/28/2020,1/31/2020,1/31/2020,20,6209,WAL-MART DC 6020A-ASM DIS,4224 KETTERING ROAD,,BROOKSVILLE,FL,34602,USA,,J B HUNT
SLF940,JF2015,BE96325-001,JF394-20200128,23011,5913792855,1,JF68357WMFL,,,555503652,72,18,4,7.308,63,MICKEY STRIPES HOODED TOWEL,7,,1,1/28/2020,1/31/2020,1/31/2020,20,6219,WAL-MART DC 6021A-ASM DIS,1005 SOUTH H STREET,,PORTERVILLE,CA,93257,USA,,J B HUNT
SLF940,JF2015,BE96325-001,JF394-20200128,23011,5913792855,2,JF35668WMFL,,,564331437,40,10,4,4.06,50,MINNIE CLASSIC HOODED TOWEL,7,,3,1/28/2020,1/31/2020,1/31/2020,20,6219,WAL-MART DC 6021A-ASM DIS,1005 SOUTH H STREET,,PORTERVILLE,CA,93257,USA,,J B HUNT
SLF940,JF2015,BE96325-001,JF394-20200128,23011,5913792855,3,JF31984WMFL,,,566073660,88,22,4,9.35,88.22,SPIDERMAN 2PC BATH SET,7,,4,1/28/2020,1/31/2020,1/31/2020,20,6219,WAL-MART DC 6021A-ASM DIS,1005 SOUTH H STREET,,PORTERVILLE,CA,93257,USA,,J B HUNT
SLF940,JF2015,BE96325-001,JF394-20200128,23011,5913792855,4,JF37262WMFL,,,575950672,72,18,4,7.65,71.82,FROZEN MODDULAR 2PC BATH SET,7,,5,1/28/2020,1/31/2020,1/31/2020,20,6219,WAL-MART DC 6021A-ASM DIS,1005 SOUTH H STREET,,PORTERVILLE,CA,93257,USA,,J B HUNT
SLF940,JF2015,BE96325-001,JF394-20200128,23011,5913792855,5,JF68484WMFL,,,575950675,40,10,4,4.19,32.4,FROZEN 2 OLAF HOODED BATH TOWE,7,,6,1/28/2020,1/31/2020,1/31/2020,20,6219,WAL-MART DC 6021A-ASM DIS,1005 SOUTH H STREET,,PORTERVILLE,CA,93257,USA,,J B HUNT
SLF940,JF2015,BE96325-001,JF394-20200128,23011,5913792855,6,JF68486WMFL,,,575950677,320,80,4,33.52,259.2,FROZEN 2 ELSA HOODED BATH TOWE,7,,7,1/28/2020,1/31/2020,1/31/2020,20,6219,WAL-MART DC 6021A-ASM DIS,1005 SOUTH H STREET,,PORTERVILLE,CA,93257,USA,,J B HUNT
SLF940,JF2015,BE96325-001,JF394-20200128,23011,5913792855,7,JF68485WMFL,,,575950678,40,10,4,4.19,32.4,FROZEN 2 ANNA HOODED BATH TOWE,7,,8,1/28/2020,1/31/2020,1/31/2020,20,6219,WAL-MART DC 6021A-ASM DIS,1005 SOUTH H STREET,,PORTERVILLE,CA,93257,USA,,J B HUNT
SLF940,JF2015,BE96326-001,JF394-20200128,23011,5259382741,1,JF35672WMFL,,,564331438,16,4,4,0.452,20,MICKEY CLASSIC HAND TOWEL,8,,2,1/28/2020,1/31/2020,1/31/2020,20,6239,WAL-MART DC 6023A-ASM DIS,21504 COX ROAD,,SUTHERLAND,VA,23885,USA,,J B HUNT
SLF940,JF2015,BE96326-001,JF394-20200128,23011,5259382741,2,JF35671WMFL,,,564334102,48,8,6,4.152,40,MICKEY CLASSIC BATH TOWEL,8,,3,1/28/2020,1/31/2020,1/31/2020,20,6239,WAL-MART DC 6023A-ASM DIS,21504 COX ROAD,,SUTHERLAND,VA,23885,USA,,J B HUNT
SLF940,JF2015,BE96326-001,JF394-20200128,23011,5259382741,3,JF31984WMFL,,,566073660,72,18,4,7.65,72.18,SPIDERMAN 2PC BATH SET,8,,4,1/28/2020,1/31/2020,1/31/2020,20,6239,WAL-MART DC 6023A-ASM DIS,21504 COX ROAD,,SUTHERLAND,VA,23885,USA,,J B HUNT
SLF940,JF2015,BE96326-001,JF394-20200128,23011,5259382741,4,JF68745WMFL,,,568575459,52,13,4,5.954,40.04,JOJO WOW UNICORN HOODED TOWEL,8,,5,1/28/2020,1/31/2020,1/31/2020,20,6239,WAL-MART DC 6023A-ASM DIS,21504 COX ROAD,,SUTHERLAND,VA,23885,USA,,J B HUNT
SLF940,JF2015,BE96326-001,JF394-20200128,23011,5259382741,5,JF68054WMFL,,,573492459,8,2,4,0.838,2.88,LION KING HOODED TOWEL,8,,6,1/28/2020,1/31/2020,1/31/2020,20,6239,WAL-MART DC 6023A-ASM DIS,21504 COX ROAD,,SUTHERLAND,VA,23885,USA,,J B HUNT
SLF940,JF2015,BE96326-001,JF394-20200128,23011,5259382741,6,JF37262WMFL,,,575950672,40,10,4,4.25,39.9,FROZEN MODDULAR 2PC BATH SET,8,,7,1/28/2020,1/31/2020,1/31/2020,20,6239,WAL-MART DC 6023A-ASM DIS,21504 COX ROAD,,SUTHERLAND,VA,23885,USA,,J B HUNT
SLF940,JF2015,BE96326-001,JF394-20200128,23011,5259382741,7,JF68484WMFL,,,575950675,36,9,4,3.771,29.16,FROZEN 2 OLAF HOODED BATH TOWE,8,,8,1/28/2020,1/31/2020,1/31/2020,20,6239,WAL-MART DC 6023A-ASM DIS,21504 COX ROAD,,SUTHERLAND,VA,23885,USA,,J B HUNT
SLF940,JF2015,BE96326-001,JF394-20200128,23011,5259382741,8,JF68486WMFL,,,575950677,80,20,4,8.38,64.8,FROZEN 2 ELSA HOODED BATH TOWE,8,,9,1/28/2020,1/31/2020,1/31/2020,20,6239,WAL-MART DC 6023A-ASM DIS,21504 COX ROAD,,SUTHERLAND,VA,23885,USA,,J B HUNT
SLF940,JF2015,BE96328-001,JF394-20200128,23011,7859162923,1,JF68357WMFL,,,555503652,20,5,4,2.03,17.5,MICKEY STRIPES HOODED TOWEL,9,,1,1/28/2020,1/31/2020,1/31/2020,20,6249,WAL-MART DC 6024A-ASM DIS,3880 SOUTHWEST BLVD.,,GROVE CITY,OH,43123,USA,,J B HUNT
SLF940,JF2015,BE96328-001,JF394-20200128,23011,7859162923,2,JF35668WMFL,,,564331437,80,20,4,8.12,100,MINNIE CLASSIC HOODED TOWEL,9,,3,1/28/2020,1/31/2020,1/31/2020,20,6249,WAL-MART DC 6024A-ASM DIS,3880 SOUTHWEST BLVD.,,GROVE CITY,OH,43123,USA,,J B HUNT
SLF940,JF2015,BE96328-001,JF394-20200128,23011,7859162923,3,JF35671WMFL,,,564334102,24,4,6,2.076,20,MICKEY CLASSIC BATH TOWEL,9,,4,1/28/2020,1/31/2020,1/31/2020,20,6249,WAL-MART DC 6024A-ASM DIS,3880 SOUTHWEST BLVD.,,GROVE CITY,OH,43123,USA,,J B HUNT
SLF940,JF2015,BE96328-001,JF394-20200128,23011,7859162923,4,JF31984WMFL,,,566073660,88,22,4,9.35,88.22,SPIDERMAN 2PC BATH SET,9,,5,1/28/2020,1/31/2020,1/31/2020,20,6249,WAL-MART DC 6024A-ASM DIS,3880 SOUTHWEST BLVD.,,GROVE CITY,OH,43123,USA,,J B HUNT
SLF940,JF2015,BE96328-001,JF394-20200128,23011,7859162923,5,JF68471WMFL,,,575499141,40,10,4,4.19,14.4,TOY STORY HOODED TOWEL,9,,6,1/28/2020,1/31/2020,1/31/2020,20,6249,WAL-MART DC 6024A-ASM DIS,3880 SOUTHWEST BLVD.,,GROVE CITY,OH,43123,USA,,J B HUNT
SLF940,JF2015,BE96328-001,JF394-20200128,23011,7859162923,6,JF37262WMFL,,,575950672,88,22,4,9.35,87.78,FROZEN MODDULAR 2PC BATH SET,9,,7,1/28/2020,1/31/2020,1/31/2020,20,6249,WAL-MART DC 6024A-ASM DIS,3880 SOUTHWEST BLVD.,,GROVE CITY,OH,43123,USA,,J B HUNT
SLF940,JF2015,BE96328-001,JF394-20200128,23011,7859162923,7,JF68484WMFL,,,575950675,40,10,4,4.19,32.4,FROZEN 2 OLAF HOODED BATH TOWE,9,,8,1/28/2020,1/31/2020,1/31/2020,20,6249,WAL-MART DC 6024A-ASM DIS,3880 SOUTHWEST BLVD.,,GROVE CITY,OH,43123,USA,,J B HUNT
SLF940,JF2015,BE96328-001,JF394-20200128,23011,7859162923,8,JF68486WMFL,,,575950677,160,40,4,16.76,129.6,FROZEN 2 ELSA HOODED BATH TOWE,9,,9,1/28/2020,1/31/2020,1/31/2020,20,6249,WAL-MART DC 6024A-ASM DIS,3880 SOUTHWEST BLVD.,,GROVE CITY,OH,43123,USA,,J B HUNT
SLF940,JF2015,BE96328-001,JF394-20200128,23011,7859162923,9,JF68485WMFL,,,575950678,24,6,4,2.514,19.44,FROZEN 2 ANNA HOODED BATH TOWE,9,,10,1/28/2020,1/31/2020,1/31/2020,20,6249,WAL-MART DC 6024A-ASM DIS,3880 SOUTHWEST BLVD.,,GROVE CITY,OH,43123,USA,,J B HUNT
SLF940,JF2015,BE96329-001,JF394-20200128,23011,5958992864,1,JF35668WMFL,,,564331437,32,8,4,3.248,40,MINNIE CLASSIC HOODED TOWEL,6,,2,1/28/2020,1/31/2020,1/31/2020,20,6259,WAL-MART DC 6025A-ASM DIS,6140 3M DRIVE,,MENOMONIE,WI,54751,USA,,J B HUNT
SLF940,JF2015,BE96329-001,JF394-20200128,23011,5958992864,2,JF35671WMFL,,,564334102,12,2,6,1.038,10,MICKEY CLASSIC BATH TOWEL,6,,3,1/28/2020,1/31/2020,1/31/2020,20,6259,WAL-MART DC 6025A-ASM DIS,6140 3M DRIVE,,MENOMONIE,WI,54751,USA,,J B HUNT
SLF940,JF2015,BE96329-001,JF394-20200128,23011,5958992864,3,JF31984WMFL,,,566073660,36,9,4,3.825,36.09,SPIDERMAN 2PC BATH SET,6,,4,1/28/2020,1/31/2020,1/31/2020,20,6259,WAL-MART DC 6025A-ASM DIS,6140 3M DRIVE,,MENOMONIE,WI,54751,USA,,J B HUNT
SLF940,JF2015,BE96329-001,JF394-20200128,23011,5958992864,4,JF68484WMFL,,,575950675,40,10,4,4.19,32.4,FROZEN 2 OLAF HOODED BATH TOWE,6,,5,1/28/2020,1/31/2020,1/31/2020,20,6259,WAL-MART DC 6025A-ASM DIS,6140 3M DRIVE,,MENOMONIE,WI,54751,USA,,J B HUNT
SLF940,JF2015,BE96329-001,JF394-20200128,23011,5958992864,5,JF68486WMFL,,,575950677,160,40,4,16.76,129.6,FROZEN 2 ELSA HOODED BATH TOWE,6,,6,1/28/2020,1/31/2020,1/31/2020,20,6259,WAL-MART DC 6025A-ASM DIS,6140 3M DRIVE,,MENOMONIE,WI,54751,USA,,J B HUNT
SLF940,JF2015,BE96329-001,JF394-20200128,23011,5958992864,6,JF68485WMFL,,,575950678,24,6,4,2.514,19.44,FROZEN 2 ANNA HOODED BATH TOWE,6,,7,1/28/2020,1/31/2020,1/31/2020,20,6259,WAL-MART DC 6025A-ASM DIS,6140 3M DRIVE,,MENOMONIE,WI,54751,USA,,J B HUNT
SLF940,JF2015,BE96330-001,JF394-20200128,23011,5214182894,1,JF31984WMFL,,,566073660,64,16,4,6.8,64.16,SPIDERMAN 2PC BATH SET,4,,2,1/28/2020,1/31/2020,1/31/2020,20,6269,WAL-MART DC 6026A-ASM DIS,10817 HWY 99W,,RED BLUFF,CA,96080,USA,,J B HUNT
SLF940,JF2015,BE96330-001,JF394-20200128,23011,5214182894,2,JF68745WMFL,,,568575459,52,13,4,5.954,40.04,JOJO WOW UNICORN HOODED TOWEL,4,,3,1/28/2020,1/31/2020,1/31/2020,20,6269,WAL-MART DC 6026A-ASM DIS,10817 HWY 99W,,RED BLUFF,CA,96080,USA,,J B HUNT
SLF940,JF2015,BE96330-001,JF394-20200128,23011,5214182894,3,JF68484WMFL,,,575950675,40,10,4,4.19,32.4,FROZEN 2 OLAF HOODED BATH TOWE,4,,4,1/28/2020,1/31/2020,1/31/2020,20,6269,WAL-MART DC 6026A-ASM DIS,10817 HWY 99W,,RED BLUFF,CA,96080,USA,,J B HUNT
SLF940,JF2015,BE96330-001,JF394-20200128,23011,5214182894,4,JF68486WMFL,,,575950677,120,30,4,12.57,97.2,FROZEN 2 ELSA HOODED BATH TOWE,4,,5,1/28/2020,1/31/2020,1/31/2020,20,6269,WAL-MART DC 6026A-ASM DIS,10817 HWY 99W,,RED BLUFF,CA,96080,USA,,J B HUNT
SLF940,JF2015,BE96331-001,JF394-20200128,23011,4359382792,1,JF68357WMFL,,,555503652,4,1,4,0.406,3.5,MICKEY STRIPES HOODED TOWEL,9,,1,1/28/2020,1/31/2020,1/31/2020,20,6279,WAL-MART DC 6027A-ASM DIS,300 WAL-MART DRIVE,ST RT 970,WOODLAND,PA,16881,USA,,J B HUNT
SLF940,JF2015,BE96331-001,JF394-20200128,23011,4359382792,2,JF35668WMFL,,,564331437,80,20,4,8.12,100,MINNIE CLASSIC HOODED TOWEL,9,,2,1/28/2020,1/31/2020,1/31/2020,20,6279,WAL-MART DC 6027A-ASM DIS,300 WAL-MART DRIVE,ST RT 970,WOODLAND,PA,16881,USA,,J B HUNT
SLF940,JF2015,BE96331-001,JF394-20200128,23011,4359382792,3,JF35672WMFL,,,564331438,8,2,4,0.226,10,MICKEY CLASSIC HAND TOWEL,9,,3,1/28/2020,1/31/2020,1/31/2020,20,6279,WAL-MART DC 6027A-ASM DIS,300 WAL-MART DRIVE,ST RT 970,WOODLAND,PA,16881,USA,,J B HUNT
SLF940,JF2015,BE96331-001,JF394-20200128,23011,4359382792,4,JF35671WMFL,,,564334102,24,4,6,2.076,20,MICKEY CLASSIC BATH TOWEL,9,,4,1/28/2020,1/31/2020,1/31/2020,20,6279,WAL-MART DC 6027A-ASM DIS,300 WAL-MART DRIVE,ST RT 970,WOODLAND,PA,16881,USA,,J B HUNT
SLF940,JF2015,BE96331-001,JF394-20200128,23011,4359382792,5,JF31984WMFL,,,566073660,84,21,4,8.925,84.21,SPIDERMAN 2PC BATH SET,9,,5,1/28/2020,1/31/2020,1/31/2020,20,6279,WAL-MART DC 6027A-ASM DIS,300 WAL-MART DRIVE,ST RT 970,WOODLAND,PA,16881,USA,,J B HUNT
SLF940,JF2015,BE96331-001,JF394-20200128,23011,4359382792,6,JF68745WMFL,,,568575459,48,12,4,5.496,36.96,JOJO WOW UNICORN HOODED TOWEL,9,,6,1/28/2020,1/31/2020,1/31/2020,20,6279,WAL-MART DC 6027A-ASM DIS,300 WAL-MART DRIVE,ST RT 970,WOODLAND,PA,16881,USA,,J B HUNT
SLF940,JF2015,BE96331-001,JF394-20200128,23011,4359382792,7,JF37262WMFL,,,575950672,76,19,4,8.075,75.81,FROZEN MODDULAR 2PC BATH SET,9,,7,1/28/2020,1/31/2020,1/31/2020,20,6279,WAL-MART DC 6027A-ASM DIS,300 WAL-MART DRIVE,ST RT 970,WOODLAND,PA,16881,USA,,J B HUNT
SLF940,JF2015,BE96331-001,JF394-20200128,23011,4359382792,8,JF68484WMFL,,,575950675,80,20,4,8.38,64.8,FROZEN 2 OLAF HOODED BATH TOWE,9,,8,1/28/2020,1/31/2020,1/31/2020,20,6279,WAL-MART DC 6027A-ASM DIS,300 WAL-MART DRIVE,ST RT 970,WOODLAND,PA,16881,USA,,J B HUNT
SLF940,JF2015,BE96331-001,JF394-20200128,23011,4359382792,9,JF68486WMFL,,,575950677,160,40,4,16.76,129.6,FROZEN 2 ELSA HOODED BATH TOWE,9,,9,1/28/2020,1/31/2020,1/31/2020,20,6279,WAL-MART DC 6027A-ASM DIS,300 WAL-MART DRIVE,ST RT 970,WOODLAND,PA,16881,USA,,J B HUNT
SLF940,JF2015,BE96332-001,JF394-20200128,23011,4859382705,1,JF68357WMFL,,,555503652,24,6,4,2.436,21,MICKEY STRIPES HOODED TOWEL,9,,1,1/28/2020,1/31/2020,1/31/2020,20,6309,WAL-MART DC 6030A-ASM DIS,42-D FREETOWN ROAD,,RAYMOND,NH,3077,USA,,J B HUNT
SLF940,JF2015,BE96332-001,JF394-20200128,23011,4859382705,2,JF35671WMFL,,,564334102,18,3,6,1.557,15,MICKEY CLASSIC BATH TOWEL,9,,3,1/28/2020,1/31/2020,1/31/2020,20,6309,WAL-MART DC 6030A-ASM DIS,42-D FREETOWN ROAD,,RAYMOND,NH,3077,USA,,J B HUNT
SLF940,JF2015,BE96332-001,JF394-20200128,23011,4859382705,3,JF31984WMFL,,,566073660,52,13,4,5.525,52.13,SPIDERMAN 2PC BATH SET,9,,4,1/28/2020,1/31/2020,1/31/2020,20,6309,WAL-MART DC 6030A-ASM DIS,42-D FREETOWN ROAD,,RAYMOND,NH,3077,USA,,J B HUNT
SLF940,JF2015,BE96332-001,JF394-20200128,23011,4859382705,4,JF68745WMFL,,,568575459,60,15,4,6.87,46.2,JOJO WOW UNICORN HOODED TOWEL,9,,5,1/28/2020,1/31/2020,1/31/2020,20,6309,WAL-MART DC 6030A-ASM DIS,42-D FREETOWN ROAD,,RAYMOND,NH,3077,USA,,J B HUNT
SLF940,JF2015,BE96332-001,JF394-20200128,23011,4859382705,5,JF68471WMFL,,,575499141,40,10,4,4.19,14.4,TOY STORY HOODED TOWEL,9,,6,1/28/2020,1/31/2020,1/31/2020,20,6309,WAL-MART DC 6030A-ASM DIS,42-D FREETOWN ROAD,,RAYMOND,NH,3077,USA,,J B HUNT
SLF940,JF2015,BE96332-001,JF394-20200128,23011,4859382705,6,JF37262WMFL,,,575950672,88,22,4,9.35,87.78,FROZEN MODDULAR 2PC BATH SET,9,,7,1/28/2020,1/31/2020,1/31/2020,20,6309,WAL-MART DC 6030A-ASM DIS,42-D FREETOWN ROAD,,RAYMOND,NH,3077,USA,,J B HUNT
SLF940,JF2015,BE96332-001,JF394-20200128,23011,4859382705,7,JF68484WMFL,,,575950675,40,10,4,4.19,32.4,FROZEN 2 OLAF HOODED BATH TOWE,9,,8,1/28/2020,1/31/2020,1/31/2020,20,6309,WAL-MART DC 6030A-ASM DIS,42-D FREETOWN ROAD,,RAYMOND,NH,3077,USA,,J B HUNT
SLF940,JF2015,BE96332-001,JF394-20200128,23011,4859382705,8,JF68486WMFL,,,575950677,160,40,4,16.76,129.6,FROZEN 2 ELSA HOODED BATH TOWE,9,,9,1/28/2020,1/31/2020,1/31/2020,20,6309,WAL-MART DC 6030A-ASM DIS,42-D FREETOWN ROAD,,RAYMOND,NH,3077,USA,,J B HUNT
SLF940,JF2015,BE96332-001,JF394-20200128,23011,4859382705,9,JF68485WMFL,,,575950678,28,7,4,2.933,22.68,FROZEN 2 ANNA HOODED BATH TOWE,9,,10,1/28/2020,1/31/2020,1/31/2020,20,6309,WAL-MART DC 6030A-ASM DIS,42-D FREETOWN ROAD,,RAYMOND,NH,3077,USA,,J B HUNT
SLF940,JF2015,BE96334-001,JF394-20200128,23011,5858992925,1,JF35668WMFL,,,564331437,80,20,4,8.12,100,MINNIE CLASSIC HOODED TOWEL,9,,2,1/28/2020,1/31/2020,1/31/2020,20,6319,WAL-MART DC 6031A-ASM DIS,23701 WEST SOUTHERN AVE,,BUCKEYE,AZ,85326,USA,,J B HUNT
SLF940,JF2015,BE96334-001,JF394-20200128,23011,5858992925,2,JF35672WMFL,,,564331438,12,3,4,0.339,15,MICKEY CLASSIC HAND TOWEL,9,,3,1/28/2020,1/31/2020,1/31/2020,20,6319,WAL-MART DC 6031A-ASM DIS,23701 WEST SOUTHERN AVE,,BUCKEYE,AZ,85326,USA,,J B HUNT
SLF940,JF2015,BE96334-001,JF394-20200128,23011,5858992925,3,JF35671WMFL,,,564334102,48,8,6,4.152,40,MICKEY CLASSIC BATH TOWEL,9,,4,1/28/2020,1/31/2020,1/31/2020,20,6319,WAL-MART DC 6031A-ASM DIS,23701 WEST SOUTHERN AVE,,BUCKEYE,AZ,85326,USA,,J B HUNT
SLF940,JF2015,BE96334-001,JF394-20200128,23011,5858992925,4,JF31984WMFL,,,566073660,88,22,4,9.35,88.22,SPIDERMAN 2PC BATH SET,9,,5,1/28/2020,1/31/2020,1/31/2020,20,6319,WAL-MART DC 6031A-ASM DIS,23701 WEST SOUTHERN AVE,,BUCKEYE,AZ,85326,USA,,J B HUNT
SLF940,JF2015,BE96334-001,JF394-20200128,23011,5858992925,5,JF68745WMFL,,,568575459,44,11,4,5.038,33.88,JOJO WOW UNICORN HOODED TOWEL,9,,6,1/28/2020,1/31/2020,1/31/2020,20,6319,WAL-MART DC 6031A-ASM DIS,23701 WEST SOUTHERN AVE,,BUCKEYE,AZ,85326,USA,,J B HUNT
SLF940,JF2015,BE96334-001,JF394-20200128,23011,5858992925,6,JF68471WMFL,,,575499141,40,10,4,4.19,14.4,TOY STORY HOODED TOWEL,9,,7,1/28/2020,1/31/2020,1/31/2020,20,6319,WAL-MART DC 6031A-ASM DIS,23701 WEST SOUTHERN AVE,,BUCKEYE,AZ,85326,USA,,J B HUNT
SLF940,JF2015,BE96334-001,JF394-20200128,23011,5858992925,7,JF37262WMFL,,,575950672,60,15,4,6.375,59.85,FROZEN MODDULAR 2PC BATH SET,9,,8,1/28/2020,1/31/2020,1/31/2020,20,6319,WAL-MART DC 6031A-ASM DIS,23701 WEST SOUTHERN AVE,,BUCKEYE,AZ,85326,USA,,J B HUNT
SLF940,JF2015,BE96334-001,JF394-20200128,23011,5858992925,8,JF68484WMFL,,,575950675,40,10,4,4.19,32.4,FROZEN 2 OLAF HOODED BATH TOWE,9,,9,1/28/2020,1/31/2020,1/31/2020,20,6319,WAL-MART DC 6031A-ASM DIS,23701 WEST SOUTHERN AVE,,BUCKEYE,AZ,85326,USA,,J B HUNT
SLF940,JF2015,BE96334-001,JF394-20200128,23011,5858992925,9,JF68486WMFL,,,575950677,240,60,4,25.14,194.4,FROZEN 2 ELSA HOODED BATH TOWE,9,,10,1/28/2020,1/31/2020,1/31/2020,20,6319,WAL-MART DC 6031A-ASM DIS,23701 WEST SOUTHERN AVE,,BUCKEYE,AZ,85326,USA,,J B HUNT
SLF940,JF2015,BE96335-001,JF394-20200128,23011,5213482844,1,JF68357WMFL,,,555503652,8,2,4,0.812,7,MICKEY STRIPES HOODED TOWEL,10,,1,1/28/2020,1/31/2020,1/31/2020,20,6359,WAL-MART DC 6035A-ASM DIS,3220 NEVADA TERRACE,,OTTAWA,KS,66067,USA,,J B HUNT
SLF940,JF2015,BE96335-001,JF394-20200128,23011,5213482844,2,JF35668WMFL,,,564331437,40,10,4,4.06,50,MINNIE CLASSIC HOODED TOWEL,10,,3,1/28/2020,1/31/2020,1/31/2020,20,6359,WAL-MART DC 6035A-ASM DIS,3220 NEVADA TERRACE,,OTTAWA,KS,66067,USA,,J B HUNT
SLF940,JF2015,BE96335-001,JF394-20200128,23011,5213482844,3,JF35672WMFL,,,564331438,20,5,4,0.565,25,MICKEY CLASSIC HAND TOWEL,10,,4,1/28/2020,1/31/2020,1/31/2020,20,6359,WAL-MART DC 6035A-ASM DIS,3220 NEVADA TERRACE,,OTTAWA,KS,66067,USA,,J B HUNT
SLF940,JF2015,BE96335-001,JF394-20200128,23011,5213482844,4,JF35671WMFL,,,564334102,24,4,6,2.076,20,MICKEY CLASSIC BATH TOWEL,10,,5,1/28/2020,1/31/2020,1/31/2020,20,6359,WAL-MART DC 6035A-ASM DIS,3220 NEVADA TERRACE,,OTTAWA,KS,66067,USA,,J B HUNT
SLF940,JF2015,BE96335-001,JF394-20200128,23011,5213482844,5,JF31984WMFL,,,566073660,48,12,4,5.1,48.12,SPIDERMAN 2PC BATH SET,10,,6,1/28/2020,1/31/2020,1/31/2020,20,6359,WAL-MART DC 6035A-ASM DIS,3220 NEVADA TERRACE,,OTTAWA,KS,66067,USA,,J B HUNT
SLF940,JF2015,BE96335-001,JF394-20200128,23011,5213482844,6,JF68745WMFL,,,568575459,44,11,4,5.038,33.88,JOJO WOW UNICORN HOODED TOWEL,10,,7,1/28/2020,1/31/2020,1/31/2020,20,6359,WAL-MART DC 6035A-ASM DIS,3220 NEVADA TERRACE,,OTTAWA,KS,66067,USA,,J B HUNT
SLF940,JF2015,BE96335-001,JF394-20200128,23011,5213482844,7,JF37262WMFL,,,575950672,68,17,4,7.225,67.83,FROZEN MODDULAR 2PC BATH SET,10,,8,1/28/2020,1/31/2020,1/31/2020,20,6359,WAL-MART DC 6035A-ASM DIS,3220 NEVADA TERRACE,,OTTAWA,KS,66067,USA,,J B HUNT
SLF940,JF2015,BE96335-001,JF394-20200128,23011,5213482844,8,JF68484WMFL,,,575950675,32,8,4,3.352,25.92,FROZEN 2 OLAF HOODED BATH TOWE,10,,9,1/28/2020,1/31/2020,1/31/2020,20,6359,WAL-MART DC 6035A-ASM DIS,3220 NEVADA TERRACE,,OTTAWA,KS,66067,USA,,J B HUNT
SLF940,JF2015,BE96335-001,JF394-20200128,23011,5213482844,9,JF68486WMFL,,,575950677,80,20,4,8.38,64.8,FROZEN 2 ELSA HOODED BATH TOWE,10,,10,1/28/2020,1/31/2020,1/31/2020,20,6359,WAL-MART DC 6035A-ASM DIS,3220 NEVADA TERRACE,,OTTAWA,KS,66067,USA,,J B HUNT
SLF940,JF2015,BE96335-001,JF394-20200128,23011,5213482844,10,JF68485WMFL,,,575950678,16,4,4,1.676,12.96,FROZEN 2 ANNA HOODED BATH TOWE,10,,11,1/28/2020,1/31/2020,1/31/2020,20,6359,WAL-MART DC 6035A-ASM DIS,3220 NEVADA TERRACE,,OTTAWA,KS,66067,USA,,J B HUNT
SLF940,JF2015,BE96336-001,JF394-20200128,23011,2809312788,1,JF68357WMFL,,,555503652,20,5,4,2.03,17.5,MICKEY STRIPES HOODED TOWEL,8,,1,1/28/2020,1/31/2020,1/31/2020,20,6369,WAL-MART DC 6036A-ASM DIS,14863 FM 645 UNIT A,,PALESTINE,TX,75803,USA,,J B HUNT
SLF940,JF2015,BE96336-001,JF394-20200128,23011,2809312788,2,JF35672WMFL,,,564331438,12,3,4,0.339,15,MICKEY CLASSIC HAND TOWEL,8,,3,1/28/2020,1/31/2020,1/31/2020,20,6369,WAL-MART DC 6036A-ASM DIS,14863 FM 645 UNIT A,,PALESTINE,TX,75803,USA,,J B HUNT
SLF940,JF2015,BE96336-001,JF394-20200128,23011,2809312788,3,JF35671WMFL,,,564334102,72,12,6,6.228,60,MICKEY CLASSIC BATH TOWEL,8,,4,1/28/2020,1/31/2020,1/31/2020,20,6369,WAL-MART DC 6036A-ASM DIS,14863 FM 645 UNIT A,,PALESTINE,TX,75803,USA,,J B HUNT
SLF940,JF2015,BE96336-001,JF394-20200128,23011,2809312788,4,JF31984WMFL,,,566073660,80,20,4,8.5,80.2,SPIDERMAN 2PC BATH SET,8,,5,1/28/2020,1/31/2020,1/31/2020,20,6369,WAL-MART DC 6036A-ASM DIS,14863 FM 645 UNIT A,,PALESTINE,TX,75803,USA,,J B HUNT
SLF940,JF2015,BE96336-001,JF394-20200128,23011,2809312788,5,JF37262WMFL,,,575950672,44,11,4,4.675,43.89,FROZEN MODDULAR 2PC BATH SET,8,,6,1/28/2020,1/31/2020,1/31/2020,20,6369,WAL-MART DC 6036A-ASM DIS,14863 FM 645 UNIT A,,PALESTINE,TX,75803,USA,,J B HUNT
SLF940,JF2015,BE96336-001,JF394-20200128,23011,2809312788,6,JF68484WMFL,,,575950675,28,7,4,2.933,22.68,FROZEN 2 OLAF HOODED BATH TOWE,8,,7,1/28/2020,1/31/2020,1/31/2020,20,6369,WAL-MART DC 6036A-ASM DIS,14863 FM 645 UNIT A,,PALESTINE,TX,75803,USA,,J B HUNT
SLF940,JF2015,BE96336-001,JF394-20200128,23011,2809312788,7,JF68486WMFL,,,575950677,160,40,4,16.76,129.6,FROZEN 2 ELSA HOODED BATH TOWE,8,,8,1/28/2020,1/31/2020,1/31/2020,20,6369,WAL-MART DC 6036A-ASM DIS,14863 FM 645 UNIT A,,PALESTINE,TX,75803,USA,,J B HUNT
SLF940,JF2015,BE96336-001,JF394-20200128,23011,2809312788,8,JF68485WMFL,,,575950678,16,4,4,1.676,12.96,FROZEN 2 ANNA HOODED BATH TOWE,8,,9,1/28/2020,1/31/2020,1/31/2020,20,6369,WAL-MART DC 6036A-ASM DIS,14863 FM 645 UNIT A,,PALESTINE,TX,75803,USA,,J B HUNT
SLF940,JF2015,BE96337-001,JF394-20200128,23011,7909163132,1,JF35668WMFL,,,564331437,40,10,4,4.06,50,MINNIE CLASSIC HOODED TOWEL,8,,2,1/28/2020,1/31/2020,1/31/2020,20,6379,WAL-MART DC 6037A-ASM DIS,2650 HWY 395 SOUTH,,HERMISTON,OR,97838,USA,,J B HUNT
SLF940,JF2015,BE96337-001,JF394-20200128,23011,7909163132,2,JF35672WMFL,,,564331438,8,2,4,0.226,10,MICKEY CLASSIC HAND TOWEL,8,,3,1/28/2020,1/31/2020,1/31/2020,20,6379,WAL-MART DC 6037A-ASM DIS,2650 HWY 395 SOUTH,,HERMISTON,OR,97838,USA,,J B HUNT
SLF940,JF2015,BE96337-001,JF394-20200128,23011,7909163132,3,JF35671WMFL,,,564334102,24,4,6,2.076,20,MICKEY CLASSIC BATH TOWEL,8,,4,1/28/2020,1/31/2020,1/31/2020,20,6379,WAL-MART DC 6037A-ASM DIS,2650 HWY 395 SOUTH,,HERMISTON,OR,97838,USA,,J B HUNT
SLF940,JF2015,BE96337-001,JF394-20200128,23011,7909163132,4,JF31984WMFL,,,566073660,56,14,4,5.95,56.14,SPIDERMAN 2PC BATH SET,8,,5,1/28/2020,1/31/2020,1/31/2020,20,6379,WAL-MART DC 6037A-ASM DIS,2650 HWY 395 SOUTH,,HERMISTON,OR,97838,USA,,J B HUNT
SLF940,JF2015,BE96337-001,JF394-20200128,23011,7909163132,5,JF68745WMFL,,,568575459,60,15,4,6.87,46.2,JOJO WOW UNICORN HOODED TOWEL,8,,6,1/28/2020,1/31/2020,1/31/2020,20,6379,WAL-MART DC 6037A-ASM DIS,2650 HWY 395 SOUTH,,HERMISTON,OR,97838,USA,,J B HUNT
SLF940,JF2015,BE96337-001,JF394-20200128,23011,7909163132,6,JF37262WMFL,,,575950672,80,20,4,8.5,79.8,FROZEN MODDULAR 2PC BATH SET,8,,7,1/28/2020,1/31/2020,1/31/2020,20,6379,WAL-MART DC 6037A-ASM DIS,2650 HWY 395 SOUTH,,HERMISTON,OR,97838,USA,,J B HUNT
SLF940,JF2015,BE96337-001,JF394-20200128,23011,7909163132,7,JF68484WMFL,,,575950675,40,10,4,4.19,32.4,FROZEN 2 OLAF HOODED BATH TOWE,8,,8,1/28/2020,1/31/2020,1/31/2020,20,6379,WAL-MART DC 6037A-ASM DIS,2650 HWY 395 SOUTH,,HERMISTON,OR,97838,USA,,J B HUNT
SLF940,JF2015,BE96337-001,JF394-20200128,23011,7909163132,8,JF68486WMFL,,,575950677,120,30,4,12.57,97.2,FROZEN 2 ELSA HOODED BATH TOWE,8,,9,1/28/2020,1/31/2020,1/31/2020,20,6379,WAL-MART DC 6037A-ASM DIS,2650 HWY 395 SOUTH,,HERMISTON,OR,97838,USA,,J B HUNT
SLF940,JF2015,BE96338-001,JF394-20200128,23011,4659382687,1,JF35668WMFL,,,564331437,40,10,4,4.06,50,MINNIE CLASSIC HOODED TOWEL,10,,2,1/28/2020,1/31/2020,1/31/2020,20,6389,WAL-MART DC 6038A-ASM DIS,8827D OLD RIVER RD,,MARCY,NY,13403,USA,,J B HUNT
SLF940,JF2015,BE96338-001,JF394-20200128,23011,4659382687,2,JF35672WMFL,,,564331438,36,9,4,1.017,45,MICKEY CLASSIC HAND TOWEL,10,,3,1/28/2020,1/31/2020,1/31/2020,20,6389,WAL-MART DC 6038A-ASM DIS,8827D OLD RIVER RD,,MARCY,NY,13403,USA,,J B HUNT
SLF940,JF2015,BE96338-001,JF394-20200128,23011,4659382687,3,JF35671WMFL,,,564334102,36,6,6,3.114,30,MICKEY CLASSIC BATH TOWEL,10,,4,1/28/2020,1/31/2020,1/31/2020,20,6389,WAL-MART DC 6038A-ASM DIS,8827D OLD RIVER RD,,MARCY,NY,13403,USA,,J B HUNT
SLF940,JF2015,BE96338-001,JF394-20200128,23011,4659382687,4,JF31984WMFL,,,566073660,88,22,4,9.35,88.22,SPIDERMAN 2PC BATH SET,10,,5,1/28/2020,1/31/2020,1/31/2020,20,6389,WAL-MART DC 6038A-ASM DIS,8827D OLD RIVER RD,,MARCY,NY,13403,USA,,J B HUNT
SLF940,JF2015,BE96338-001,JF394-20200128,23011,4659382687,5,JF68745WMFL,,,568575459,76,19,4,8.702,58.52,JOJO WOW UNICORN HOODED TOWEL,10,,6,1/28/2020,1/31/2020,1/31/2020,20,6389,WAL-MART DC 6038A-ASM DIS,8827D OLD RIVER RD,,MARCY,NY,13403,USA,,J B HUNT
SLF940,JF2015,BE96338-001,JF394-20200128,23011,4659382687,6,JF68471WMFL,,,575499141,48,12,4,5.028,17.28,TOY STORY HOODED TOWEL,10,,7,1/28/2020,1/31/2020,1/31/2020,20,6389,WAL-MART DC 6038A-ASM DIS,8827D OLD RIVER RD,,MARCY,NY,13403,USA,,J B HUNT
SLF940,JF2015,BE96338-001,JF394-20200128,23011,4659382687,7,JF68470WMFL,,,575499142,44,11,4,4.609,15.84,LM PRINCESS ARIEL HOODED TOWEL,10,,8,1/28/2020,1/31/2020,1/31/2020,20,6389,WAL-MART DC 6038A-ASM DIS,8827D OLD RIVER RD,,MARCY,NY,13403,USA,,J B HUNT
SLF940,JF2015,BE96338-001,JF394-20200128,23011,4659382687,8,JF37262WMFL,,,575950672,88,22,4,9.35,87.78,FROZEN MODDULAR 2PC BATH SET,10,,9,1/28/2020,1/31/2020,1/31/2020,20,6389,WAL-MART DC 6038A-ASM DIS,8827D OLD RIVER RD,,MARCY,NY,13403,USA,,J B HUNT
SLF940,JF2015,BE96338-001,JF394-20200128,23011,4659382687,9,JF68484WMFL,,,575950675,40,10,4,4.19,32.4,FROZEN 2 OLAF HOODED BATH TOWE,10,,10,1/28/2020,1/31/2020,1/31/2020,20,6389,WAL-MART DC 6038A-ASM DIS,8827D OLD RIVER RD,,MARCY,NY,13403,USA,,J B HUNT
SLF940,JF2015,BE96338-001,JF394-20200128,23011,4659382687,10,JF68486WMFL,,,575950677,120,30,4,12.57,97.2,FROZEN 2 ELSA HOODED BATH TOWE,10,,11,1/28/2020,1/31/2020,1/31/2020,20,6389,WAL-MART DC 6038A-ASM DIS,8827D OLD RIVER RD,,MARCY,NY,13403,USA,,J B HUNT
SLF940,JF2015,BE96340-001,JF394-20200128,23011,5258682782,1,JF68357WMFL,,,555503652,16,4,4,1.624,14,MICKEY STRIPES HOODED TOWEL,5,,1,1/28/2020,1/31/2020,1/31/2020,20,6399,WAL-MART DC 6039A-ASM DIS,1659 POTTERTOWN RD,,MIDWAY,TN,37809,USA,,J B HUNT
SLF940,JF2015,BE96340-001,JF394-20200128,23011,5258682782,2,JF35668WMFL,,,564331437,36,9,4,3.654,45,MINNIE CLASSIC HOODED TOWEL,5,,3,1/28/2020,1/31/2020,1/31/2020,20,6399,WAL-MART DC 6039A-ASM DIS,1659 POTTERTOWN RD,,MIDWAY,TN,37809,USA,,J B HUNT
SLF940,JF2015,BE96340-001,JF394-20200128,23011,5258682782,3,JF68470WMFL,,,575499142,8,2,4,0.838,2.88,LM PRINCESS ARIEL HOODED TOWEL,5,,4,1/28/2020,1/31/2020,1/31/2020,20,6399,WAL-MART DC 6039A-ASM DIS,1659 POTTERTOWN RD,,MIDWAY,TN,37809,USA,,J B HUNT
SLF940,JF2015,BE96340-001,JF394-20200128,23011,5258682782,4,JF68484WMFL,,,575950675,24,6,4,2.514,19.44,FROZEN 2 OLAF HOODED BATH TOWE,5,,5,1/28/2020,1/31/2020,1/31/2020,20,6399,WAL-MART DC 6039A-ASM DIS,1659 POTTERTOWN RD,,MIDWAY,TN,37809,USA,,J B HUNT
SLF940,JF2015,BE96340-001,JF394-20200128,23011,5258682782,5,JF68486WMFL,,,575950677,80,20,4,8.38,64.8,FROZEN 2 ELSA HOODED BATH TOWE,5,,6,1/28/2020,1/31/2020,1/31/2020,20,6399,WAL-MART DC 6039A-ASM DIS,1659 POTTERTOWN RD,,MIDWAY,TN,37809,USA,,J B HUNT
SLF940,JF2015,BE96341-001,JF394-20200128,23011,4714182778,1,JF35671WMFL,,,564334102,24,4,6,2.076,20,MICKEY CLASSIC BATH TOWEL,5,,1,1/28/2020,1/31/2020,1/31/2020,20,6409,WAL-MART DC 6040A-ASM DIS,1010 PRODUCTION DRIVE,,HOPE MILLS,NC,28348,USA,,J B HUNT
SLF940,JF2015,BE96341-001,JF394-20200128,23011,4714182778,2,JF68745WMFL,,,568575459,64,16,4,7.328,49.28,JOJO WOW UNICORN HOODED TOWEL,5,,2,1/28/2020,1/31/2020,1/31/2020,20,6409,WAL-MART DC 6040A-ASM DIS,1010 PRODUCTION DRIVE,,HOPE MILLS,NC,28348,USA,,J B HUNT
SLF940,JF2015,BE96341-001,JF394-20200128,23011,4714182778,3,JF37262WMFL,,,575950672,48,12,4,5.1,47.88,FROZEN MODDULAR 2PC BATH SET,5,,3,1/28/2020,1/31/2020,1/31/2020,20,6409,WAL-MART DC 6040A-ASM DIS,1010 PRODUCTION DRIVE,,HOPE MILLS,NC,28348,USA,,J B HUNT
SLF940,JF2015,BE96341-001,JF394-20200128,23011,4714182778,4,JF68484WMFL,,,575950675,36,9,4,3.771,29.16,FROZEN 2 OLAF HOODED BATH TOWE,5,,4,1/28/2020,1/31/2020,1/31/2020,20,6409,WAL-MART DC 6040A-ASM DIS,1010 PRODUCTION DRIVE,,HOPE MILLS,NC,28348,USA,,J B HUNT
SLF940,JF2015,BE96341-001,JF394-20200128,23011,4714182778,5,JF68486WMFL,,,575950677,40,10,4,4.19,32.4,FROZEN 2 ELSA HOODED BATH TOWE,5,,5,1/28/2020,1/31/2020,1/31/2020,20,6409,WAL-MART DC 6040A-ASM DIS,1010 PRODUCTION DRIVE,,HOPE MILLS,NC,28348,USA,,J B HUNT
SLF940,JF2015,BE96342-001,JF394-20200128,23011,5309112775,1,JF35672WMFL,,,564331438,32,8,4,0.904,40,MICKEY CLASSIC HAND TOWEL,6,,2,1/28/2020,1/31/2020,1/31/2020,20,6439,WAL-MART DC 6043A-ASM DIS,492 JONESVILLE ROAD,,COLDWATER,MI,49036,USA,,J B HUNT
SLF940,JF2015,BE96342-001,JF394-20200128,23011,5309112775,2,JF35671WMFL,,,564334102,24,4,6,2.076,20,MICKEY CLASSIC BATH TOWEL,6,,3,1/28/2020,1/31/2020,1/31/2020,20,6439,WAL-MART DC 6043A-ASM DIS,492 JONESVILLE ROAD,,COLDWATER,MI,49036,USA,,J B HUNT
SLF940,JF2015,BE96342-001,JF394-20200128,23011,5309112775,3,JF31984WMFL,,,566073660,88,22,4,9.35,88.22,SPIDERMAN 2PC BATH SET,6,,4,1/28/2020,1/31/2020,1/31/2020,20,6439,WAL-MART DC 6043A-ASM DIS,492 JONESVILLE ROAD,,COLDWATER,MI,49036,USA,,J B HUNT
SLF940,JF2015,BE96342-001,JF394-20200128,23011,5309112775,4,JF68745WMFL,,,568575459,52,13,4,5.954,40.04,JOJO WOW UNICORN HOODED TOWEL,6,,5,1/28/2020,1/31/2020,1/31/2020,20,6439,WAL-MART DC 6043A-ASM DIS,492 JONESVILLE ROAD,,COLDWATER,MI,49036,USA,,J B HUNT
SLF940,JF2015,BE96342-001,JF394-20200128,23011,5309112775,5,JF37262WMFL,,,575950672,72,18,4,7.65,71.82,FROZEN MODDULAR 2PC BATH SET,6,,6,1/28/2020,1/31/2020,1/31/2020,20,6439,WAL-MART DC 6043A-ASM DIS,492 JONESVILLE ROAD,,COLDWATER,MI,49036,USA,,J B HUNT
SLF940,JF2015,BE96342-001,JF394-20200128,23011,5309112775,6,JF68486WMFL,,,575950677,120,30,4,12.57,97.2,FROZEN 2 ELSA HOODED BATH TOWE,6,,7,1/28/2020,1/31/2020,1/31/2020,20,6439,WAL-MART DC 6043A-ASM DIS,492 JONESVILLE ROAD,,COLDWATER,MI,49036,USA,,J B HUNT
SLF940,JF2015,BE96343-001,JF394-20200128,23011,4409382844,1,JF35671WMFL,,,564334102,6,1,6,0.519,5,MICKEY CLASSIC BATH TOWEL,7,,2,1/28/2020,1/31/2020,1/31/2020,20,6489,WAL-MART DC 6048A-ASM DIS,3022 HWY 743,,OPELOUSAS,LA,70570,USA,,J B HUNT
SLF940,JF2015,BE96343-001,JF394-20200128,23011,4409382844,2,JF68745WMFL,,,568575459,44,11,4,5.038,33.88,JOJO WOW UNICORN HOODED TOWEL,7,,3,1/28/2020,1/31/2020,1/31/2020,20,6489,WAL-MART DC 6048A-ASM DIS,3022 HWY 743,,OPELOUSAS,LA,70570,USA,,J B HUNT
SLF940,JF2015,BE96343-001,JF394-20200128,23011,4409382844,3,JF68054WMFL,,,573492459,4,1,4,0.419,1.44,LION KING HOODED TOWEL,7,,4,1/28/2020,1/31/2020,1/31/2020,20,6489,WAL-MART DC 6048A-ASM DIS,3022 HWY 743,,OPELOUSAS,LA,70570,USA,,J B HUNT
SLF940,JF2015,BE96343-001,JF394-20200128,23011,4409382844,4,JF37262WMFL,,,575950672,40,10,4,4.25,39.9,FROZEN MODDULAR 2PC BATH SET,7,,5,1/28/2020,1/31/2020,1/31/2020,20,6489,WAL-MART DC 6048A-ASM DIS,3022 HWY 743,,OPELOUSAS,LA,70570,USA,,J B HUNT
SLF940,JF2015,BE96343-001,JF394-20200128,23011,4409382844,5,JF68484WMFL,,,575950675,20,5,4,2.095,16.2,FROZEN 2 OLAF HOODED BATH TOWE,7,,6,1/28/2020,1/31/2020,1/31/2020,20,6489,WAL-MART DC 6048A-ASM DIS,3022 HWY 743,,OPELOUSAS,LA,70570,USA,,J B HUNT
SLF940,JF2015,BE96343-001,JF394-20200128,23011,4409382844,6,JF68486WMFL,,,575950677,40,10,4,4.19,32.4,FROZEN 2 ELSA HOODED BATH TOWE,7,,7,1/28/2020,1/31/2020,1/31/2020,20,6489,WAL-MART DC 6048A-ASM DIS,3022 HWY 743,,OPELOUSAS,LA,70570,USA,,J B HUNT
SLF940,JF2015,BE96343-001,JF394-20200128,23011,4409382844,7,JF68485WMFL,,,575950678,12,3,4,1.257,9.72,FROZEN 2 ANNA HOODED BATH TOWE,7,,8,1/28/2020,1/31/2020,1/31/2020,20,6489,WAL-MART DC 6048A-ASM DIS,3022 HWY 743,,OPELOUSAS,LA,70570,USA,,J B HUNT
SLF940,JF2015,BE96344-001,JF394-20200128,23011,5358682842,1,JF68357WMFL,,,555503652,36,9,4,3.654,31.5,MICKEY STRIPES HOODED TOWEL,8,,1,1/28/2020,1/31/2020,1/31/2020,20,6549,WAL-MART DC 6054A-ASM DIS,385 CALLAWAY CHURCH ROAD,,LA GRANGE,GA,30241,USA,,J B HUNT
SLF940,JF2015,BE96344-001,JF394-20200128,23011,5358682842,2,JF35671WMFL,,,564334102,30,5,6,2.595,25,MICKEY CLASSIC BATH TOWEL,8,,3,1/28/2020,1/31/2020,1/31/2020,20,6549,WAL-MART DC 6054A-ASM DIS,385 CALLAWAY CHURCH ROAD,,LA GRANGE,GA,30241,USA,,J B HUNT
SLF940,JF2015,BE96344-001,JF394-20200128,23011,5358682842,3,JF31984WMFL,,,566073660,88,22,4,9.35,88.22,SPIDERMAN 2PC BATH SET,8,,4,1/28/2020,1/31/2020,1/31/2020,20,6549,WAL-MART DC 6054A-ASM DIS,385 CALLAWAY CHURCH ROAD,,LA GRANGE,GA,30241,USA,,J B HUNT
SLF940,JF2015,BE96344-001,JF394-20200128,23011,5358682842,4,JF68745WMFL,,,568575459,60,15,4,6.87,46.2,JOJO WOW UNICORN HOODED TOWEL,8,,5,1/28/2020,1/31/2020,1/31/2020,20,6549,WAL-MART DC 6054A-ASM DIS,385 CALLAWAY CHURCH ROAD,,LA GRANGE,GA,30241,USA,,J B HUNT
SLF940,JF2015,BE96344-001,JF394-20200128,23011,5358682842,5,JF68471WMFL,,,575499141,48,12,4,5.028,17.28,TOY STORY HOODED TOWEL,8,,6,1/28/2020,1/31/2020,1/31/2020,20,6549,WAL-MART DC 6054A-ASM DIS,385 CALLAWAY CHURCH ROAD,,LA GRANGE,GA,30241,USA,,J B HUNT
SLF940,JF2015,BE96344-001,JF394-20200128,23011,5358682842,6,JF37262WMFL,,,575950672,44,11,4,4.675,43.89,FROZEN MODDULAR 2PC BATH SET,8,,7,1/28/2020,1/31/2020,1/31/2020,20,6549,WAL-MART DC 6054A-ASM DIS,385 CALLAWAY CHURCH ROAD,,LA GRANGE,GA,30241,USA,,J B HUNT
SLF940,JF2015,BE96344-001,JF394-20200128,23011,5358682842,7,JF68484WMFL,,,575950675,24,6,4,2.514,19.44,FROZEN 2 OLAF HOODED BATH TOWE,8,,8,1/28/2020,1/31/2020,1/31/2020,20,6549,WAL-MART DC 6054A-ASM DIS,385 CALLAWAY CHURCH ROAD,,LA GRANGE,GA,30241,USA,,J B HUNT
SLF940,JF2015,BE96344-001,JF394-20200128,23011,5358682842,8,JF68486WMFL,,,575950677,80,20,4,8.38,64.8,FROZEN 2 ELSA HOODED BATH TOWE,8,,9,1/28/2020,1/31/2020,1/31/2020,20,6549,WAL-MART DC 6054A-ASM DIS,385 CALLAWAY CHURCH ROAD,,LA GRANGE,GA,30241,USA,,J B HUNT
SLF940,JF2015,BE96346-001,JF394-20200128,23011,1009352886,1,JF68357WMFL,,,555503652,12,3,4,1.218,10.5,MICKEY STRIPES HOODED TOWEL,12,,1,1/28/2020,1/31/2020,1/31/2020,20,6669,WAL-MART DC 6066A-ASM DIS,694 CRENSHAW BLVD,,HOPKINSVILLE,KY,42240,USA,,J B HUNT
SLF940,JF2015,BE96346-001,JF394-20200128,23011,1009352886,2,JF68358WMFL,,,555503656,80,20,4,8.12,70,SPIDERMAN FACE ALTERNATIVE HOODED TOWEL,12,,2,1/28/2020,1/31/2020,1/31/2020,20,6669,WAL-MART DC 6066A-ASM DIS,694 CRENSHAW BLVD,,HOPKINSVILLE,KY,42240,USA,,J B HUNT
SLF940,JF2015,BE96346-001,JF394-20200128,23011,1009352886,3,JF35668WMFL,,,564331437,80,20,4,8.12,100,MINNIE CLASSIC HOODED TOWEL,12,,3,1/28/2020,1/31/2020,1/31/2020,20,6669,WAL-MART DC 6066A-ASM DIS,694 CRENSHAW BLVD,,HOPKINSVILLE,KY,42240,USA,,J B HUNT
SLF940,JF2015,BE96346-001,JF394-20200128,23011,1009352886,4,JF35672WMFL,,,564331438,12,3,4,0.339,15,MICKEY CLASSIC HAND TOWEL,12,,4,1/28/2020,1/31/2020,1/31/2020,20,6669,WAL-MART DC 6066A-ASM DIS,694 CRENSHAW BLVD,,HOPKINSVILLE,KY,42240,USA,,J B HUNT
SLF940,JF2015,BE96346-001,JF394-20200128,23011,1009352886,5,JF31984WMFL,,,566073660,56,14,4,5.95,56.14,SPIDERMAN 2PC BATH SET,12,,5,1/28/2020,1/31/2020,1/31/2020,20,6669,WAL-MART DC 6066A-ASM DIS,694 CRENSHAW BLVD,,HOPKINSVILLE,KY,42240,USA,,J B HUNT
SLF940,JF2015,BE96346-001,JF394-20200128,23011,1009352886,6,JF68745WMFL,,,568575459,60,15,4,6.87,46.2,JOJO WOW UNICORN HOODED TOWEL,12,,6,1/28/2020,1/31/2020,1/31/2020,20,6669,WAL-MART DC 6066A-ASM DIS,694 CRENSHAW BLVD,,HOPKINSVILLE,KY,42240,USA,,J B HUNT
SLF940,JF2015,BE96346-001,JF394-20200128,23011,1009352886,7,JF68054WMFL,,,573492459,8,2,4,0.838,2.88,LION KING HOODED TOWEL,12,,7,1/28/2020,1/31/2020,1/31/2020,20,6669,WAL-MART DC 6066A-ASM DIS,694 CRENSHAW BLVD,,HOPKINSVILLE,KY,42240,USA,,J B HUNT
SLF940,JF2015,BE96346-001,JF394-20200128,23011,1009352886,8,JF68471WMFL,,,575499141,24,6,4,2.514,8.64,TOY STORY HOODED TOWEL,12,,8,1/28/2020,1/31/2020,1/31/2020,20,6669,WAL-MART DC 6066A-ASM DIS,694 CRENSHAW BLVD,,HOPKINSVILLE,KY,42240,USA,,J B HUNT
SLF940,JF2015,BE96346-001,JF394-20200128,23011,1009352886,9,JF37262WMFL,,,575950672,48,12,4,5.1,47.88,FROZEN MODDULAR 2PC BATH SET,12,,9,1/28/2020,1/31/2020,1/31/2020,20,6669,WAL-MART DC 6066A-ASM DIS,694 CRENSHAW BLVD,,HOPKINSVILLE,KY,42240,USA,,J B HUNT
SLF940,JF2015,BE96346-001,JF394-20200128,23011,1009352886,10,JF68484WMFL,,,575950675,40,10,4,4.19,32.4,FROZEN 2 OLAF HOODED BATH TOWE,12,,10,1/28/2020,1/31/2020,1/31/2020,20,6669,WAL-MART DC 6066A-ASM DIS,694 CRENSHAW BLVD,,HOPKINSVILLE,KY,42240,USA,,J B HUNT
SLF940,JF2015,BE96346-001,JF394-20200128,23011,1009352886,11,JF68486WMFL,,,575950677,120,30,4,12.57,97.2,FROZEN 2 ELSA HOODED BATH TOWE,12,,11,1/28/2020,1/31/2020,1/31/2020,20,6669,WAL-MART DC 6066A-ASM DIS,694 CRENSHAW BLVD,,HOPKINSVILLE,KY,42240,USA,,J B HUNT
SLF940,JF2015,BE96346-001,JF394-20200128,23011,1009352886,12,JF68485WMFL,,,575950678,16,4,4,1.676,12.96,FROZEN 2 ANNA HOODED BATH TOWE,12,,12,1/28/2020,1/31/2020,1/31/2020,20,6669,WAL-MART DC 6066A-ASM DIS,694 CRENSHAW BLVD,,HOPKINSVILLE,KY,42240,USA,,J B HUNT
SLF940,JF2015,BE96348-001,JF394-20200128,23011,4759382881,1,JF68357WMFL,,,555503652,8,2,4,0.812,7,MICKEY STRIPES HOODED TOWEL,8,,1,1/28/2020,1/31/2020,1/31/2020,20,6689,WAL-MART DC 6068A-ASM DIS,221 LOIS RD,,SANGER,TX,76266,USA,,J B HUNT
SLF940,JF2015,BE96348-001,JF394-20200128,23011,4759382881,2,JF68358WMFL,,,555503656,156,39,4,15.834,136.5,SPIDERMAN FACE ALTERNATIVE HOODED TOWEL,8,,2,1/28/2020,1/31/2020,1/31/2020,20,6689,WAL-MART DC 6068A-ASM DIS,221 LOIS RD,,SANGER,TX,76266,USA,,J B HUNT
SLF940,JF2015,BE96348-001,JF394-20200128,23011,4759382881,3,JF35671WMFL,,,564334102,36,6,6,3.114,30,MICKEY CLASSIC BATH TOWEL,8,,3,1/28/2020,1/31/2020,1/31/2020,20,6689,WAL-MART DC 6068A-ASM DIS,221 LOIS RD,,SANGER,TX,76266,USA,,J B HUNT
SLF940,JF2015,BE96348-001,JF394-20200128,23011,4759382881,4,JF31984WMFL,,,566073660,76,19,4,8.075,76.19,SPIDERMAN 2PC BATH SET,8,,4,1/28/2020,1/31/2020,1/31/2020,20,6689,WAL-MART DC 6068A-ASM DIS,221 LOIS RD,,SANGER,TX,76266,USA,,J B HUNT
SLF940,JF2015,BE96348-001,JF394-20200128,23011,4759382881,5,JF37262WMFL,,,575950672,44,11,4,4.675,43.89,FROZEN MODDULAR 2PC BATH SET,8,,5,1/28/2020,1/31/2020,1/31/2020,20,6689,WAL-MART DC 6068A-ASM DIS,221 LOIS RD,,SANGER,TX,76266,USA,,J B HUNT
SLF940,JF2015,BE96348-001,JF394-20200128,23011,4759382881,6,JF68484WMFL,,,575950675,40,10,4,4.19,32.4,FROZEN 2 OLAF HOODED BATH TOWE,8,,6,1/28/2020,1/31/2020,1/31/2020,20,6689,WAL-MART DC 6068A-ASM DIS,221 LOIS RD,,SANGER,TX,76266,USA,,J B HUNT
SLF940,JF2015,BE96348-001,JF394-20200128,23011,4759382881,7,JF68486WMFL,,,575950677,240,60,4,25.14,194.4,FROZEN 2 ELSA HOODED BATH TOWE,8,,7,1/28/2020,1/31/2020,1/31/2020,20,6689,WAL-MART DC 6068A-ASM DIS,221 LOIS RD,,SANGER,TX,76266,USA,,J B HUNT
SLF940,JF2015,BE96348-001,JF394-20200128,23011,4759382881,8,JF68485WMFL,,,575950678,16,4,4,1.676,12.96,FROZEN 2 ANNA HOODED BATH TOWE,8,,8,1/28/2020,1/31/2020,1/31/2020,20,6689,WAL-MART DC 6068A-ASM DIS,221 LOIS RD,,SANGER,TX,76266,USA,,J B HUNT
SLF940,JF2015,BE96349-001,JF394-20200128,23011,6316060820,1,JF68358WMFL,,,555503656,72,18,4,7.308,63,SPIDERMAN FACE ALTERNATIVE HOODED TOWEL,9,,1,1/28/2020,1/31/2020,1/31/2020,20,6699,WAL-MART DC 6069A-ASM DIS,1200 MATLOCK DRIVE,,ST. JAMES,MO,65559,USA,,J B HUNT
SLF940,JF2015,BE96349-001,JF394-20200128,23011,6316060820,2,JF35668WMFL,,,564331437,76,19,4,7.714,95,MINNIE CLASSIC HOODED TOWEL,9,,2,1/28/2020,1/31/2020,1/31/2020,20,6699,WAL-MART DC 6069A-ASM DIS,1200 MATLOCK DRIVE,,ST. JAMES,MO,65559,USA,,J B HUNT
SLF940,JF2015,BE96349-001,JF394-20200128,23011,6316060820,3,JF35672WMFL,,,564331438,8,2,4,0.226,10,MICKEY CLASSIC HAND TOWEL,9,,3,1/28/2020,1/31/2020,1/31/2020,20,6699,WAL-MART DC 6069A-ASM DIS,1200 MATLOCK DRIVE,,ST. JAMES,MO,65559,USA,,J B HUNT
SLF940,JF2015,BE96349-001,JF394-20200128,23011,6316060820,4,JF35671WMFL,,,564334102,24,4,6,2.076,20,MICKEY CLASSIC BATH TOWEL,9,,4,1/28/2020,1/31/2020,1/31/2020,20,6699,WAL-MART DC 6069A-ASM DIS,1200 MATLOCK DRIVE,,ST. JAMES,MO,65559,USA,,J B HUNT
SLF940,JF2015,BE96349-001,JF394-20200128,23011,6316060820,5,JF31984WMFL,,,566073660,40,10,4,4.25,40.1,SPIDERMAN 2PC BATH SET,9,,5,1/28/2020,1/31/2020,1/31/2020,20,6699,WAL-MART DC 6069A-ASM DIS,1200 MATLOCK DRIVE,,ST. JAMES,MO,65559,USA,,J B HUNT
SLF940,JF2015,BE96349-001,JF394-20200128,23011,6316060820,6,JF68054WMFL,,,573492459,4,1,4,0.419,1.44,LION KING HOODED TOWEL,9,,6,1/28/2020,1/31/2020,1/31/2020,20,6699,WAL-MART DC 6069A-ASM DIS,1200 MATLOCK DRIVE,,ST. JAMES,MO,65559,USA,,J B HUNT
SLF940,JF2015,BE96349-001,JF394-20200128,23011,6316060820,7,JF68484WMFL,,,575950675,20,5,4,2.095,16.2,FROZEN 2 OLAF HOODED BATH TOWE,9,,7,1/28/2020,1/31/2020,1/31/2020,20,6699,WAL-MART DC 6069A-ASM DIS,1200 MATLOCK DRIVE,,ST. JAMES,MO,65559,USA,,J B HUNT
SLF940,JF2015,BE96349-001,JF394-20200128,23011,6316060820,8,JF68486WMFL,,,575950677,80,20,4,8.38,64.8,FROZEN 2 ELSA HOODED BATH TOWE,9,,8,1/28/2020,1/31/2020,1/31/2020,20,6699,WAL-MART DC 6069A-ASM DIS,1200 MATLOCK DRIVE,,ST. JAMES,MO,65559,USA,,J B HUNT
SLF940,JF2015,BE96349-001,JF394-20200128,23011,6316060820,9,JF68485WMFL,,,575950678,16,4,4,1.676,12.96,FROZEN 2 ANNA HOODED BATH TOWE,9,,9,1/28/2020,1/31/2020,1/31/2020,20,6699,WAL-MART DC 6069A-ASM DIS,1200 MATLOCK DRIVE,,ST. JAMES,MO,65559,USA,,J B HUNT
SLF940,JF2015,BE96350-001,JF394-20200128,23011,5359382829,1,JF68358WMFL,,,555503656,128,32,4,12.992,112,SPIDERMAN FACE ALTERNATIVE HOODED TOWEL,7,,1,1/28/2020,1/31/2020,1/31/2020,20,6709,WAL-MART DC 6070A-ASM DIS,220 WAL-MART DRIVE,,SHELBY,NC,28150,USA,,J B HUNT
SLF940,JF2015,BE96350-001,JF394-20200128,23011,5359382829,2,JF35672WMFL,,,564331438,20,5,4,0.565,25,MICKEY CLASSIC HAND TOWEL,7,,2,1/28/2020,1/31/2020,1/31/2020,20,6709,WAL-MART DC 6070A-ASM DIS,220 WAL-MART DRIVE,,SHELBY,NC,28150,USA,,J B HUNT
SLF940,JF2015,BE96350-001,JF394-20200128,23011,5359382829,3,JF35671WMFL,,,564334102,30,5,6,2.595,25,MICKEY CLASSIC BATH TOWEL,7,,3,1/28/2020,1/31/2020,1/31/2020,20,6709,WAL-MART DC 6070A-ASM DIS,220 WAL-MART DRIVE,,SHELBY,NC,28150,USA,,J B HUNT
SLF940,JF2015,BE96350-001,JF394-20200128,23011,5359382829,4,JF31984WMFL,,,566073660,84,21,4,8.925,84.21,SPIDERMAN 2PC BATH SET,7,,4,1/28/2020,1/31/2020,1/31/2020,20,6709,WAL-MART DC 6070A-ASM DIS,220 WAL-MART DRIVE,,SHELBY,NC,28150,USA,,J B HUNT
SLF940,JF2015,BE96350-001,JF394-20200128,23011,5359382829,5,JF37262WMFL,,,575950672,64,16,4,6.8,63.84,FROZEN MODDULAR 2PC BATH SET,7,,5,1/28/2020,1/31/2020,1/31/2020,20,6709,WAL-MART DC 6070A-ASM DIS,220 WAL-MART DRIVE,,SHELBY,NC,28150,USA,,J B HUNT
SLF940,JF2015,BE96350-001,JF394-20200128,23011,5359382829,6,JF68484WMFL,,,575950675,28,7,4,2.933,22.68,FROZEN 2 OLAF HOODED BATH TOWE,7,,6,1/28/2020,1/31/2020,1/31/2020,20,6709,WAL-MART DC 6070A-ASM DIS,220 WAL-MART DRIVE,,SHELBY,NC,28150,USA,,J B HUNT
SLF940,JF2015,BE96350-001,JF394-20200128,23011,5359382829,7,JF68486WMFL,,,575950677,160,40,4,16.76,129.6,FROZEN 2 ELSA HOODED BATH TOWE,7,,7,1/28/2020,1/31/2020,1/31/2020,20,6709,WAL-MART DC 6070A-ASM DIS,220 WAL-MART DRIVE,,SHELBY,NC,28150,USA,,J B HUNT
SLF940,JF2015,BE96351-001,JF394-20200128,23011,1109352925,1,JF68357WMFL,,,555503652,40,10,4,4.06,35,MICKEY STRIPES HOODED TOWEL,12,,1,1/28/2020,1/31/2020,1/31/2020,20,6809,WAL-MART DC 6080A-ASM DIS,300 VETERANS DRIVE,,TOBYHANNA,PA,18466,USA,,J B HUNT
SLF940,JF2015,BE96351-001,JF394-20200128,23011,1109352925,2,JF68358WMFL,,,555503656,288,72,4,29.232,252,SPIDERMAN FACE ALTERNATIVE HOODED TOWEL,12,,2,1/28/2020,1/31/2020,1/31/2020,20,6809,WAL-MART DC 6080A-ASM DIS,300 VETERANS DRIVE,,TOBYHANNA,PA,18466,USA,,J B HUNT
SLF940,JF2015,BE96351-001,JF394-20200128,23011,1109352925,3,JF35668WMFL,,,564331437,92,23,4,9.338,115,MINNIE CLASSIC HOODED TOWEL,12,,3,1/28/2020,1/31/2020,1/31/2020,20,6809,WAL-MART DC 6080A-ASM DIS,300 VETERANS DRIVE,,TOBYHANNA,PA,18466,USA,,J B HUNT
SLF940,JF2015,BE96351-001,JF394-20200128,23011,1109352925,4,JF35672WMFL,,,564331438,44,11,4,1.243,55,MICKEY CLASSIC HAND TOWEL,12,,4,1/28/2020,1/31/2020,1/31/2020,20,6809,WAL-MART DC 6080A-ASM DIS,300 VETERANS DRIVE,,TOBYHANNA,PA,18466,USA,,J B HUNT
SLF940,JF2015,BE96351-001,JF394-20200128,23011,1109352925,5,JF35671WMFL,,,564334102,36,6,6,3.114,30,MICKEY CLASSIC BATH TOWEL,12,,5,1/28/2020,1/31/2020,1/31/2020,20,6809,WAL-MART DC 6080A-ASM DIS,300 VETERANS DRIVE,,TOBYHANNA,PA,18466,USA,,J B HUNT
SLF940,JF2015,BE96351-001,JF394-20200128,23011,1109352925,6,JF31984WMFL,,,566073660,88,22,4,9.35,88.22,SPIDERMAN 2PC BATH SET,12,,6,1/28/2020,1/31/2020,1/31/2020,20,6809,WAL-MART DC 6080A-ASM DIS,300 VETERANS DRIVE,,TOBYHANNA,PA,18466,USA,,J B HUNT
SLF940,JF2015,BE96351-001,JF394-20200128,23011,1109352925,7,JF68745WMFL,,,568575459,96,24,4,10.992,73.92,JOJO WOW UNICORN HOODED TOWEL,12,,7,1/28/2020,1/31/2020,1/31/2020,20,6809,WAL-MART DC 6080A-ASM DIS,300 VETERANS DRIVE,,TOBYHANNA,PA,18466,USA,,J B HUNT
SLF940,JF2015,BE96351-001,JF394-20200128,23011,1109352925,8,JF68471WMFL,,,575499141,80,20,4,8.38,28.8,TOY STORY HOODED TOWEL,12,,8,1/28/2020,1/31/2020,1/31/2020,20,6809,WAL-MART DC 6080A-ASM DIS,300 VETERANS DRIVE,,TOBYHANNA,PA,18466,USA,,J B HUNT
SLF940,JF2015,BE96351-001,JF394-20200128,23011,1109352925,9,JF37262WMFL,,,575950672,176,44,4,18.7,175.56,FROZEN MODDULAR 2PC BATH SET,12,,9,1/28/2020,1/31/2020,1/31/2020,20,6809,WAL-MART DC 6080A-ASM DIS,300 VETERANS DRIVE,,TOBYHANNA,PA,18466,USA,,J B HUNT
SLF940,JF2015,BE96351-001,JF394-20200128,23011,1109352925,10,JF68484WMFL,,,575950675,52,13,4,5.447,42.12,FROZEN 2 OLAF HOODED BATH TOWE,12,,10,1/28/2020,1/31/2020,1/31/2020,20,6809,WAL-MART DC 6080A-ASM DIS,300 VETERANS DRIVE,,TOBYHANNA,PA,18466,USA,,J B HUNT
SLF940,JF2015,BE96351-001,JF394-20200128,23011,1109352925,11,JF68486WMFL,,,575950677,200,50,4,20.95,162,FROZEN 2 ELSA HOODED BATH TOWE,12,,11,1/28/2020,1/31/2020,1/31/2020,20,6809,WAL-MART DC 6080A-ASM DIS,300 VETERANS DRIVE,,TOBYHANNA,PA,18466,USA,,J B HUNT
SLF940,JF2015,BE96351-001,JF394-20200128,23011,1109352925,12,JF68485WMFL,,,575950678,40,10,4,4.19,32.4,FROZEN 2 ANNA HOODED BATH TOWE,12,,12,1/28/2020,1/31/2020,1/31/2020,20,6809,WAL-MART DC 6080A-ASM DIS,300 VETERANS DRIVE,,TOBYHANNA,PA,18466,USA,,J B HUNT
SLF940,JF2015,BE96353-001,JF394-20200128,23011,5059382832,1,JF68357WMFL,,,555503652,40,10,4,4.06,35,MICKEY STRIPES HOODED TOWEL,11,,1,1/28/2020,1/31/2020,1/31/2020,20,6929,WAL-MART DC 6092A-ASM DIS,3110 ILLINOIS HWY 89,,SPRING VALLEY,IL,61362,USA,,J B HUNT
SLF940,JF2015,BE96353-001,JF394-20200128,23011,5059382832,2,JF68358WMFL,,,555503656,80,20,4,8.12,70,SPIDERMAN FACE ALTERNATIVE HOODED TOWEL,11,,2,1/28/2020,1/31/2020,1/31/2020,20,6929,WAL-MART DC 6092A-ASM DIS,3110 ILLINOIS HWY 89,,SPRING VALLEY,IL,61362,USA,,J B HUNT
SLF940,JF2015,BE96353-001,JF394-20200128,23011,5059382832,3,JF35668WMFL,,,564331437,40,10,4,4.06,50,MINNIE CLASSIC HOODED TOWEL,11,,3,1/28/2020,1/31/2020,1/31/2020,20,6929,WAL-MART DC 6092A-ASM DIS,3110 ILLINOIS HWY 89,,SPRING VALLEY,IL,61362,USA,,J B HUNT
SLF940,JF2015,BE96353-001,JF394-20200128,23011,5059382832,4,JF35672WMFL,,,564331438,16,4,4,0.452,20,MICKEY CLASSIC HAND TOWEL,11,,4,1/28/2020,1/31/2020,1/31/2020,20,6929,WAL-MART DC 6092A-ASM DIS,3110 ILLINOIS HWY 89,,SPRING VALLEY,IL,61362,USA,,J B HUNT
SLF940,JF2015,BE96353-001,JF394-20200128,23011,5059382832,5,JF35671WMFL,,,564334102,24,4,6,2.076,20,MICKEY CLASSIC BATH TOWEL,11,,5,1/28/2020,1/31/2020,1/31/2020,20,6929,WAL-MART DC 6092A-ASM DIS,3110 ILLINOIS HWY 89,,SPRING VALLEY,IL,61362,USA,,J B HUNT
SLF940,JF2015,BE96353-001,JF394-20200128,23011,5059382832,6,JF31984WMFL,,,566073660,88,22,4,9.35,88.22,SPIDERMAN 2PC BATH SET,11,,6,1/28/2020,1/31/2020,1/31/2020,20,6929,WAL-MART DC 6092A-ASM DIS,3110 ILLINOIS HWY 89,,SPRING VALLEY,IL,61362,USA,,J B HUNT
SLF940,JF2015,BE96353-001,JF394-20200128,23011,5059382832,7,JF68745WMFL,,,568575459,76,19,4,8.702,58.52,JOJO WOW UNICORN HOODED TOWEL,11,,7,1/28/2020,1/31/2020,1/31/2020,20,6929,WAL-MART DC 6092A-ASM DIS,3110 ILLINOIS HWY 89,,SPRING VALLEY,IL,61362,USA,,J B HUNT
SLF940,JF2015,BE96353-001,JF394-20200128,23011,5059382832,8,JF68471WMFL,,,575499141,40,10,4,4.19,14.4,TOY STORY HOODED TOWEL,11,,8,1/28/2020,1/31/2020,1/31/2020,20,6929,WAL-MART DC 6092A-ASM DIS,3110 ILLINOIS HWY 89,,SPRING VALLEY,IL,61362,USA,,J B HUNT
SLF940,JF2015,BE96353-001,JF394-20200128,23011,5059382832,9,JF37262WMFL,,,575950672,88,22,4,9.35,87.78,FROZEN MODDULAR 2PC BATH SET,11,,9,1/28/2020,1/31/2020,1/31/2020,20,6929,WAL-MART DC 6092A-ASM DIS,3110 ILLINOIS HWY 89,,SPRING VALLEY,IL,61362,USA,,J B HUNT
SLF940,JF2015,BE96353-001,JF394-20200128,23011,5059382832,10,JF68484WMFL,,,575950675,80,20,4,8.38,64.8,FROZEN 2 OLAF HOODED BATH TOWE,11,,10,1/28/2020,1/31/2020,1/31/2020,20,6929,WAL-MART DC 6092A-ASM DIS,3110 ILLINOIS HWY 89,,SPRING VALLEY,IL,61362,USA,,J B HUNT
SLF940,JF2015,BE96353-001,JF394-20200128,23011,5059382832,11,JF68486WMFL,,,575950677,120,30,4,12.57,97.2,FROZEN 2 ELSA HOODED BATH TOWE,11,,11,1/28/2020,1/31/2020,1/31/2020,20,6929,WAL-MART DC 6092A-ASM DIS,3110 ILLINOIS HWY 89,,SPRING VALLEY,IL,61362,USA,,J B HUNT
SLF940,JF2015,BE96354-001,JF394-20200128,23011,2859312953,1,JF35671WMFL,,,564334102,12,2,6,1.038,10,MICKEY CLASSIC BATH TOWEL,7,,1,1/28/2020,1/31/2020,1/31/2020,20,6949,WAL-MART DC 6094A-ASM DIS,5841 SW REGIONAL AIRPORT BLVD,,BENTONVILLE,AR,72712,USA,,J B HUNT
SLF940,JF2015,BE96354-001,JF394-20200128,23011,2859312953,2,JF31984WMFL,,,566073660,44,11,4,4.675,44.11,SPIDERMAN 2PC BATH SET,7,,2,1/28/2020,1/31/2020,1/31/2020,20,6949,WAL-MART DC 6094A-ASM DIS,5841 SW REGIONAL AIRPORT BLVD,,BENTONVILLE,AR,72712,USA,,J B HUNT
SLF940,JF2015,BE96354-001,JF394-20200128,23011,2859312953,3,JF68745WMFL,,,568575459,36,9,4,4.122,27.72,JOJO WOW UNICORN HOODED TOWEL,7,,3,1/28/2020,1/31/2020,1/31/2020,20,6949,WAL-MART DC 6094A-ASM DIS,5841 SW REGIONAL AIRPORT BLVD,,BENTONVILLE,AR,72712,USA,,J B HUNT
SLF940,JF2015,BE96354-001,JF394-20200128,23011,2859312953,4,JF68054WMFL,,,573492459,8,2,4,0.838,2.88,LION KING HOODED TOWEL,7,,4,1/28/2020,1/31/2020,1/31/2020,20,6949,WAL-MART DC 6094A-ASM DIS,5841 SW REGIONAL AIRPORT BLVD,,BENTONVILLE,AR,72712,USA,,J B HUNT
SLF940,JF2015,BE96354-001,JF394-20200128,23011,2859312953,5,JF37262WMFL,,,575950672,52,13,4,5.525,51.87,FROZEN MODDULAR 2PC BATH SET,7,,5,1/28/2020,1/31/2020,1/31/2020,20,6949,WAL-MART DC 6094A-ASM DIS,5841 SW REGIONAL AIRPORT BLVD,,BENTONVILLE,AR,72712,USA,,J B HUNT
SLF940,JF2015,BE96354-001,JF394-20200128,23011,2859312953,6,JF68486WMFL,,,575950677,80,20,4,8.38,64.8,FROZEN 2 ELSA HOODED BATH TOWE,7,,6,1/28/2020,1/31/2020,1/31/2020,20,6949,WAL-MART DC 6094A-ASM DIS,5841 SW REGIONAL AIRPORT BLVD,,BENTONVILLE,AR,72712,USA,,J B HUNT
SLF940,JF2015,BE96354-001,JF394-20200128,23011,2859312953,7,JF68485WMFL,,,575950678,40,10,4,4.19,32.4,FROZEN 2 ANNA HOODED BATH TOWE,7,,7,1/28/2020,1/31/2020,1/31/2020,20,6949,WAL-MART DC 6094A-ASM DIS,5841 SW REGIONAL AIRPORT BLVD,,BENTONVILLE,AR,72712,USA,,J B HUNT
SLF940,JF2015,BE96355-001,JF394-20200128,23011,4509382805,1,JF68358WMFL,,,555503656,56,14,4,5.684,49,SPIDERMAN FACE ALTERNATIVE HOODED TOWEL,7,,1,1/28/2020,1/31/2020,1/31/2020,20,7269,WAL-MART DC 7026A-ASM DIS,945 NORTH STATE ROAD 138,,GRANTSVILLE,UT,84029,USA,,J B HUNT
SLF940,JF2015,BE96355-001,JF394-20200128,23011,4509382805,2,JF35671WMFL,,,564334102,12,2,6,1.038,10,MICKEY CLASSIC BATH TOWEL,7,,2,1/28/2020,1/31/2020,1/31/2020,20,7269,WAL-MART DC 7026A-ASM DIS,945 NORTH STATE ROAD 138,,GRANTSVILLE,UT,84029,USA,,J B HUNT
SLF940,JF2015,BE96355-001,JF394-20200128,23011,4509382805,3,JF31984WMFL,,,566073660,56,14,4,5.95,56.14,SPIDERMAN 2PC BATH SET,7,,3,1/28/2020,1/31/2020,1/31/2020,20,7269,WAL-MART DC 7026A-ASM DIS,945 NORTH STATE ROAD 138,,GRANTSVILLE,UT,84029,USA,,J B HUNT
SLF940,JF2015,BE96355-001,JF394-20200128,23011,4509382805,4,JF68745WMFL,,,568575459,40,10,4,4.58,30.8,JOJO WOW UNICORN HOODED TOWEL,7,,4,1/28/2020,1/31/2020,1/31/2020,20,7269,WAL-MART DC 7026A-ASM DIS,945 NORTH STATE ROAD 138,,GRANTSVILLE,UT,84029,USA,,J B HUNT
SLF940,JF2015,BE96355-001,JF394-20200128,23011,4509382805,5,JF37262WMFL,,,575950672,44,11,4,4.675,43.89,FROZEN MODDULAR 2PC BATH SET,7,,5,1/28/2020,1/31/2020,1/31/2020,20,7269,WAL-MART DC 7026A-ASM DIS,945 NORTH STATE ROAD 138,,GRANTSVILLE,UT,84029,USA,,J B HUNT
SLF940,JF2015,BE96355-001,JF394-20200128,23011,4509382805,6,JF68484WMFL,,,575950675,48,12,4,5.028,38.88,FROZEN 2 OLAF HOODED BATH TOWE,7,,6,1/28/2020,1/31/2020,1/31/2020,20,7269,WAL-MART DC 7026A-ASM DIS,945 NORTH STATE ROAD 138,,GRANTSVILLE,UT,84029,USA,,J B HUNT
SLF940,JF2015,BE96355-001,JF394-20200128,23011,4509382805,7,JF68486WMFL,,,575950677,120,30,4,12.57,97.2,FROZEN 2 ELSA HOODED BATH TOWE,7,,7,1/28/2020,1/31/2020,1/31/2020,20,7269,WAL-MART DC 7026A-ASM DIS,945 NORTH STATE ROAD 138,,GRANTSVILLE,UT,84029,USA,,J B HUNT
SLF940,JF2015,BE96357-001,JF394-20200128,23011,4809382966,1,JF68357WMFL,,,555503652,44,11,4,4.466,38.5,MICKEY STRIPES HOODED TOWEL,10,,1,1/28/2020,1/31/2020,1/31/2020,20,7339,WAL-MART DC 7033A-ASM DIS,21101 JOHNSON ROAD,,APPLE VALLEY,CA,92307,USA,,J B HUNT
SLF940,JF2015,BE96357-001,JF394-20200128,23011,4809382966,2,JF68358WMFL,,,555503656,148,37,4,15.022,129.5,SPIDERMAN FACE ALTERNATIVE HOODED TOWEL,10,,2,1/28/2020,1/31/2020,1/31/2020,20,7339,WAL-MART DC 7033A-ASM DIS,21101 JOHNSON ROAD,,APPLE VALLEY,CA,92307,USA,,J B HUNT
SLF940,JF2015,BE96357-001,JF394-20200128,23011,4809382966,3,JF35672WMFL,,,564331438,20,5,4,0.565,25,MICKEY CLASSIC HAND TOWEL,10,,3,1/28/2020,1/31/2020,1/31/2020,20,7339,WAL-MART DC 7033A-ASM DIS,21101 JOHNSON ROAD,,APPLE VALLEY,CA,92307,USA,,J B HUNT
SLF940,JF2015,BE96357-001,JF394-20200128,23011,4809382966,4,JF35671WMFL,,,564334102,48,8,6,4.152,40,MICKEY CLASSIC BATH TOWEL,10,,4,1/28/2020,1/31/2020,1/31/2020,20,7339,WAL-MART DC 7033A-ASM DIS,21101 JOHNSON ROAD,,APPLE VALLEY,CA,92307,USA,,J B HUNT
SLF940,JF2015,BE96357-001,JF394-20200128,23011,4809382966,5,JF31984WMFL,,,566073660,88,22,4,9.35,88.22,SPIDERMAN 2PC BATH SET,10,,5,1/28/2020,1/31/2020,1/31/2020,20,7339,WAL-MART DC 7033A-ASM DIS,21101 JOHNSON ROAD,,APPLE VALLEY,CA,92307,USA,,J B HUNT
SLF940,JF2015,BE96357-001,JF394-20200128,23011,4809382966,6,JF68745WMFL,,,568575459,100,25,4,11.45,77,JOJO WOW UNICORN HOODED TOWEL,10,,6,1/28/2020,1/31/2020,1/31/2020,20,7339,WAL-MART DC 7033A-ASM DIS,21101 JOHNSON ROAD,,APPLE VALLEY,CA,92307,USA,,J B HUNT
SLF940,JF2015,BE96357-001,JF394-20200128,23011,4809382966,7,JF37262WMFL,,,575950672,80,20,4,8.5,79.8,FROZEN MODDULAR 2PC BATH SET,10,,7,1/28/2020,1/31/2020,1/31/2020,20,7339,WAL-MART DC 7033A-ASM DIS,21101 JOHNSON ROAD,,APPLE VALLEY,CA,92307,USA,,J B HUNT
SLF940,JF2015,BE96357-001,JF394-20200128,23011,4809382966,8,JF68484WMFL,,,575950675,48,12,4,5.028,38.88,FROZEN 2 OLAF HOODED BATH TOWE,10,,8,1/28/2020,1/31/2020,1/31/2020,20,7339,WAL-MART DC 7033A-ASM DIS,21101 JOHNSON ROAD,,APPLE VALLEY,CA,92307,USA,,J B HUNT
SLF940,JF2015,BE96357-001,JF394-20200128,23011,4809382966,9,JF68486WMFL,,,575950677,200,50,4,20.95,162,FROZEN 2 ELSA HOODED BATH TOWE,10,,9,1/28/2020,1/31/2020,1/31/2020,20,7339,WAL-MART DC 7033A-ASM DIS,21101 JOHNSON ROAD,,APPLE VALLEY,CA,92307,USA,,J B HUNT
SLF940,JF2015,BE96357-001,JF394-20200128,23011,4809382966,10,JF68485WMFL,,,575950678,40,10,4,4.19,32.4,FROZEN 2 ANNA HOODED BATH TOWE,10,,10,1/28/2020,1/31/2020,1/31/2020,20,7339,WAL-MART DC 7033A-ASM DIS,21101 JOHNSON ROAD,,APPLE VALLEY,CA,92307,USA,,J B HUNT
SLF940,JF2015,BE96358-001,JF394-20200128,23011,4459382917,1,JF68357WMFL,,,555503652,56,14,4,5.684,49,MICKEY STRIPES HOODED TOWEL,10,,1,1/28/2020,1/31/2020,1/31/2020,20,7349,WAL-MART DC 7034A-ASM DIS,100 WALTON WAY,,SMYRNA,DE,19977,USA,,J B HUNT
SLF940,JF2015,BE96358-001,JF394-20200128,23011,4459382917,2,JF68358WMFL,,,555503656,256,64,4,25.984,224,SPIDERMAN FACE ALTERNATIVE HOODED TOWEL,10,,2,1/28/2020,1/31/2020,1/31/2020,20,7349,WAL-MART DC 7034A-ASM DIS,100 WALTON WAY,,SMYRNA,DE,19977,USA,,J B HUNT
SLF940,JF2015,BE96358-001,JF394-20200128,23011,4459382917,3,JF35668WMFL,,,564331437,40,10,4,4.06,50,MINNIE CLASSIC HOODED TOWEL,10,,3,1/28/2020,1/31/2020,1/31/2020,20,7349,WAL-MART DC 7034A-ASM DIS,100 WALTON WAY,,SMYRNA,DE,19977,USA,,J B HUNT
SLF940,JF2015,BE96358-001,JF394-20200128,23011,4459382917,4,JF35672WMFL,,,564331438,12,3,4,0.339,15,MICKEY CLASSIC HAND TOWEL,10,,4,1/28/2020,1/31/2020,1/31/2020,20,7349,WAL-MART DC 7034A-ASM DIS,100 WALTON WAY,,SMYRNA,DE,19977,USA,,J B HUNT
SLF940,JF2015,BE96358-001,JF394-20200128,23011,4459382917,5,JF35671WMFL,,,564334102,24,4,6,2.076,20,MICKEY CLASSIC BATH TOWEL,10,,5,1/28/2020,1/31/2020,1/31/2020,20,7349,WAL-MART DC 7034A-ASM DIS,100 WALTON WAY,,SMYRNA,DE,19977,USA,,J B HUNT
SLF940,JF2015,BE96358-001,JF394-20200128,23011,4459382917,6,JF31984WMFL,,,566073660,88,22,4,9.35,88.22,SPIDERMAN 2PC BATH SET,10,,6,1/28/2020,1/31/2020,1/31/2020,20,7349,WAL-MART DC 7034A-ASM DIS,100 WALTON WAY,,SMYRNA,DE,19977,USA,,J B HUNT
SLF940,JF2015,BE96358-001,JF394-20200128,23011,4459382917,7,JF37262WMFL,,,575950672,88,22,4,9.35,87.78,FROZEN MODDULAR 2PC BATH SET,10,,7,1/28/2020,1/31/2020,1/31/2020,20,7349,WAL-MART DC 7034A-ASM DIS,100 WALTON WAY,,SMYRNA,DE,19977,USA,,J B HUNT
SLF940,JF2015,BE96358-001,JF394-20200128,23011,4459382917,8,JF68484WMFL,,,575950675,80,20,4,8.38,64.8,FROZEN 2 OLAF HOODED BATH TOWE,10,,8,1/28/2020,1/31/2020,1/31/2020,20,7349,WAL-MART DC 7034A-ASM DIS,100 WALTON WAY,,SMYRNA,DE,19977,USA,,J B HUNT
SLF940,JF2015,BE96358-001,JF394-20200128,23011,4459382917,9,JF68486WMFL,,,575950677,200,50,4,20.95,162,FROZEN 2 ELSA HOODED BATH TOWE,10,,9,1/28/2020,1/31/2020,1/31/2020,20,7349,WAL-MART DC 7034A-ASM DIS,100 WALTON WAY,,SMYRNA,DE,19977,USA,,J B HUNT
SLF940,JF2015,BE96358-001,JF394-20200128,23011,4459382917,10,JF68485WMFL,,,575950678,40,10,4,4.19,32.4,FROZEN 2 ANNA HOODED BATH TOWE,10,,10,1/28/2020,1/31/2020,1/31/2020,20,7349,WAL-MART DC 7034A-ASM DIS,100 WALTON WAY,,SMYRNA,DE,19977,USA,,J B HUNT
SLF940,JF2015,BE96359-001,JF394-20200128,23011,5308683049,1,JF68357WMFL,,,555503652,12,3,4,1.218,10.5,MICKEY STRIPES HOODED TOWEL,11,,1,1/28/2020,1/31/2020,1/31/2020,20,7359,WAL-MART DC 7035A-ASM DIS,18245 NW 115 AVENUE,,ALACHUA,FL,32615,USA,,J B HUNT
SLF940,JF2015,BE96359-001,JF394-20200128,23011,5308683049,2,JF68358WMFL,,,555503656,116,29,4,11.774,101.5,SPIDERMAN FACE ALTERNATIVE HOODED TOWEL,11,,2,1/28/2020,1/31/2020,1/31/2020,20,7359,WAL-MART DC 7035A-ASM DIS,18245 NW 115 AVENUE,,ALACHUA,FL,32615,USA,,J B HUNT
SLF940,JF2015,BE96359-001,JF394-20200128,23011,5308683049,3,JF35668WMFL,,,564331437,28,7,4,2.842,35,MINNIE CLASSIC HOODED TOWEL,11,,3,1/28/2020,1/31/2020,1/31/2020,20,7359,WAL-MART DC 7035A-ASM DIS,18245 NW 115 AVENUE,,ALACHUA,FL,32615,USA,,J B HUNT
SLF940,JF2015,BE96359-001,JF394-20200128,23011,5308683049,4,JF35672WMFL,,,564331438,4,1,4,0.113,5,MICKEY CLASSIC HAND TOWEL,11,,4,1/28/2020,1/31/2020,1/31/2020,20,7359,WAL-MART DC 7035A-ASM DIS,18245 NW 115 AVENUE,,ALACHUA,FL,32615,USA,,J B HUNT
SLF940,JF2015,BE96359-001,JF394-20200128,23011,5308683049,5,JF35671WMFL,,,564334102,18,3,6,1.557,15,MICKEY CLASSIC BATH TOWEL,11,,5,1/28/2020,1/31/2020,1/31/2020,20,7359,WAL-MART DC 7035A-ASM DIS,18245 NW 115 AVENUE,,ALACHUA,FL,32615,USA,,J B HUNT
SLF940,JF2015,BE96359-001,JF394-20200128,23011,5308683049,6,JF31984WMFL,,,566073660,52,13,4,5.525,52.13,SPIDERMAN 2PC BATH SET,11,,6,1/28/2020,1/31/2020,1/31/2020,20,7359,WAL-MART DC 7035A-ASM DIS,18245 NW 115 AVENUE,,ALACHUA,FL,32615,USA,,J B HUNT
SLF940,JF2015,BE96359-001,JF394-20200128,23011,5308683049,7,JF68745WMFL,,,568575459,52,13,4,5.954,40.04,JOJO WOW UNICORN HOODED TOWEL,11,,7,1/28/2020,1/31/2020,1/31/2020,20,7359,WAL-MART DC 7035A-ASM DIS,18245 NW 115 AVENUE,,ALACHUA,FL,32615,USA,,J B HUNT
SLF940,JF2015,BE96359-001,JF394-20200128,23011,5308683049,8,JF37262WMFL,,,575950672,56,14,4,5.95,55.86,FROZEN MODDULAR 2PC BATH SET,11,,8,1/28/2020,1/31/2020,1/31/2020,20,7359,WAL-MART DC 7035A-ASM DIS,18245 NW 115 AVENUE,,ALACHUA,FL,32615,USA,,J B HUNT
SLF940,JF2015,BE96359-001,JF394-20200128,23011,5308683049,9,JF68484WMFL,,,575950675,24,6,4,2.514,19.44,FROZEN 2 OLAF HOODED BATH TOWE,11,,9,1/28/2020,1/31/2020,1/31/2020,20,7359,WAL-MART DC 7035A-ASM DIS,18245 NW 115 AVENUE,,ALACHUA,FL,32615,USA,,J B HUNT
SLF940,JF2015,BE96359-001,JF394-20200128,23011,5308683049,10,JF68486WMFL,,,575950677,80,20,4,8.38,64.8,FROZEN 2 ELSA HOODED BATH TOWE,11,,10,1/28/2020,1/31/2020,1/31/2020,20,7359,WAL-MART DC 7035A-ASM DIS,18245 NW 115 AVENUE,,ALACHUA,FL,32615,USA,,J B HUNT
SLF940,JF2015,BE96359-001,JF394-20200128,23011,5308683049,11,JF68485WMFL,,,575950678,12,3,4,1.257,9.72,FROZEN 2 ANNA HOODED BATH TOWE,11,,11,1/28/2020,1/31/2020,1/31/2020,20,7359,WAL-MART DC 7035A-ASM DIS,18245 NW 115 AVENUE,,ALACHUA,FL,32615,USA,,J B HUNT
SLF940,JF2015,BE96361-001,JF394-20200128,23011,4609382818,1,JF68357WMFL,,,555503652,16,4,4,1.624,14,MICKEY STRIPES HOODED TOWEL,11,,1,1/28/2020,1/31/2020,1/31/2020,20,7369,WAL-MART DC 7036A-ASM DIS,2226 FM 3013 SUITE 110,,SEALY,TX,77474,USA,,J B HUNT
SLF940,JF2015,BE96361-001,JF394-20200128,23011,4609382818,2,JF68358WMFL,,,555503656,128,32,4,12.992,112,SPIDERMAN FACE ALTERNATIVE HOODED TOWEL,11,,2,1/28/2020,1/31/2020,1/31/2020,20,7369,WAL-MART DC 7036A-ASM DIS,2226 FM 3013 SUITE 110,,SEALY,TX,77474,USA,,J B HUNT
SLF940,JF2015,BE96361-001,JF394-20200128,23011,4609382818,3,JF35668WMFL,,,564331437,40,10,4,4.06,50,MINNIE CLASSIC HOODED TOWEL,11,,3,1/28/2020,1/31/2020,1/31/2020,20,7369,WAL-MART DC 7036A-ASM DIS,2226 FM 3013 SUITE 110,,SEALY,TX,77474,USA,,J B HUNT
SLF940,JF2015,BE96361-001,JF394-20200128,23011,4609382818,4,JF35672WMFL,,,564331438,8,2,4,0.226,10,MICKEY CLASSIC HAND TOWEL,11,,4,1/28/2020,1/31/2020,1/31/2020,20,7369,WAL-MART DC 7036A-ASM DIS,2226 FM 3013 SUITE 110,,SEALY,TX,77474,USA,,J B HUNT
SLF940,JF2015,BE96361-001,JF394-20200128,23011,4609382818,5,JF35671WMFL,,,564334102,30,5,6,2.595,25,MICKEY CLASSIC BATH TOWEL,11,,5,1/28/2020,1/31/2020,1/31/2020,20,7369,WAL-MART DC 7036A-ASM DIS,2226 FM 3013 SUITE 110,,SEALY,TX,77474,USA,,J B HUNT
SLF940,JF2015,BE96361-001,JF394-20200128,23011,4609382818,6,JF31984WMFL,,,566073660,88,22,4,9.35,88.22,SPIDERMAN 2PC BATH SET,11,,6,1/28/2020,1/31/2020,1/31/2020,20,7369,WAL-MART DC 7036A-ASM DIS,2226 FM 3013 SUITE 110,,SEALY,TX,77474,USA,,J B HUNT
SLF940,JF2015,BE96361-001,JF394-20200128,23011,4609382818,7,JF68745WMFL,,,568575459,64,16,4,7.328,49.28,JOJO WOW UNICORN HOODED TOWEL,11,,7,1/28/2020,1/31/2020,1/31/2020,20,7369,WAL-MART DC 7036A-ASM DIS,2226 FM 3013 SUITE 110,,SEALY,TX,77474,USA,,J B HUNT
SLF940,JF2015,BE96361-001,JF394-20200128,23011,4609382818,8,JF68470WMFL,,,575499142,32,8,4,3.352,11.52,LM PRINCESS ARIEL HOODED TOWEL,11,,8,1/28/2020,1/31/2020,1/31/2020,20,7369,WAL-MART DC 7036A-ASM DIS,2226 FM 3013 SUITE 110,,SEALY,TX,77474,USA,,J B HUNT
SLF940,JF2015,BE96361-001,JF394-20200128,23011,4609382818,9,JF37262WMFL,,,575950672,64,16,4,6.8,63.84,FROZEN MODDULAR 2PC BATH SET,11,,9,1/28/2020,1/31/2020,1/31/2020,20,7369,WAL-MART DC 7036A-ASM DIS,2226 FM 3013 SUITE 110,,SEALY,TX,77474,USA,,J B HUNT
SLF940,JF2015,BE96361-001,JF394-20200128,23011,4609382818,10,JF68484WMFL,,,575950675,36,9,4,3.771,29.16,FROZEN 2 OLAF HOODED BATH TOWE,11,,10,1/28/2020,1/31/2020,1/31/2020,20,7369,WAL-MART DC 7036A-ASM DIS,2226 FM 3013 SUITE 110,,SEALY,TX,77474,USA,,J B HUNT
SLF940,JF2015,BE96361-001,JF394-20200128,23011,4609382818,11,JF68486WMFL,,,575950677,120,30,4,12.57,97.2,FROZEN 2 ELSA HOODED BATH TOWE,11,,11,1/28/2020,1/31/2020,1/31/2020,20,7369,WAL-MART DC 7036A-ASM DIS,2226 FM 3013 SUITE 110,,SEALY,TX,77474,USA,,J B HUNT
SLF940,JF2015,BE96363-001,JF394-20200128,23011,7159162803,1,JF68357WMFL,,,555503652,80,20,4,8.12,70,MICKEY STRIPES HOODED TOWEL,9,,1,1/28/2020,1/31/2020,1/31/2020,20,7389,WAL-MART DC 7038A-ASM DIS,4009 SOUTH JENKINS ROAD,,FT PIERCE,FL,34981,USA,,J B HUNT
SLF940,JF2015,BE96363-001,JF394-20200128,23011,7159162803,2,JF68358WMFL,,,555503656,216,54,4,21.924,189,SPIDERMAN FACE ALTERNATIVE HOODED TOWEL,9,,2,1/28/2020,1/31/2020,1/31/2020,20,7389,WAL-MART DC 7038A-ASM DIS,4009 SOUTH JENKINS ROAD,,FT PIERCE,FL,34981,USA,,J B HUNT
SLF940,JF2015,BE96363-001,JF394-20200128,23011,7159162803,3,JF35668WMFL,,,564331437,160,40,4,16.24,200,MINNIE CLASSIC HOODED TOWEL,9,,3,1/28/2020,1/31/2020,1/31/2020,20,7389,WAL-MART DC 7038A-ASM DIS,4009 SOUTH JENKINS ROAD,,FT PIERCE,FL,34981,USA,,J B HUNT
SLF940,JF2015,BE96363-001,JF394-20200128,23011,7159162803,4,JF35671WMFL,,,564334102,96,16,6,8.304,80,MICKEY CLASSIC BATH TOWEL,9,,4,1/28/2020,1/31/2020,1/31/2020,20,7389,WAL-MART DC 7038A-ASM DIS,4009 SOUTH JENKINS ROAD,,FT PIERCE,FL,34981,USA,,J B HUNT
SLF940,JF2015,BE96363-001,JF394-20200128,23011,7159162803,5,JF31984WMFL,,,566073660,88,22,4,9.35,88.22,SPIDERMAN 2PC BATH SET,9,,5,1/28/2020,1/31/2020,1/31/2020,20,7389,WAL-MART DC 7038A-ASM DIS,4009 SOUTH JENKINS ROAD,,FT PIERCE,FL,34981,USA,,J B HUNT
SLF940,JF2015,BE96363-001,JF394-20200128,23011,7159162803,6,JF68745WMFL,,,568575459,80,20,4,9.16,61.6,JOJO WOW UNICORN HOODED TOWEL,9,,6,1/28/2020,1/31/2020,1/31/2020,20,7389,WAL-MART DC 7038A-ASM DIS,4009 SOUTH JENKINS ROAD,,FT PIERCE,FL,34981,USA,,J B HUNT
SLF940,JF2015,BE96363-001,JF394-20200128,23011,7159162803,7,JF37262WMFL,,,575950672,88,22,4,9.35,87.78,FROZEN MODDULAR 2PC BATH SET,9,,7,1/28/2020,1/31/2020,1/31/2020,20,7389,WAL-MART DC 7038A-ASM DIS,4009 SOUTH JENKINS ROAD,,FT PIERCE,FL,34981,USA,,J B HUNT
SLF940,JF2015,BE96363-001,JF394-20200128,23011,7159162803,8,JF68484WMFL,,,575950675,24,6,4,2.514,19.44,FROZEN 2 OLAF HOODED BATH TOWE,9,,8,1/28/2020,1/31/2020,1/31/2020,20,7389,WAL-MART DC 7038A-ASM DIS,4009 SOUTH JENKINS ROAD,,FT PIERCE,FL,34981,USA,,J B HUNT
SLF940,JF2015,BE96363-001,JF394-20200128,23011,7159162803,9,JF68486WMFL,,,575950677,120,30,4,12.57,97.2,FROZEN 2 ELSA HOODED BATH TOWE,9,,9,1/28/2020,1/31/2020,1/31/2020,20,7389,WAL-MART DC 7038A-ASM DIS,4009 SOUTH JENKINS ROAD,,FT PIERCE,FL,34981,USA,,J B HUNT
SLF940,JF2015,BE96364-001,JF394-20200128,23011,1059392788,1,JF68357WMFL,,,555503652,16,4,4,1.624,14,MICKEY STRIPES HOODED TOWEL,8,,1,1/28/2020,1/31/2020,1/31/2020,20,7399,WAL-MART DC 7039A-ASM DIS,111 DISTRIBUTION WAY,,BEAVER DAM,WI,53916,USA,,J B HUNT
SLF940,JF2015,BE96364-001,JF394-20200128,23011,1059392788,2,JF68358WMFL,,,555503656,44,11,4,4.466,38.5,SPIDERMAN FACE ALTERNATIVE HOODED TOWEL,8,,2,1/28/2020,1/31/2020,1/31/2020,20,7399,WAL-MART DC 7039A-ASM DIS,111 DISTRIBUTION WAY,,BEAVER DAM,WI,53916,USA,,J B HUNT
SLF940,JF2015,BE96364-001,JF394-20200128,23011,1059392788,3,JF35671WMFL,,,564334102,24,4,6,2.076,20,MICKEY CLASSIC BATH TOWEL,8,,3,1/28/2020,1/31/2020,1/31/2020,20,7399,WAL-MART DC 7039A-ASM DIS,111 DISTRIBUTION WAY,,BEAVER DAM,WI,53916,USA,,J B HUNT
SLF940,JF2015,BE96364-001,JF394-20200128,23011,1059392788,4,JF31984WMFL,,,566073660,48,12,4,5.1,48.12,SPIDERMAN 2PC BATH SET,8,,4,1/28/2020,1/31/2020,1/31/2020,20,7399,WAL-MART DC 7039A-ASM DIS,111 DISTRIBUTION WAY,,BEAVER DAM,WI,53916,USA,,J B HUNT
SLF940,JF2015,BE96364-001,JF394-20200128,23011,1059392788,5,JF68745WMFL,,,568575459,36,9,4,4.122,27.72,JOJO WOW UNICORN HOODED TOWEL,8,,5,1/28/2020,1/31/2020,1/31/2020,20,7399,WAL-MART DC 7039A-ASM DIS,111 DISTRIBUTION WAY,,BEAVER DAM,WI,53916,USA,,J B HUNT
SLF940,JF2015,BE96364-001,JF394-20200128,23011,1059392788,6,JF37262WMFL,,,575950672,44,11,4,4.675,43.89,FROZEN MODDULAR 2PC BATH SET,8,,6,1/28/2020,1/31/2020,1/31/2020,20,7399,WAL-MART DC 7039A-ASM DIS,111 DISTRIBUTION WAY,,BEAVER DAM,WI,53916,USA,,J B HUNT
SLF940,JF2015,BE96364-001,JF394-20200128,23011,1059392788,7,JF68484WMFL,,,575950675,40,10,4,4.19,32.4,FROZEN 2 OLAF HOODED BATH TOWE,8,,7,1/28/2020,1/31/2020,1/31/2020,20,7399,WAL-MART DC 7039A-ASM DIS,111 DISTRIBUTION WAY,,BEAVER DAM,WI,53916,USA,,J B HUNT
SLF940,JF2015,BE96364-001,JF394-20200128,23011,1059392788,8,JF68486WMFL,,,575950677,160,40,4,16.76,129.6,FROZEN 2 ELSA HOODED BATH TOWE,8,,8,1/28/2020,1/31/2020,1/31/2020,20,7399,WAL-MART DC 7039A-ASM DIS,111 DISTRIBUTION WAY,,BEAVER DAM,WI,53916,USA,,J B HUNT
SLF940,JF2015,BE96366-001,JF394-20200128,23011,4959382730,1,JF68358WMFL,,,555503656,64,16,4,6.496,56,SPIDERMAN FACE ALTERNATIVE HOODED TOWEL,6,,1,1/28/2020,1/31/2020,1/31/2020,20,7459,WAL-MART DC 7045A-ASM DIS,6004 WALTON WAY,,MT. CRAWFORD,VA,22841,USA,,J B HUNT
SLF940,JF2015,BE96366-001,JF394-20200128,23011,4959382730,2,JF35672WMFL,,,564331438,12,3,4,0.339,15,MICKEY CLASSIC HAND TOWEL,6,,2,1/28/2020,1/31/2020,1/31/2020,20,7459,WAL-MART DC 7045A-ASM DIS,6004 WALTON WAY,,MT. CRAWFORD,VA,22841,USA,,J B HUNT
SLF940,JF2015,BE96366-001,JF394-20200128,23011,4959382730,3,JF31984WMFL,,,566073660,52,13,4,5.525,52.13,SPIDERMAN 2PC BATH SET,6,,3,1/28/2020,1/31/2020,1/31/2020,20,7459,WAL-MART DC 7045A-ASM DIS,6004 WALTON WAY,,MT. CRAWFORD,VA,22841,USA,,J B HUNT
SLF940,JF2015,BE96366-001,JF394-20200128,23011,4959382730,4,JF37262WMFL,,,575950672,60,15,4,6.375,59.85,FROZEN MODDULAR 2PC BATH SET,6,,4,1/28/2020,1/31/2020,1/31/2020,20,7459,WAL-MART DC 7045A-ASM DIS,6004 WALTON WAY,,MT. CRAWFORD,VA,22841,USA,,J B HUNT
SLF940,JF2015,BE96366-001,JF394-20200128,23011,4959382730,5,JF68484WMFL,,,575950675,80,20,4,8.38,64.8,FROZEN 2 OLAF HOODED BATH TOWE,6,,5,1/28/2020,1/31/2020,1/31/2020,20,7459,WAL-MART DC 7045A-ASM DIS,6004 WALTON WAY,,MT. CRAWFORD,VA,22841,USA,,J B HUNT
SLF940,JF2015,BE96366-001,JF394-20200128,23011,4959382730,6,JF68486WMFL,,,575950677,80,20,4,8.38,64.8,FROZEN 2 ELSA HOODED BATH TOWE,6,,6,1/28/2020,1/31/2020,1/31/2020,20,7459,WAL-MART DC 7045A-ASM DIS,6004 WALTON WAY,,MT. CRAWFORD,VA,22841,USA,,J B HUNT
